{"version": 0.6, "generator": "Overpass API 0.7.61.5 4133829e", "osm3s": {"timestamp_osm_base": "2024-01-02T22:21:00Z", "copyright": "The data included in this document is from www.openstreetmap.org. The data is made available under ODbL."}, "elements": [{"type": "node", "id": 277958275, "lat": 52.5846088, "lon": 13.3117903, "tags": {"addr:city": "Berlin", "addr:country": "DE", "addr:housenumber": "140d", "addr:postcode": "13509", "addr:street": "Holzhauser Straße", "addr:suburb": "Borsigwalde", "brand": "Kieser Training", "brand:wikidata": "Q1112367", "brand:wikipedia": "de:Kieser Training", "email": "berlin5@kieser-training.com", "fax": "+49 30 41718918", "leisure": "fitness_centre", "name": "Kieser Training", "opening_hours": "Mo-Fr 07:00-22:00; Sa-Su,PH 09:00-18:00", "operator": "Kieser Training", "phone": "+49 30 41718917", "website": "https://www.kieser-training.de/studios/berlin/berlin-reinickendorf"}}, {"type": "node", "id": 277958277, "lat": 52.5467638, "lon": 13.4425034, "tags": {"addr:city": "Berlin", "addr:country": "DE", "addr:housenumber": "107", "addr:postcode": "10409", "addr:street": "Ostseestraße", "addr:suburb": "Prenzlauer Berg", "brand": "Kieser Training", "brand:wikidata": "Q1112367", "brand:wikipedia": "de:Kieser Training", "email": "berlin6@kieser-training.com", "fax": "+49 30 42105266", "leisure": "fitness_centre", "name": "Kieser Training", "opening_hours": "Mo-Fr 07:00-21:00; PH,Sa,Su 09:00-18:00", "phone": "+49 30 42105260", "website": "https://www.kieser-training.de/studios/berlin/berlin-prenzlauer-berg", "wheelchair": "yes"}}, {"type": "node", "id": 277958288, "lat": 52.4799991, "lon": 13.3051873, "tags": {"addr:city": "Berlin", "addr:country": "DE", "addr:housenumber": "9-13", "addr:postcode": "14199", "addr:street": "Forckenbeckstraße", "addr:suburb": "Schmargendorf", "brand": "Kieser Training", "brand:wikidata": "Q1112367", "contact:email": "berlin1@kieser-training.com", "contact:fax": "+49 30 89725031", "contact:phone": "+49 30 89725030", "contact:website": "http://www.kieser-training.de/studios/berlin/berlin-wilmersdorf", "leisure": "fitness_centre", "name": "Kieser Training", "opening_hours": "Mo-Fr 07:30-21:30; Sa-Su, PH 09:00-18:00", "operator": "Kieser Training"}}, {"type": "node", "id": 277958289, "lat": 52.4429012, "lon": 13.3296947, "tags": {"addr:city": "Berlin", "addr:country": "DE", "addr:housenumber": "2", "addr:postcode": "12247", "addr:street": "Teltowkanalstraße", "addr:suburb": "Lankwitz", "brand": "Kieser Training", "brand:wikidata": "Q1112367", "brand:wikipedia": "de:Kieser Training", "leisure": "fitness_centre", "name": "Kieser Training", "operator": "Kieser Training", "wheelchair": "yes"}}, {"type": "node", "id": 277958291, "lat": 52.43395, "lon": 13.4691087, "tags": {"addr:city": "Berlin", "addr:country": "DE", "addr:housenumber": "132", "addr:postcode": "12351", "addr:street": "Rudower Straße", "addr:suburb": "Buckow", "brand": "Kieser Training", "brand:wikidata": "Q1112367", "brand:wikipedia": "de:Kieser Training", "check_date": "2023-07-23", "contact:email": "berlin7@kieser-training.com", "contact:fax": "+49 30 60490053", "contact:phone": "+49 30 60490052", "contact:website": "https://www.kieser-training.de/studios/berlin/berlin-neukoelln", "leisure": "fitness_centre", "name": "Kieser Training", "opening_hours": "Mo-Fr 07:30-21:30; Sa-Su,PH 09:00-18:00", "operator": "Kieser Training", "toilets:wheelchair": "yes", "wheelchair": "yes"}}, {"type": "node", "id": 277958294, "lat": 52.3811078, "lon": 13.1161868, "tags": {"brand": "Kieser Training", "brand:wikidata": "Q1112367", "leisure": "fitness_centre", "name": "Kieser Training", "opening_hours": "Mo-Fr 07:30-21:30, Sa,Su,PH 09:00-18:00", "operator": "Kieser Training", "wheelchair": "limited"}}, {"type": "node", "id": 416628781, "lat": 52.6469219, "lon": 13.5317835, "tags": {"leisure": "fitness_centre", "name": "Life Fitness Panketal"}}, {"type": "node", "id": 617268225, "lat": 52.5361874, "lon": 13.4746956, "tags": {"addr:city": "Berlin", "addr:housenumber": "56-60", "addr:postcode": "13055", "addr:street": "Konrad-Wolf-Straße", "brand": "McFit", "brand:wikidata": "Q871302", "brand:wikipedia": "en:McFit", "leisure": "fitness_centre", "name": "McFit", "opening_hours": "24/7", "phone": "+493097604201", "sport": "fitness", "website": "https://www.mcfit.com/de/studiodetail/info/berlin-hohenschoenhausen.html", "wheelchair": "yes"}}, {"type": "node", "id": 645677448, "lat": 52.5267655, "lon": 13.333241, "tags": {"addr:city": "Berlin", "addr:country": "DE", "addr:housenumber": "74", "addr:postcode": "10551", "addr:street": "Turmstraße", "addr:suburb": "Moabit", "check_date": "2023-09-07", "check_date:opening_hours": "2023-10-27", "contact:phone": "old:+49303921051", "disused:shop": "optician", "leisure": "fitness_centre", "name": "Fitbox", "opening_hours": "Mo-Fr 09:00-20:00; Sa 09:00-15:00", "website": "https://www.bardorf-optik.de/", "wheelchair": "no"}}, {"type": "node", "id": 673611600, "lat": 52.5021593, "lon": 13.3080794, "tags": {"addr:city": "Berlin", "addr:country": "DE", "addr:housenumber": "98", "addr:postcode": "10629", "addr:street": "Wilmersdorfer Straße", "addr:suburb": "Charlottenburg", "leisure": "fitness_centre", "name": "Viva Studio", "opening_hours": "Mo-Fr 08:00-17:00; Sa,Su 09:00-15:00", "sport": "yoga"}}, {"type": "node", "id": 810590618, "lat": 52.5005987, "lon": 13.2943126, "tags": {"leisure": "fitness_centre", "name": "Aspria", "opening_hours": "Mo-Fr 06:00-23:00; PH,Sa,Su 08:00-22:00", "website": "http://www.aspria-berlin.de"}}, {"type": "node", "id": 812219708, "lat": 52.4644342, "lon": 13.3269685, "tags": {"addr:city": "Berlin", "addr:country": "DE", "addr:housenumber": "1", "addr:postcode": "12163", "addr:street": "Schloßstraße", "addr:suburb": "Steglitz", "contact:email": "member@superfit.club", "contact:phone": "+49 30 688381768", "contact:website": "https://superfit.club/", "leisure": "fitness_centre", "level": "5", "name": "Superfit", "opening_hours": "24/7", "sport": "fitness", "wheelchair": "limited"}}, {"type": "node", "id": 823473534, "lat": 52.4866239, "lon": 13.3283776, "tags": {"addr:city": "Berlin", "addr:country": "DE", "addr:housenumber": "148", "addr:postcode": "10715", "addr:street": "Berliner Straße", "addr:suburb": "Wilmersdorf", "brand": "McFit", "brand:wikidata": "Q871302", "brand:wikipedia": "en:McFit", "contact:phone": "+49 30 86207114", "contact:website": "https://www.mcfit.com/de/studiodetail/info/berlin-wilmersdorf.html", "leisure": "fitness_centre", "name": "McFit", "opening_hours": "24/7", "sport": "fitness", "wheelchair": "yes"}}, {"type": "node", "id": 833174269, "lat": 52.4648869, "lon": 13.3277034, "tags": {"addr:city": "Berlin", "addr:country": "DE", "addr:housenumber": "1", "addr:postcode": "12161", "addr:street": "Walther-Schreiber-Platz", "brand": "Elbgym", "contact:phone": "+49 30 814560270", "contact:website": "https://elbgym.de/fitnessstudio-berlin-steglitz/", "leisure": "fitness_centre", "level": "2", "name": "Elbgym", "opening_hours": "Mo-Fr 06:00-22:30; Sa-Su 08:00-20:00", "sport": "fitness;weightlifting;yoga", "wheelchair": "no"}}, {"type": "node", "id": 879311582, "lat": 52.5123998, "lon": 13.3908216, "tags": {"addr:city": "Berlin", "addr:country": "DE", "addr:housenumber": "50", "addr:postcode": "10117", "addr:street": "Mohrenstraße", "addr:suburb": "Mitte", "brand": "Holmes Place", "brand:wikidata": "Q15815819", "leisure": "fitness_centre", "name": "Holmes Place", "opening_hours": "Mo-Th 06:00-23:00; Fr 06:00-22:00; Sa,Su,PH 08:00-22:00", "toilets:wheelchair": "no", "website": "https://www.holmesplace.de/d/clubs/index.berlin-gendarmenmarkt.php", "wheelchair": "yes", "wheelchair:description": "Es gibt mehrere Rollstuhlfahrer die das Studio und den Pool nutzen."}}, {"type": "node", "id": 891052374, "lat": 52.5258921, "lon": 13.3082059, "tags": {"addr:city": "Berlin", "addr:country": "DE", "addr:housenumber": "45", "addr:postcode": "10589", "addr:street": "Kaiserin-Augusta-Allee", "addr:suburb": "Charlottenburg", "image": "https://berlin-personaltrainer.de/wp-content/uploads/2023/02/typt-Logos-600-px-grau-1.png", "leisure": "fitness_centre", "name": "Tayfun Personal Trainer", "opening_hours": "Mo-Fr 09:00-21:00", "phone": "+49 30 692 016 36", "sport": "athletics;fitness;multi", "website": "https://www.berlin-personaltrainer.de/"}}, {"type": "node", "id": 901662461, "lat": 52.5218057, "lon": 13.4988651, "tags": {"addr:city": "Berlin", "addr:housenumber": "177", "addr:postcode": "10365", "addr:street": "Siegfriedstraße", "brand": "McFit", "brand:wikidata": "Q871302", "brand:wikipedia": "en:McFit", "leisure": "fitness_centre", "name": "McFit", "opening_hours": "24/7", "phone": "+49 30 55154631", "sport": "fitness", "website": "https://www.mcfit.com", "wheelchair": "no"}}, {"type": "node", "id": 925525521, "lat": 52.5045718, "lon": 13.3373165, "tags": {"brand": "SuperFit", "leisure": "fitness_centre", "level": "2", "name": "SuperFit", "sport": "fitness"}}, {"type": "node", "id": 928931970, "lat": 52.4609717, "lon": 13.3250803, "tags": {"addr:city": "Berlin", "addr:country": "DE", "addr:housenumber": "110", "addr:postcode": "12163", "addr:street": "Schloßstraße", "addr:suburb": "Steglitz", "brand": "Fitness First", "brand:wikidata": "Q127120", "brand:wikipedia": "en:Fitness First", "leisure": "fitness_centre", "name": "Fitness First", "opening_hours": "Mo-Fr 06:30-22:00; Sa,Su 08:00-21:00", "operator": "FitnessFirst", "website": "https://www.fitnessfirst.de/clubs/berlin-steglitz", "wheelchair": "no"}}, {"type": "node", "id": 932651529, "lat": 52.5110587, "lon": 13.4488022, "tags": {"addr:city": "Berlin", "addr:country": "DE", "addr:housenumber": "7", "addr:postcode": "10243", "addr:street": "Torellstraße", "addr:suburb": "Friedrichshain", "check_date:opening_hours": "2022-11-20", "contact:email": "info@sunyoga.de", "contact:phone": "+49 30 740 78 026", "contact:website": "http://sunyoga.de", "leisure": "fitness_centre", "name": "SunYoga", "opening_hours:signed": "no", "sport": "yoga", "wheelchair": "yes"}}, {"type": "node", "id": 958096426, "lat": 52.4927563, "lon": 13.4142438, "tags": {"addr:city": "Berlin", "addr:country": "DE", "addr:housenumber": "19", "addr:postcode": "10967", "addr:street": "Grimmstraße", "addr:suburb": "Kreuzberg", "contact:email": "post@graefeyoga.de", "contact:phone": "+49 30 6916663", "contact:website": "http://www.graefeyoga.de", "leisure": "fitness_centre", "name": "Yoga im Graefekiez", "operator": "Petra Trojan", "sport": "yoga", "wheelchair": "no"}}, {"type": "node", "id": 970070951, "lat": 52.4645372, "lon": 13.3270583, "tags": {"addr:city": "Berlin", "addr:country": "DE", "addr:housenumber": "1", "addr:postcode": "12163", "addr:street": "Schloßstraße", "addr:suburb": "Steglitz", "contact:phone": "+4930688381768", "contact:website": "http://www.mysuperfit.com/html/st_fsw.htm", "email": "member@mysuperfit.com", "leisure": "fitness_centre", "level": "5", "name": "Superfit Woman", "opening_hours": "Mo-Fr 07:00-23:00; Sa,Su 08:00-22:00", "sport": "fitness", "wheelchair": "yes"}}, {"type": "node", "id": 1056915608, "lat": 52.4374123, "lon": 13.2638613, "tags": {"addr:city": "Berlin", "addr:country": "DE", "addr:housenumber": "328-334", "addr:postcode": "14169", "addr:street": "Clayallee", "addr:suburb": "Zehlendorf", "brand": "Fitness First", "brand:wikidata": "Q127120", "brand:wikipedia": "en:Fitness First", "leisure": "fitness_centre", "name": "Fitness First", "opening_hours": "Mo-Fr 06:00-23:00; Sa 08:00-22:00; Su 08:00-21:00", "source": "Geoportal Berlin / k5_2012_sw_sued.zip", "sport": "fitness", "website": "https://www.fitnessfirst.de", "wheelchair": "no"}}, {"type": "node", "id": 1056915620, "lat": 52.4378498, "lon": 13.2641914, "tags": {"addr:city": "Berlin", "addr:country": "DE", "addr:housenumber": "328-334", "addr:postcode": "14169", "addr:street": "Clayallee", "addr:suburb": "Zehlendorf", "brand": "Fitness First", "brand:wikidata": "Q127120", "contact:website": "https://www.fitnessfirst.de/clubs/berlin-zehlendorfer-welle", "leisure": "fitness_centre", "name": "Fitness First", "operator": "Fitness First", "sport": "swimming"}}, {"type": "node", "id": 1094853553, "lat": 52.5100356, "lon": 13.4548892, "tags": {"addr:city": "Berlin", "addr:country": "DE", "addr:housenumber": "1", "addr:postcode": "10245", "addr:street": "Libauer Straße", "addr:suburb": "Friedrichshain", "check_date:opening_hours": "2023-11-23", "contact:website": "https://www.beat81.com/", "leisure": "fitness_centre", "name": "Beat 81", "opening_hours:signed": "no", "sport": "cycling", "wheelchair": "limited"}}, {"type": "node", "id": 1112755252, "lat": 52.4296407, "lon": 13.2611651, "tags": {"addr:city": "Berlin", "addr:country": "DE", "addr:housenumber": "4", "addr:postcode": "14167", "addr:street": "Mühlenstraße", "addr:suburb": "Zehlendorf", "brand": "Mrs. Sporty", "brand:wikidata": "Q100718953", "contact:email": "club347@club.mrssporty.de", "contact:fax": "+49 30 81789003", "contact:phone": "+49 30 81789001", "leisure": "fitness_centre", "name": "Mrs. Sporty", "sport": "fitness", "website": "https://www.mrssporty.de/club347", "wheelchair": "yes"}}, {"type": "node", "id": 1120057604, "lat": 52.5496432, "lon": 13.4147198, "tags": {"addr:city": "Berlin", "addr:country": "DE", "addr:housenumber": "80", "addr:postcode": "10439", "addr:street": "Schönhauser Allee", "addr:suburb": "Prenzlauer Berg", "brand": "Fitness First", "brand:wikidata": "Q127120", "brand:wikipedia": "en:Fitness First", "contact:website": "https://www.fitnessfirst.de/clubs/berlin-prenzlauer-berg", "leisure": "fitness_centre", "name": "Fitness First", "wheelchair": "no"}}, {"type": "node", "id": 1207853570, "lat": 52.6362756, "lon": 13.2002114, "tags": {"leisure": "fitness_centre", "name": "Ars Vivendi FitnessClub", "wheelchair": "yes"}}, {"type": "node", "id": 1218312075, "lat": 52.5293516, "lon": 13.425576, "tags": {"addr:city": "Berlin", "addr:housenumber": "8d", "addr:postcode": "10405", "addr:street": "Greifswalder Straße", "leisure": "fitness_centre", "name": "Yoga Hub Berlin", "opening_hours:signed": "no", "sport": "yoga", "website": "https://www.yogahubberlin.com"}}, {"type": "node", "id": 1270475988, "lat": 52.5129482, "lon": 13.4409043, "tags": {"addr:city": "Berlin", "addr:country": "DE", "addr:housenumber": "71", "addr:postcode": "10243", "addr:street": "Rüdersdorfer Straße", "addr:suburb": "Friedrichshain", "check_date:opening_hours": "2022-12-11", "contact:email": "info@fitnesscompany-berlin.de", "contact:phone": "+493029782000", "contact:website": "http://www.fitnesscompany-berlin.de/", "leisure": "fitness_centre", "name": "Fitness Company Berlin", "opening_hours": "Mo,We 08:00-23:00; Tu,Th,Fr 08:00-22:00; Sa 10:00-19:00; Su 10:00-20:00", "sport": "fitness", "toilets:wheelchair": "no", "wheelchair": "no"}}, {"type": "node", "id": 1279265631, "lat": 52.5072487, "lon": 13.3262582, "tags": {"leisure": "fitness_centre", "name": "Fitness and More"}}, {"type": "node", "id": 1333143675, "lat": 52.470673, "lon": 13.3310663, "tags": {"addr:city": "Berlin", "addr:country": "DE", "addr:housenumber": "24", "addr:postcode": "12161", "addr:street": "Schmiljanstraße", "addr:suburb": "Friedenau", "email": "berlin@sivananda.net", "leisure": "fitness_centre", "name": "Sivananda Yoga", "note": "Sivananda Yoga Vedanta Zentrum Berlin e.V.", "phone": "+49 30 85999798", "source": "http://www.sivananda.org/berlin/", "sport": "yoga", "website": "https://berlin.sivananda.yoga/"}}, {"type": "node", "id": 1336704497, "lat": 52.5371165, "lon": 13.2058468, "tags": {"leisure": "fitness_centre", "name": "Gymfit"}}, {"type": "node", "id": 1387894027, "lat": 52.4772069, "lon": 13.2895103, "tags": {"brand": "Mrs. Sporty", "brand:wikidata": "Q100718953", "leisure": "fitness_centre", "name": "Mrs. Sporty", "sport": "gymnastics"}}, {"type": "node", "id": 1438454178, "lat": 52.5083534, "lon": 13.3059323, "tags": {"addr:city": "Berlin", "addr:country": "DE", "addr:housenumber": "54", "addr:postcode": "10627", "addr:street": "Wilmersdorfer Straße", "addr:suburb": "Charlottenburg", "check_date": "2023-04-10", "contact:phone": "+49 30 30831051", "contact:website": "http://www.mysuperfit.com", "email": "member@mysuperfit.com", "lastcheck": "2015-12-27", "leisure": "fitness_centre", "level": "3", "name": "Superfit", "opening_hours": "24/7", "wheelchair": "no"}}, {"type": "node", "id": 1438455119, "lat": 52.5186131, "lon": 13.4160003, "tags": {"addr:city": "Berlin", "addr:country": "DE", "addr:housenumber": "20", "addr:postcode": "10179", "addr:street": "Grunerstraße", "addr:suburb": "Mitte", "contact:email": "member@mysuperfit.com", "contact:facebook": "https://www.facebook.com/Superfit-MitteAlexa-232940396804941/", "contact:foursquare": "https://foursquare.com/v/_/4d98ab3e0caaa1439943b2b3", "contact:phone": "+49 30 27879810", "contact:website": "https://superfit.club/", "leisure": "fitness_centre", "level": "4", "name": "SuperFit", "opening_hours": "24/7", "wheelchair": "limited"}}, {"type": "node", "id": 1457608587, "lat": 52.5537674, "lon": 13.3604139, "tags": {"addr:city": "Berlin", "addr:country": "DE", "addr:housename": "Forum Seestraße", "addr:housenumber": "64", "addr:postcode": "13347", "addr:street": "Seestraße", "addr:suburb": "Wedding", "brand": "McFit", "brand:wikidata": "Q871302", "brand:wikipedia": "en:McFit", "check_date": "2023-10-03", "contact:phone": "+49 30 45027956", "leisure": "fitness_centre", "name": "McFit", "opening_hours": "24/7", "sport": "fitness", "website": "https://www.mcfit.com", "wheelchair": "yes"}}, {"type": "node", "id": 1470020226, "lat": 52.4934118, "lon": 13.3886695, "tags": {"addr:city": "Berlin", "addr:country": "DE", "addr:housename": "M33-Höfe Gewerbehinterhof,1. Aufgang", "addr:housenumber": "33", "addr:postcode": "10961", "addr:street": "Mehringdamm", "addr:suburb": "Kreuzberg", "leisure": "fitness_centre", "name": "SunYoga", "phone": "+49 30 69565522", "sport": "yoga", "website": "https://www.sunyoga.de/", "wheelchair": "no"}}, {"type": "node", "id": 1471968739, "lat": 52.5489078, "lon": 13.4079903, "tags": {"check_date": "2023-04-10", "leisure": "fitness_centre", "sport": "yoga", "wheelchair": "limited"}}, {"type": "node", "id": 1577855726, "lat": 52.4223527, "lon": 13.4379849, "tags": {"leisure": "fitness_centre", "name": "M&M Fitness-Center", "website": "http://www.mundm-fitness.de/", "wheelchair": "yes"}}, {"type": "node", "id": 1583959145, "lat": 52.5052223, "lon": 13.6123631, "tags": {"addr:city": "Berlin", "addr:housenumber": "24", "addr:postcode": "12623", "addr:street": "Alt-Mahlsdorf", "branch": "Mahlsdorf", "brand": "McFit", "brand:wikidata": "Q871302", "brand:wikipedia": "en:McFit", "leisure": "fitness_centre", "name": "McFit", "opening_hours": "24/7", "phone": "+49 30 5659 2494", "sport": "fitness", "wheelchair": "yes"}}, {"type": "node", "id": 1584743772, "lat": 52.5391543, "lon": 13.4215361, "tags": {"addr:city": "Berlin", "addr:country": "DE", "addr:housenumber": "102", "addr:postcode": "10435", "addr:street": "Kollwitzstraße", "addr:suburb": "Prenzlauer Berg", "contact:mobile": "+49 176 32228072", "contact:website": "https://www.hadizalzadeh.de/", "description": "Trainings- und Coachingkonzepte", "leisure": "fitness_centre", "name": "Hadi Zalzadeh", "opening_hours": "Mo-Fr 08:00-20:00; Sa 10:00-18:00; Su \"auf Anfrage\"", "sport": "fitness;gymnastics;exercise", "wheelchair": "yes"}}, {"type": "node", "id": 1715298789, "lat": 52.5492489, "lon": 13.354639, "tags": {"addr:city": "Berlin", "addr:country": "DE", "addr:housenumber": "36", "addr:postcode": "13353", "addr:street": "Müllerstraße", "addr:suburb": "Wedding", "leisure": "fitness_centre", "name": "Fit T9 Frauenfitness", "opening_hours": "Mo-Fr 07:00-23:00; Sa,Su 09:00-22:00", "website": "http://fit-t9.de/frauenfitness-berlin-wedding/", "wheelchair": "no", "wheelchair:description": "Fahrstuhl vorhanden, jedoch obere Etage nur mit Treppe erreichbar"}}, {"type": "node", "id": 1718478056, "lat": 52.4764214, "lon": 13.3294195, "tags": {"addr:city": "Berlin", "addr:country": "DE", "addr:housenumber": "7", "addr:postcode": "12159", "addr:street": "Sieglindestraße", "addr:suburb": "Friedenau", "leisure": "fitness_centre", "name": "myoga", "sport": "yoga", "website": "http://friedenauyoga.de/", "wheelchair": "no"}}, {"type": "node", "id": 1762116722, "lat": 52.4306176, "lon": 13.3755423, "tags": {"branch": "Berlin Marienfelde", "brand": "McFit", "brand:wikidata": "Q871302", "leisure": "fitness_centre", "name": "McFit", "sport": "fitness", "wheelchair": "yes"}}, {"type": "node", "id": 1870398737, "lat": 52.4974065, "lon": 13.3504955, "tags": {"addr:city": "Berlin", "addr:country": "DE", "addr:housenumber": "23", "addr:postcode": "10777", "addr:street": "Nollendorfstraße", "addr:suburb": "Schöneberg", "contact:email": "info@rent-a-trainer-berlin.com", "contact:phone": "+49 162 7866266", "contact:website": "https://www.rent-a-trainer-berlin.com/", "leisure": "fitness_centre", "name": "Rent-A-Trainer-Berlin Gym", "opening_hours": "Mo-Fr 07:00-22:00; Sa 08:00-16:00; Su,PH off", "wheelchair": "no"}}, {"type": "node", "id": 1915070108, "lat": 52.4979231, "lon": 13.3192394, "tags": {"addr:city": "Berlin", "addr:country": "DE", "addr:housenumber": "43", "addr:postcode": "10707", "addr:street": "Pariser Straße", "addr:suburb": "Wilmersdorf", "leisure": "fitness_centre", "name": "Urban Boost", "sport": "fitness"}}, {"type": "node", "id": 1918474939, "lat": 52.477839, "lon": 13.286039, "tags": {"leisure": "fitness_centre", "name": "Zentrum für Yoga & Qigong", "source": "GDAL 1.9.1", "sport": "yoga"}}, {"type": "node", "id": 1970628072, "lat": 52.6069668, "lon": 13.419858, "tags": {"addr:city": "Berlin", "addr:country": "DE", "addr:housenumber": "3", "addr:postcode": "13127", "addr:street": "Hugenottenplatz", "addr:suburb": "Französisch Buchholz", "brand": "Mrs. Sporty", "brand:wikidata": "Q100718953", "leisure": "fitness_centre", "name": "Mrs. Sporty", "opening_hours": "PH,Mo-Su 06:00-22:00", "phone": "+493047487074", "website": "https://www.mrssporty.de/club/berlin-franzoesisch-buchholz/"}}, {"type": "node", "id": 1981014509, "lat": 52.4376876, "lon": 13.5469767, "tags": {"addr:city": "Berlin", "addr:country": "DE", "addr:housenumber": "69", "addr:postcode": "12489", "addr:street": "Genossenschaftsstraße", "addr:suburb": "Adlershof", "check_date:opening_hours": "2020-10-11", "email": "mail@impulsems.de", "leisure": "fitness_centre", "name": "Impuls EMS-Studio", "opening_hours": "Mo 08:30-20:00, Tu 08:30-21:00, We 08:30-20:00, Tu 08:30-21:00, Fr 08:30-20:00, Sa 08:30-15:00; PH off", "operator": "Friedrich & Großmann GbR", "phone": "+49 30 70 76 11 31", "wheelchair": "yes", "wheelchair:description": "geschlossen"}}, {"type": "node", "id": 2082268403, "lat": 52.5063071, "lon": 13.3071048, "tags": {"brand": "Fitness First", "brand:wikidata": "Q127120", "brand:wikipedia": "en:Fitness First", "leisure": "fitness_centre", "level": "4", "name": "Fitness First", "opening_hours": "Mo,We,Fr 07:00-23:00, Tu,Th 09:00-23:00, Sa,Su,PH 10:00-20:00", "sport": "gymnastics", "website": "https://www.fitnessfirst.de/", "wheelchair": "yes"}}, {"type": "node", "id": 2116638898, "lat": 52.5115671, "lon": 13.3211747, "tags": {"brand": "Kieser Training", "brand:wikidata": "Q1112367", "brand:wikipedia": "de:Kieser Training", "email": "berlin10@kieser-training.com", "fax": "+49 30 43727808", "leisure": "fitness_centre", "name": "Kieser Training", "opening_hours": "Mo-Fr 07:00-22:00; Sa-Su, PH 09:00-18:00", "phone": "+49 30 43727807", "website": "https://www.kieser-training.de/studios/berlin/berlin-charlottenburg", "wheelchair": "limited"}}, {"type": "node", "id": 2149937826, "lat": 52.4696804, "lon": 13.3743607, "tags": {"addr:city": "Berlin", "addr:country": "DE", "addr:housenumber": "12-15", "addr:postcode": "12103", "addr:street": "Schöneberger Straße", "addr:suburb": "Tempelhof", "brand": "McFit", "brand:wikidata": "Q871302", "brand:wikipedia": "en:McFit", "leisure": "fitness_centre", "name": "McFit", "opening_hours": "24/7", "phone": "+49 30 75443877", "sport": "fitness", "website": "https://www.mcfit.com", "wheelchair": "no"}}, {"type": "node", "id": 2187588493, "lat": 52.5119376, "lon": 13.3049113, "tags": {"addr:city": "Berlin", "addr:country": "DE", "addr:housenumber": "38", "addr:postcode": "10585", "addr:street": "Wilmersdorfer Straße", "addr:suburb": "Charlottenburg", "brand": "Holmes Place", "brand:wikidata": "Q15815819", "check_date": "2023-04-09", "contact:website": "https://www.holmesplace.com/de/de/clubs/bismarckstrasse", "leisure": "fitness_centre", "name": "Holmes Place", "opening_hours": "Mo-Fr 07:00-22:00; Sa-Su 09:00-21:00", "wheelchair": "yes"}}, {"type": "node", "id": 2306175948, "lat": 52.5248857, "lon": 13.34569, "tags": {"addr:city": "Berlin", "addr:country": "DE", "addr:housenumber": "96D", "addr:postcode": "10559", "addr:street": "Alt-Moabit", "addr:suburb": "Moabit", "brand": "McFit", "brand:wikidata": "Q871302", "brand:wikipedia": "en:McFit", "check_date": "2023-11-12", "contact:phone": "+49 30 36409850", "contact:website": "https://www.mcfit.com", "leisure": "fitness_centre", "level": "0", "name": "McFit", "opening_hours": "24/7", "sport": "fitness", "wheelchair": "no"}}, {"type": "node", "id": 2427830701, "lat": 52.4639256, "lon": 13.4983345, "tags": {"brand": "McFit", "brand:wikidata": "Q871302", "brand:wikipedia": "en:McFit", "leisure": "fitness_centre", "name": "McFit", "phone": "+49 30 63905744", "website": "https://www.mcfit.com/", "wheelchair": "no"}}, {"type": "node", "id": 2445179072, "lat": 52.4953419, "lon": 13.4201449, "tags": {"addr:city": "Berlin", "addr:country": "DE", "addr:housenumber": "1", "addr:postcode": "10967", "addr:street": "Kottbusser Damm", "addr:suburb": "Kreuzberg", "branch": "Club Berlin Kreuzberg", "brand": "JOHN REED Fitness", "brand:wikidata": "Q106434148", "contact:phone": "+49 30 69505419", "contact:website": "https://johnreed.fitness/club-berlin-kreuzberg", "leisure": "fitness_centre", "level": "1", "name": "JOHN REED Fitness", "opening_hours": "24/7", "sport": "fitness", "wheelchair": "no"}}, {"type": "node", "id": 2445856559, "lat": 52.4830416, "lon": 13.525466, "tags": {"leisure": "fitness_centre", "name": "EMSLounge", "opening_hours": "Mo-Fr 08:30-20:30; Sa 09:00-16:00"}}, {"type": "node", "id": 2449154365, "lat": 52.5360507, "lon": 13.2757823, "tags": {"leisure": "fitness_centre", "name": "Sport & Therapiezentrum"}}, {"type": "node", "id": 2477046562, "lat": 52.4774666, "lon": 13.4242905, "tags": {"addr:city": "Berlin", "addr:country": "DE", "addr:housenumber": "6a", "addr:postcode": "12049", "addr:street": "Herrfurthstraße", "amenity": "music_school", "leisure": "fitness_centre", "name": "Tagtigall", "opening_hours": "Tu 20:00-21:30; Th 20:15-21:45; Sa 10:00-11:30", "sport": "yoga", "website": "https://www.tagtigall.de/", "wheelchair": "no"}}, {"type": "node", "id": 2489837401, "lat": 52.5471967, "lon": 13.4094238, "tags": {"addr:city": "Berlin", "addr:country": "DE", "addr:housenumber": "19", "addr:postcode": "10437", "addr:street": "Gleimstraße", "addr:suburb": "Prenzlauer Berg", "contact:website": "https://mindfullife-berlin.com/prenzlauer-berg/", "leisure": "fitness_centre", "name": "Mindful Life Berlin", "sport": "yoga", "website": "https://mindfullife-berlin.com/"}}, {"type": "node", "id": 2619903725, "lat": 52.3906029, "lon": 13.0974143, "tags": {"addr:city": "Potsdam", "addr:country": "DE", "addr:housenumber": "12", "addr:postcode": "14482", "addr:street": "Kopernikusstraße", "addr:suburb": "Babelsberg", "contact:email": "info@frauenfitnesspotsdam.de", "contact:facebook": "sportevepotsdam", "contact:phone": "+49 331 273 4177", "contact:website": "https://www.frauenfitnesspotsdam.de/", "leisure": "fitness_centre", "name": "Sporteve Potsdam Frauenfitness", "opening_hours": "PH,Mo-Su 06:00-22:00", "operator": "Oliver Bongert", "operator:type": "business", "sport": "fitness"}}, {"type": "node", "id": 2690994059, "lat": 52.596692, "lon": 13.3552267, "tags": {"addr:city": "Berlin", "addr:country": "DE", "addr:housenumber": "128", "addr:postcode": "13439", "addr:street": "Wilhelmsruher Damm", "addr:suburb": "Märkisches Viertel", "check_date:opening_hours": "2023-09-02", "leisure": "fitness_centre", "name": "Crunchfit", "opening_hours": "Mo-Su 06:00 - 23:59", "opening_hours:signed": "no", "wheelchair": "yes"}}, {"type": "node", "id": 2764574468, "lat": 52.528312, "lon": 13.4095226, "tags": {"addr:city": "Berlin", "addr:country": "DE", "addr:housenumber": "41", "addr:postcode": "10119", "addr:street": "Linienstraße", "addr:suburb": "Mitte", "check_date": "2023-01-08", "leisure": "fitness_centre", "name": "Rocycle Berlin Mitte", "website": "https://www.rocyclestudios.com/en/", "wheelchair": "no"}}, {"type": "node", "id": 2796742915, "lat": 52.5246455, "lon": 13.4029448, "tags": {"addr:city": "Berlin", "addr:country": "DE", "addr:housenumber": "34-35", "addr:postcode": "10178", "addr:street": "Rosenthaler Straße", "addr:suburb": "Mitte", "brand": "Samsonite", "brand:wikidata": "Q1203426", "brand:wikipedia": "en:Samsonite", "check_date": "2023-01-08", "leisure": "fitness_centre", "name": "Peloton", "wheelchair": "no"}}, {"type": "node", "id": 2821190540, "lat": 52.4550011, "lon": 13.4290189, "tags": {"addr:city": "Berlin", "addr:country": "DE", "addr:housenumber": "44", "addr:postcode": "12347", "addr:street": "Tempelhofer Weg", "addr:suburb": "Britz", "leisure": "fitness_centre", "name": "Venice Sporting Club", "opening_hours": "Mo-Th 09:00-20:00; Fr 09:00-18:00; Sa 11:00-16:00; Su off", "personal_trainer": "yes", "sauna": "yes", "website": "https://www.venice-sportingclub.de/"}}, {"type": "node", "id": 2840752454, "lat": 52.4569686, "lon": 13.6244217, "tags": {"addr:city": "Berlin", "addr:country": "DE", "addr:housenumber": "479", "addr:postcode": "12587", "addr:street": "Fürstenwalder Damm", "addr:suburb": "Friedrichshagen", "check_date:opening_hours": "2023-08-02", "leisure": "fitness_centre", "name": "Localfit", "opening_hours:signed": "no", "website": "https://www.localfit.eu"}}, {"type": "node", "id": 2850021274, "lat": 52.5509763, "lon": 13.4135056, "tags": {"addr:city": "Berlin", "addr:housenumber": "112", "addr:postcode": "10439", "addr:street": "Schönhauser Allee", "check_date:opening_hours": "2021-07-22", "leisure": "fitness_centre", "name": "John Reed Womens Club", "opening_hours": "Mo-Fr 06:30-23:00; Sa,Su 09:00-21:00", "sport": "fitness", "website": "https://johnreed.fitness/womens-club-berlin-prenzlauer-berg", "wheelchair": "yes", "wheelchair:description": "Kleine überwindbare Türschwelle und schwere Eingangstür, ansonsten super zugänglich. Großes behindertengerechtes WC mit Dusche vorhanden."}}, {"type": "node", "id": 2851949842, "lat": 52.537428, "lon": 13.2271875, "tags": {"addr:city": "Berlin", "addr:country": "DE", "addr:housenumber": "19", "addr:postcode": "13599", "addr:street": "Am Juliusturm", "addr:suburb": "Haselhorst", "brand": "McFit", "brand:wikidata": "Q871302", "brand:wikipedia": "en:McFit", "contact:phone": "+49 30 35135455", "contact:website": "https://www.mcfit.com", "leisure": "fitness_centre", "name": "McFit", "opening_hours": "24/7", "sport": "fitness"}}, {"type": "node", "id": 2851949843, "lat": 52.6072123, "lon": 13.3235204, "tags": {"addr:city": "Berlin", "addr:country": "DE", "addr:housenumber": "64", "addr:postcode": "13469", "addr:street": "Oraniendamm", "addr:suburb": "Waidmannslust", "brand": "McFit", "brand:wikidata": "Q871302", "brand:wikipedia": "en:McFit", "check_date": "2023-07-10", "leisure": "fitness_centre", "name": "McFit", "opening_hours": "24/7", "phone": "+49 30 40399430", "sport": "fitness", "website": "https://www.mcfit.com"}}, {"type": "node", "id": 2901372702, "lat": 52.5164644, "lon": 13.1972779, "tags": {"addr:city": "Berlin", "addr:country": "DE", "addr:housenumber": "31", "addr:postcode": "13595", "addr:street": "Pichelsdorfer Straße", "addr:suburb": "Wilhelmstadt", "contact:website": "https://vipnfit.de/", "description": "Zentrum für Frauenfitness und Gesundcoaching", "leisure": "fitness_centre", "name": "VIP’n’Fit"}}, {"type": "node", "id": 2935486803, "lat": 52.5349746, "lon": 13.3990861, "tags": {"addr:city": "Berlin", "addr:country": "DE", "addr:housenumber": "17", "addr:postcode": "10115", "addr:street": "Anklamer Straße", "addr:suburb": "Mitte", "brand": "Körperformen", "brand:wikidata": "Q117455940", "check_date": "2023-08-26", "contact:mobile": "+49 162 6128064", "leisure": "fitness_centre", "name": "Körperformen"}}, {"type": "node", "id": 2960514356, "lat": 52.6059139, "lon": 13.4200588, "tags": {"addr:city": "Berlin", "addr:country": "DE", "addr:housenumber": "24B", "addr:postcode": "13127", "addr:street": "Rosenthaler Weg", "addr:suburb": "Französisch Buchholz", "brand": "Clever fit", "brand:wikidata": "Q27909675", "brand:wikipedia": "de:Clever fit", "email": "studio@berlin-pankow.clever-fit.com", "leisure": "fitness_centre", "name": "Clever fit", "opening_hours": "Mo-Fr 06:00-23:00; Sa,Su 09:00-20:00", "operator": "clever fit", "phone": "+49 3055621552", "source": "Geoportal Berlin / Hauskoordinaten", "website": "https://www.clever-fit.com/fitness-studios/clever-fit-berlin-pankow/"}}, {"type": "node", "id": 2985821756, "lat": 52.5037293, "lon": 13.3388804, "tags": {"addr:city": "Berlin", "addr:housenumber": "8", "addr:postcode": "10789", "addr:street": "Tauentzienstraße", "brand": "McFit", "brand:wikidata": "Q871302", "brand:wikipedia": "en:McFit", "leisure": "fitness_centre", "name": "McFit", "opening_hours": "24/7", "phone": "+49 30 2579 4520", "sport": "fitness", "wheelchair": "yes"}}, {"type": "node", "id": 2995644691, "lat": 52.5075111, "lon": 13.4555779, "tags": {"addr:city": "Berlin", "addr:country": "DE", "addr:housenumber": "99", "addr:postcode": "10245", "addr:street": "Revaler Straße", "addr:suburb": "Friedrichshain", "contact:website": "http://www.berlinstrength.de/", "leisure": "fitness_centre", "name": "Berlin Strength"}}, {"type": "node", "id": 3021116630, "lat": 52.536285, "lon": 13.6026916, "tags": {"addr:city": "Berlin", "addr:country": "DE", "addr:housenumber": "235", "addr:postcode": "12627", "addr:street": "Hellersdorfer Straße", "addr:suburb": "Hellersdorf", "branch": "Berlin Hellersdorf", "brand": "FitX", "brand:wikidata": "Q29031618", "check_date": "2023-08-05", "leisure": "fitness_centre", "name": "FitX", "opening_hours": "24/7", "operator": "FitX Deutschland GmbH", "phone": "+49 30 2099289130", "source": "Geoportal Berlin / Hauskoordinaten", "website": "https://www.fitx.de/studio/berlin-hellersdorf", "wheelchair": "yes"}}, {"type": "node", "id": 3045401463, "lat": 52.5306508, "lon": 13.3347483, "tags": {"addr:city": "Berlin", "addr:country": "DE", "addr:housenumber": "18", "addr:postcode": "10551", "addr:street": "Wiclefstraße", "addr:suburb": "Moabit", "check_date:opening_hours": "2023-11-12", "email": "poledanceberlin@gmx.de", "leisure": "fitness_centre", "name": "Pole Sport Studio Berlin", "opening_hours:signed": "no", "phone": "+49 30 12095667", "sport": "poledance", "website": "https://polesportberlin.de/"}}, {"type": "node", "id": 3140164400, "lat": 52.5277244, "lon": 13.3805488, "tags": {"addr:city": "Berlin", "addr:country": "DE", "addr:housenumber": "19", "addr:postcode": "10115", "addr:street": "Hannoversche Straße", "addr:suburb": "Mitte", "branch": "Berlin Mitte", "brand": "Kieser Training", "brand:wikidata": "Q1112367", "brand:wikipedia": "de:Kieser Training", "check_date:opening_hours": "2022-10-25", "contact:email": "berlin8@kieser-training.com", "contact:fax": "+49 30 97893842", "contact:phone": "+49 30 97893841", "contact:website": "https://www.kieser-training.de/studios/berlin/berlin-mitte", "leisure": "fitness_centre", "name": "Kieser Training", "opening_hours": "Mo-Fr 07:30-21:30; Sa,Su,PH 09:00-18:00", "operator": "Kieser Training Berlin Mitte", "sport": "fitness", "wheelchair": "yes"}}, {"type": "node", "id": 3176577534, "lat": 52.4519462, "lon": 13.2701269, "tags": {"addr:city": "Berlin", "addr:country": "DE", "addr:housenumber": "171", "addr:postcode": "14195", "addr:street": "Clayallee", "addr:suburb": "Dahlem", "contact:email": "info@clays.de", "contact:phone": "+49 30 89400430", "contact:website": "https://www.clays.de", "internet_access": "wlan", "leisure": "fitness_centre", "name": "Clays", "opening_hours": "Mo-Fr 06:00-23:00; Sa-Su 08:00-21:00", "sport": "fitness", "wheelchair": "yes"}}, {"type": "node", "id": 3266506461, "lat": 52.4309414, "lon": 13.5491064, "tags": {"addr:city": "Berlin", "addr:housenumber": "299", "addr:postcode": "12489", "addr:street": "Adlergestell", "addr:suburb": "Adlershof", "brand": "McFit", "brand:wikidata": "Q871302", "brand:wikipedia": "en:McFit", "leisure": "fitness_centre", "name": "McFit", "opening_hours": "24/7", "phone": "+49 30 6780 7960", "sport": "fitness"}}, {"type": "node", "id": 3267299482, "lat": 52.4821233, "lon": 13.4329149, "tags": {"addr:city": "Berlin", "addr:housenumber": "64-72", "addr:postcode": "12043", "addr:street": "Karl-Marx-Straße", "leisure": "fitness_centre", "level": "2", "name": "Superfit", "opening_hours": "24/7", "toilets:wheelchair": "yes", "wheelchair": "yes"}}, {"type": "node", "id": 3314954409, "lat": 52.5590029, "lon": 13.1335092, "tags": {"addr:city": "Falkensee", "addr:country": "DE", "addr:housenumber": "150", "addr:postcode": "14612", "addr:street": "Spandauer Straße", "brand": "Mrs. Sporty", "brand:wikidata": "Q100718953", "contact:website": "https://www.mrssporty.de/", "leisure": "fitness_centre", "name": "Mrs. Sporty", "opening_hours": "Mo 08:00-19:00; Tu,Th 09:00-13:00,16:00-19:00; We 08:00-13:00,15:00-19:00; Fr 09:00-13:00,15:00-19:00; Sa 09:30-12:30", "sport": "fitness"}}, {"type": "node", "id": 3317540786, "lat": 52.4524755, "lon": 13.3848984, "tags": {"brand": "Clever fit", "brand:wikidata": "Q27909675", "brand:wikipedia": "de:Clever fit", "check_date": "2023-08-04", "leisure": "fitness_centre", "name": "Clever fit"}}, {"type": "node", "id": 3385637223, "lat": 52.4984906, "lon": 13.3028762, "tags": {"addr:city": "Berlin", "addr:housenumber": "156", "addr:postcode": "10709", "addr:street": "Kurfürstendamm", "branch": "Berlin Wilmersdorf", "brand": "FitX", "brand:wikidata": "Q29031618", "check_date": "2023-04-10", "leisure": "fitness_centre", "name": "FitX", "opening_hours": "24/7", "operator": "FitX Deutschland GmbH", "phone": "+49 30 88729698", "website": "https://www.fitx.de/studio/berlin-wilmersdorf"}}, {"type": "node", "id": 3411940909, "lat": 52.5433678, "lon": 13.4421641, "tags": {"addr:city": "Berlin", "addr:country": "DE", "addr:housename": "Clever Fit Berlin-Prenzlauer Berg", "addr:housenumber": "90", "addr:postcode": "10409", "addr:street": "Greifswalder Straße", "addr:suburb": "Prenzlauer Berg", "brand": "Clever fit", "brand:wikidata": "Q27909675", "brand:wikipedia": "de:Clever fit", "check_date:opening_hours": "2023-02-20", "contact:email": "studio@berlin-prenzlauerberg.clever-fit.com", "contact:phone": "+49 30 41935299", "contact:website": "https://www.clever-fit.com/fitnessstudio-in-der-naehe/clever-fit-berlin-prenzlauer-berg/", "leisure": "fitness_centre", "level": "1", "name": "Clever fit", "opening_hours": "Mo-Fr 06:00-23:00; Sa-Su 09:00-20:00", "sport": "fitness", "wheelchair": "yes"}}, {"type": "node", "id": 3432289622, "lat": 52.5201114, "lon": 13.4262968, "tags": {"leisure": "fitness_centre", "name": "Sportcafé Mitte", "note": "kein Café", "operator": "die reha e.V."}}, {"type": "node", "id": 3453943122, "lat": 52.481665, "lon": 13.365517, "tags": {"addr:city": "Berlin", "addr:country": "DE", "addr:housename": "Haus 10", "addr:housenumber": "40", "addr:postcode": "10829", "addr:street": "Wilhelm-Kabus-Straße", "addr:suburb": "Schöneberg", "check_date": "2023-10-30", "leisure": "fitness_centre", "name": "CrossFit Icke", "website": "https://www.crossfiticke.com/", "wheelchair": "yes"}}, {"type": "node", "id": 3464981113, "lat": 52.5529857, "lon": 13.4083022, "tags": {"addr:city": "Berlin", "addr:country": "DE", "addr:housenumber": "11", "addr:postcode": "10439", "addr:street": "Schönfließer Straße", "addr:suburb": "Prenzlauer Berg", "check_date:opening_hours": "2023-05-16", "contact:website": "http://www.yoga-am-arnimplatz.de/", "leisure": "fitness_centre", "name": "Yoga am Arnimplatz", "opening_hours:signed": "no", "opening_hours:url": "http://www.yoga-am-arnimplatz.de", "sport": "yoga"}}, {"type": "node", "id": 3475027209, "lat": 52.5018092, "lon": 13.4207441, "tags": {"leisure": "fitness_centre", "name": "EFX Sport-Gruppe - Fitness", "sport": "fitness", "website": "https://www.chris-faith.de/training/training?d=1"}}, {"type": "node", "id": 3566958751, "lat": 52.4582572, "lon": 13.5763726, "tags": {"addr:city": "Berlin", "addr:housenumber": "33-38", "addr:postcode": "12555", "addr:street": "Bahnhofstraße", "brand": "Kieser Training", "brand:wikidata": "Q1112367", "brand:wikipedia": "de:Kieser Training", "check_date:opening_hours": "2023-12-28", "email": "berlin12@kieser-training.com", "fax": "+49 30 34354324", "leisure": "fitness_centre", "level": "0", "name": "Kieser Training", "opening_hours": "Mo-Fr 07:00-22:00; PH,Sa,Su 09:00-19:00", "phone": "+49 30 34354323", "website": "https://www.kieser-training.de/studios/berlin/berlin-koepenick", "wheelchair": "yes"}}, {"type": "node", "id": 3658141193, "lat": 52.5698026, "lon": 13.4066615, "tags": {"branch": "Women", "brand": "Fitness First", "brand:wikidata": "Q127120", "check_date:opening_hours": "2023-12-22", "leisure": "fitness_centre", "name": "Fitness First", "opening_hours": "Mo-Fr 07:00-22:00; Sa,Su 09:00-20:00; PH 10:00-18:00", "phone": "+4930 49 90 54 3", "toilets:wheelchair": "no", "website": "https://www.fitnessfirst.de/clubs/berlin-women-pankow/", "wheelchair": "limited"}}, {"type": "node", "id": 3670161823, "lat": 52.429498, "lon": 13.3299541, "tags": {"leisure": "fitness_centre", "level": "2", "name": "Elixia", "opening_hours": "06:30-23:00", "sport": "swimming", "swimming_pool": "yes", "website": "https://elixia.de/", "wheelchair": "yes"}}, {"type": "node", "id": 3782374475, "lat": 52.5013707, "lon": 13.330782, "tags": {"addr:housenumber": "19", "addr:postcode": "10719", "addr:street": "Joachimsthaler Straße", "brand": "Clever fit", "brand:wikidata": "Q27909675", "brand:wikipedia": "de:Clever fit", "internet_access": "wlan", "leisure": "fitness_centre", "name": "Clever fit", "opening_hours": "Mo-Fr 06:00-00:00; Sa-Su 09:00-21:00", "website": "https://www.clever-fit.com/fitness-studios/clever-fit-berlin-charlottenburg.html", "wheelchair": "no"}}, {"type": "node", "id": 3826014915, "lat": 52.4985987, "lon": 13.3511448, "tags": {"addr:city": "Berlin", "addr:country": "DE", "addr:housenumber": "9", "addr:postcode": "10777", "addr:street": "Motzstraße", "addr:suburb": "Schöneberg", "leisure": "fitness_centre", "name": "Stromtown. The modern art of fitness"}}, {"type": "node", "id": 3841253417, "lat": 52.4622743, "lon": 13.3252442, "tags": {"addr:city": "Berlin", "addr:country": "DE", "addr:housenumber": "1", "addr:postcode": "12163", "addr:street": "Schildhornstraße", "addr:suburb": "Steglitz", "brand": "Holmes Place", "brand:wikidata": "Q15815819", "contact:phone": "+49 30 37 44 24 900", "contact:website": "http://holmesplace.de/de/clubs.html", "leisure": "fitness_centre", "level": "3", "name": "Holmes Place", "opening_hours": "Mo-Fr 06:00-23:00; Sa,Su 09:00-21:00", "wheelchair": "yes"}}, {"type": "node", "id": 3853848970, "lat": 52.485107, "lon": 13.3453454, "tags": {"addr:city": "Berlin", "addr:country": "DE", "addr:housenumber": "103", "addr:postcode": "10825", "addr:street": "Martin-Luther-Straße", "addr:suburb": "Schöneberg", "leisure": "fitness_centre", "name": "fitbox", "opening_hours": "Mo-Fr 08:30-20:00; Sa 09:00-16:00", "phone": "+49 30 25776556", "sport": "ems", "website": "https://fitbox.de/de/studios/fitbox-berlin-jfk-platz", "wheelchair": "no"}}, {"type": "node", "id": 3862712290, "lat": 52.5054239, "lon": 13.5157065, "tags": {"brand": "Mrs. Sporty", "brand:wikidata": "Q100718953", "leisure": "fitness_centre", "name": "Mrs. Sporty", "opening_hours": "Mo,We,Fr 08:00-13:00, Mo,We 15:00-20:00, Tu,Th,Fr 15:00-19:00; Tu,Th 09:00-13:00; Sa 09:30-13:00", "operator": "Mrs.sportry Berlin-Lichtenberg", "phone": "+49 30 35127250", "sport": "fitness", "wheelchair": "yes"}}, {"type": "node", "id": 3874310962, "lat": 52.5324374, "lon": 13.5372478, "tags": {"addr:city": "Berlin", "addr:housenumber": "160a", "addr:postcode": "12681", "addr:street": "Märkische Allee", "branch": "Berlin Marzahn", "brand": "McFit", "brand:wikidata": "Q871302", "brand:wikipedia": "en:McFit", "description": "Cyberobics, Specials", "leisure": "fitness_centre", "name": "McFit", "phone": "+493053029982", "website": "https://www.mcfit.com/de/studiodetail/info/berlin-marzahn.html", "wheelchair": "no"}}, {"type": "node", "id": 3957099326, "lat": 52.5438059, "lon": 13.5486137, "tags": {"brand": "Kieser Training", "brand:wikidata": "Q1112367", "brand:wikipedia": "de:Kieser Training", "leisure": "fitness_centre", "name": "Kieser Training"}}, {"type": "node", "id": 3999585488, "lat": 52.5532576, "lon": 13.1015406, "tags": {"contact:phone": "+49 3322 129025", "contact:website": "http://activewell.de/", "leisure": "fitness_centre", "name": "active well", "opening_hours": "Mo-Fr 07:30-23:00; Sa,Su 09:00-20:00"}}, {"type": "node", "id": 4077227106, "lat": 52.5088747, "lon": 13.3236082, "tags": {"addr:city": "Berlin", "addr:country": "DE", "addr:housenumber": "2-3", "addr:postcode": "10623", "addr:street": "Goethestraße", "addr:suburb": "Charlottenburg", "contact:email": "info@spirityoga.de", "contact:facebook": "http://www.facebook.com/spirityoga", "contact:fax": "+49 30 43727006", "contact:phone": "+49 30 27908505", "contact:twitter": "@TheSpiritYoga", "contact:website": "https://www.spirityoga.de/", "leisure": "fitness_centre", "level": "1", "name": "Spirit Joga", "operator": "Spirit Yoga und Spa GmbH & Co. KG", "sport": "yoga", "training": "yoga", "wheelchair": "no"}}, {"type": "node", "id": 4128610787, "lat": 52.4578111, "lon": 13.5789766, "tags": {"addr:city": "Berlin", "addr:housenumber": "23-25", "addr:postcode": "12555", "addr:street": "Bahnhofstraße", "email": "member@mysuperfit.com", "leisure": "fitness_centre", "level": "1", "name": "Superfit", "opening_hours": "24/7", "sport": "fitness", "website": "http://www.mysuperfit.com", "wheelchair": "no"}}, {"type": "node", "id": 4128610788, "lat": 52.5142755, "lon": 13.4737156, "tags": {"addr:city": "Berlin", "addr:country": "DE", "addr:housenumber": "111", "addr:postcode": "10247", "addr:street": "Frankfurter Allee", "email": "member@mysuperfit.com", "leisure": "fitness_centre", "level": "3", "name": "Superfit", "opening_hours": "24/7", "sport": "fitness", "website": "http://www.mysuperfit.com", "wheelchair": "yes"}}, {"type": "node", "id": 4235017790, "lat": 52.5364805, "lon": 13.6026618, "tags": {"addr:housenumber": "4-8", "addr:postcode": "12627", "addr:street": "Janusz-Korczak-Straße", "email": "ankebonack@gmx.de", "leisure": "fitness_centre", "name": "Fit T9", "opening_hours": "Mo-Fr 08:00-24:00; Sa-Su 09:00-21:00", "phone": "+49 30 99279513", "website": "http://fit-t9.de/studio-berlin-hellersdorf/", "wheelchair": "yes"}}, {"type": "node", "id": 4246003520, "lat": 52.5121719, "lon": 13.661609, "tags": {"addr:city": "Hoppegarten", "addr:country": "DE", "addr:housenumber": "62 A", "addr:postcode": "15366", "addr:street": "Lindenallee", "brand": "Mrs. Sporty", "brand:wikidata": "Q100718953", "leisure": "fitness_centre", "name": "Mrs. Sporty", "opening_hours": "Mo-We 08:00-20:00; Th,Fr 08:00-19:00; Sa 08:00-12:00", "wheelchair": "yes"}}, {"type": "node", "id": 4253980789, "lat": 52.52648, "lon": 13.3870103, "tags": {"leisure": "fitness_centre", "name": "Crossfit Grenzgänger"}}, {"type": "node", "id": 4253995591, "lat": 52.5308414, "lon": 13.3672762, "tags": {"addr:city": "Berlin", "addr:country": "DE", "addr:housenumber": "48", "addr:postcode": "10557", "addr:street": "Heidestraße", "addr:suburb": "Moabit", "contact:website": "http://www.crossfitmitte.de/", "leisure": "fitness_centre", "name": "Crossfit Mitte", "short_name": "CFM", "sport": "fitness", "wheelchair": "no"}}, {"type": "node", "id": 4254495166, "lat": 52.5323394, "lon": 13.3802487, "tags": {"leisure": "fitness_centre", "name": "Hauptstadt Crossfit"}}, {"type": "node", "id": 4254944691, "lat": 52.4888821, "lon": 13.3872264, "tags": {"leisure": "fitness_centre", "name": "Crossfit gute Hoffnungshütte"}}, {"type": "node", "id": 4304263292, "lat": 52.454105, "lon": 13.575983, "tags": {"leisure": "fitness_centre", "name": "Figurenzentrum Köpenick", "opening_hours": "\"Termine nach telefonischer Vereinbarung\"", "wheelchair": "no"}}, {"type": "node", "id": 4308049689, "lat": 52.5452832, "lon": 13.5911324, "tags": {"addr:housenumber": "119", "addr:postcode": "12629", "addr:street": "Alte Hellersdorfer Straße", "leisure": "fitness_centre", "name": "CITI-Frauen-Fitness"}}, {"type": "node", "id": 4316237225, "lat": 52.5433244, "lon": 13.2010323, "tags": {"addr:city": "Berlin", "addr:country": "DE", "addr:housenumber": "17", "addr:postcode": "13585", "addr:street": "Bismarckstraße", "addr:suburb": "Spandau", "leisure": "fitness_centre", "name": "ladys spandau", "website": "https://www.ladys-spandau.de/"}}, {"type": "node", "id": 4320893092, "lat": 52.5163412, "lon": 13.4460907, "tags": {"addr:housenumber": "110", "addr:postcode": "10243", "addr:street": "Karl-Marx-Allee", "brand": "Bodystreet", "brand:wikidata": "Q117880186", "check_date:opening_hours": "2023-11-29", "leisure": "fitness_centre", "name": "Bodystreet", "opening_hours:signed": "no"}}, {"type": "node", "id": 4333951890, "lat": 52.5177528, "lon": 13.415554, "tags": {"addr:city": "Berlin", "addr:country": "DE", "addr:housenumber": "90", "addr:postcode": "10178", "addr:street": "Dircksenstraße", "addr:suburb": "Mitte", "contact:website": "https://www.beat81.com", "leisure": "fitness_centre", "name": "Beat81", "opening_hours": "Mo-Sa 10:00-20:00"}}, {"type": "node", "id": 4420021957, "lat": 52.5230415, "lon": 13.4161276, "tags": {"addr:city": "Berlin", "addr:housenumber": "7", "addr:postcode": "10178", "addr:street": "Alexanderstraße", "branch": "Berlin Alexanderplatz", "brand": "FitX", "brand:wikidata": "Q29031618", "contact:phone": "+49 30 28096453", "contact:website": "https://www.fitx.de/studio/berlin-alexanderplatz", "leisure": "fitness_centre", "name": "FitX", "opening_hours": "24/7", "operator": "FitX Deutschland GmbH", "sport": "fitness"}}, {"type": "node", "id": 4422075090, "lat": 52.669083, "lon": 13.287857, "tags": {"brand": "Mrs. Sporty", "brand:wikidata": "Q100718953", "leisure": "fitness_centre", "name": "Mrs. Sporty", "opening_hours": "Mo-Su 06:00-22:00"}}, {"type": "node", "id": 4437696196, "lat": 52.48997, "lon": 13.3172363, "tags": {"addr:housenumber": "39", "addr:street": "Sächsische Straße", "leisure": "fitness_centre", "name": "7 circles"}}, {"type": "node", "id": 4446537033, "lat": 52.4467195, "lon": 13.3424696, "tags": {"email": "steglitz@sporteve.de", "leisure": "fitness_centre", "name": "Sporteve", "opening_hours": "Mo-Th 09:00-12:00, Mo-Fr 16:00-19:00, Fr 09:00-12:00", "phone": "+4930 67460192", "website": "https://www.sporteve.de/clubs/berlin-steglitz/"}}, {"type": "node", "id": 4459534982, "lat": 52.4537146, "lon": 13.3157383, "tags": {"addr:city": "Berlin", "addr:country": "DE", "addr:housenumber": "54", "addr:postcode": "12165", "addr:street": "Schloßstraße", "addr:suburb": "Steglitz", "check_date": "2023-04-09", "leisure": "fitness_centre", "name": "Kreuzretter", "website": "https://kreuzretter.com", "wheelchair": "no"}}, {"type": "node", "id": 4474870489, "lat": 52.6051549, "lon": 13.3256887, "tags": {"addr:housenumber": "141", "addr:postcode": "13437", "addr:street": "Oranienburger Straße", "leisure": "fitness_centre", "name": "Therapiezentrum Waidmannslust", "name:de": "Therapiezentrum Waidmannslust", "phone": "+49304034700"}}, {"type": "node", "id": 4514846830, "lat": 52.5139697, "lon": 13.3954862, "tags": {"addr:city": "Berlin", "addr:housenumber": "27", "addr:postcode": "10117", "addr:street": "Jägerstraße", "brand": "Fitness First", "brand:wikidata": "Q127120", "brand:wikipedia": "en:Fitness First", "description": "Platinum Club", "leisure": "fitness_centre", "membership": "yes", "name": "Fitness First", "opening_hours": "Mo-Fr 06:00-23:00; Sa,Su,PH 09:00-20:00", "sport": "multi", "swimming": "yes", "wheelchair": "limited"}}, {"type": "node", "id": 4539202778, "lat": 52.5322556, "lon": 13.3954966, "tags": {"addr:housenumber": "152", "addr:street": "Invalidenstraße", "check_date": "2023-06-29", "check_date:opening_hours": "2022-04-21", "email": "berlinmitte@fitbox.de", "leisure": "fitness_centre", "name": "Fitbox", "opening_hours": "Mo-Fr 08:00-20:30; Sa 09:00-16:00", "website": "https://www.fitbox.de/", "wheelchair": "limited"}}, {"type": "node", "id": 4555677789, "lat": 52.5825276, "lon": 13.2912082, "tags": {"addr:housenumber": "2", "addr:postcode": "13509", "addr:street": "Ernststraße", "email": "info@fit-in-tegel.de", "leisure": "fitness_centre", "name": "Fit in Tegel", "name:de": "Fit in Tegel", "phone": "+49 30 4321020", "website": "https://fit-in-tegel.de/"}}, {"type": "node", "id": 4572112192, "lat": 52.4274451, "lon": 13.3286889, "tags": {"leisure": "fitness_centre", "name": "Freiraum", "website": "https://freiraum.fit/"}}, {"type": "node", "id": 4604863055, "lat": 52.5079287, "lon": 13.3917379, "tags": {"brand": "Bodystreet", "brand:wikidata": "Q117880186", "email": "berlin-checkpointcharlie@bodystreet.com", "leisure": "fitness_centre", "name": "Bodystreet", "opening_hours": "Mo,Fr 08:00-19:00; Tu-Th 08:00-20:00; Sa 10:00-14:00", "operator": "BodyStreet", "personal_trainer": "yes", "phone": "+49 30 33846280", "sauna": "no", "swimming_pool": "no"}}, {"type": "node", "id": 4611801889, "lat": 52.5123551, "lon": 13.4594528, "tags": {"addr:city": "Berlin", "addr:housenumber": "31", "addr:postcode": "10245", "addr:street": "Boxhagener Straße", "check_date:opening_hours": "2022-05-13", "leisure": "fitness_centre", "name": "Yogibar", "opening_hours:signed": "no", "sport": "yoga", "website": "https://www.yogibar.de/", "wheelchair": "no"}}, {"type": "node", "id": 4614154589, "lat": 52.5345204, "lon": 13.398546, "tags": {"addr:city": "Berlin", "addr:country": "DE", "addr:housenumber": "29", "addr:postcode": "10119", "addr:street": "Brunnenstraße", "addr:suburb": "Mitte", "leisure": "fitness_centre", "level": "1;2", "name": "Jivamukti Yoga Berlin", "sport": "yoga", "website": "http://www.jivamuktiberlin.de"}}, {"type": "node", "id": 4672876466, "lat": 52.4993986, "lon": 13.4637843, "tags": {"addr:city": "Berlin", "addr:country": "DE", "addr:housenumber": "51", "addr:postcode": "10245", "addr:street": "Corinthstraße", "addr:suburb": "Friedrichshain", "check_date": "2023-10-29", "contact:website": "https://eaglecoach.de/", "healthcare": "physiotherapist", "leisure": "fitness_centre", "name": "EagleCoach", "opening_hours": "\"je Angebot auf Webseite\"", "sport": "yoga;pilates"}}, {"type": "node", "id": 4673478561, "lat": 52.4846716, "lon": 13.4352226, "tags": {"addr:city": "Berlin", "addr:country": "DE", "addr:housenumber": "67", "addr:postcode": "12045", "addr:street": "Sonnenallee", "addr:suburb": "Neukölln", "brand": "Yellow Yoga", "contact:website": "https://yellow-yoga.com/", "leisure": "fitness_centre", "level": "1", "name": "Studio Sonne", "operator": "Yellow Yoga GmbH", "sport": "yoga", "wheelchair": "no"}}, {"type": "node", "id": 4797313796, "lat": 52.4373459, "lon": 13.5468105, "tags": {"brand": "Clever fit", "brand:wikidata": "Q27909675", "brand:wikipedia": "de:Clever fit", "leisure": "fitness_centre", "name": "Clever fit", "opening_hours": "Mo-Fr 06:00-23:00, Sa,Su 09:00-20:00"}}, {"type": "node", "id": 4809118969, "lat": 52.5167107, "lon": 13.3047525, "tags": {"addr:city": "Berlin", "addr:country": "DE", "addr:housenumber": "163", "addr:postcode": "10585", "addr:street": "Wilmersdorfer Straße", "addr:suburb": "Charlottenburg", "check_date": "2023-11-27", "contact:website": "https://www.powerbaer.de/", "leisure": "fitness_centre", "level": "0", "name": "Power Bär", "opening_hours": "Termine nach Vereinbarung", "wheelchair": "no"}}, {"type": "node", "id": 4812222804, "lat": 52.5680064, "lon": 13.3984173, "tags": {"addr:city": "Berlin", "addr:country": "DE", "addr:housenumber": "6", "addr:postcode": "13187", "addr:street": "Wollankstraße", "addr:suburb": "Pankow", "contact:website": "http://ki-haus-pankow.de", "leisure": "fitness_centre", "name": "Ki-Haus", "opening_hours": "\"depending on course program\"", "sport": "yoga", "wheelchair": "no"}}, {"type": "node", "id": 4815247561, "lat": 52.5191433, "lon": 13.389102, "tags": {"leisure": "fitness_centre", "level": "4", "name": "DocOrtho", "opening_hours": "Mo-Fr 08:00-18:00", "personal_trainer": "yes", "sauna": "no", "swimming_pool": "no"}}, {"type": "node", "id": 4819499443, "lat": 52.4919236, "lon": 13.4366613, "tags": {"addr:city": "Berlin", "addr:housenumber": "19", "addr:postcode": "10999", "addr:street": "Glogauer Straße", "description": "Jivamukti Yoga Studio", "email": "info@peaceyoga.de", "leisure": "fitness_centre", "name": "Peace Yoga Berlin", "sport": "yoga"}}, {"type": "node", "id": 4825870145, "lat": 52.5479608, "lon": 13.389607, "tags": {"addr:city": "Berlin", "addr:country": "DE", "addr:housenumber": "105-109", "addr:postcode": "13355", "addr:street": "Brunnenstraße", "addr:suburb": "Gesundbrunnen", "branch": "Club Berlin Gesundbrunnen", "brand": "JOHN REED Fitness", "brand:wikidata": "Q106434148", "check_date:opening_hours": "2022-06-19", "contact:website": "https://johnreed.fitness/", "leisure": "fitness_centre", "level": "0", "name": "JOHN REED Fitness", "opening_hours": "06:00-24:00", "phone": "+49 30 46798140", "sport": "fitness", "website": "https://johnreed.fitness/club-berlin-gesundbrunnen", "wheelchair": "yes"}}, {"type": "node", "id": 4849302124, "lat": 52.5248995, "lon": 13.3957917, "tags": {"addr:city": "Berlin", "addr:country": "DE", "addr:housenumber": "23", "addr:postcode": "10115", "addr:street": "Krausnickstraße", "addr:suburb": "Mitte", "contact:website": "http://www.bikram-berlin.de/", "leisure": "fitness_centre", "level": "1", "name": "Bikram Yoga Berlin-Mitte", "sport": "yoga"}}, {"type": "node", "id": 4861464949, "lat": 52.4183617, "lon": 13.2879531, "tags": {"addr:city": "Berlin", "addr:country": "DE", "addr:housenumber": "188", "addr:postcode": "14167", "addr:street": "Goerzallee", "addr:suburb": "Lichterfelde", "brand": "McFit", "brand:wikidata": "Q871302", "brand:wikipedia": "en:McFit", "leisure": "fitness_centre", "name": "McFit", "opening_hours": "24/7"}}, {"type": "node", "id": 4907663397, "lat": 52.5010537, "lon": 13.3368666, "tags": {"leisure": "fitness_centre", "name": "Fitbox", "sport": "ems", "website": "https://www.fitbox.de/"}}, {"type": "node", "id": 4908049913, "lat": 52.5115029, "lon": 13.4575495, "tags": {"addr:city": "Berlin", "addr:housenumber": "62", "addr:postcode": "10245", "addr:street": "Grünberger Straße", "check_date:opening_hours": "2022-05-17", "leisure": "fitness_centre", "name": "Fitbox", "opening_hours": "Mo-Fr 09:00-20:00, Sa 09:00-16:00", "phone": "+49 30 51304836", "wheelchair": "limited"}}, {"type": "node", "id": 4920605620, "lat": 52.5089027, "lon": 13.4966462, "tags": {"addr:city": "Berlin", "addr:housenumber": "85", "addr:postcode": "10317", "addr:street": "Eitelstraße", "check_date:opening_hours": "2022-09-12", "leisure": "fitness_centre", "name": "Ashtanga Yoga Room", "opening_hours:signed": "no", "sport": "yoga", "wheelchair": "no"}}, {"type": "node", "id": 4970131824, "lat": 52.5102406, "lon": 13.323731, "tags": {"addr:city": "Berlin", "addr:country": "DE", "addr:housenumber": "7", "addr:postcode": "10623", "addr:street": "Hardenbergstraße", "addr:suburb": "Charlottenburg", "leisure": "fitness_centre", "name": "Slim-Gym Club", "wheelchair": "yes"}}, {"type": "node", "id": 5051041621, "lat": 52.4972395, "lon": 13.2944444, "tags": {"leisure": "fitness_centre", "name": "Athlin", "website": "https://athlin.de"}}, {"type": "node", "id": 5051041622, "lat": 52.4978459, "lon": 13.3002669, "tags": {"branch": "Club", "brand": "Mrs. Sporty", "brand:wikidata": "Q100718953", "leisure": "fitness_centre", "name": "Mrs. Sporty", "website": "https://www.mrssporty.de/club/berlin-kudamm-charlottenburg/"}}, {"type": "node", "id": 5082292600, "lat": 52.4894447, "lon": 13.3213517, "tags": {"addr:city": "Berlin", "addr:country": "DE", "addr:housenumber": "43", "addr:postcode": "10717", "addr:street": "Pfalzburger Straße", "addr:suburb": "Wilmersdorf", "contact:website": "https://www.yoga-vidya.de/center/berlin/", "leisure": "fitness_centre", "name": "Yoga Vidya Center Berlin-Wilmersdorf", "sport": "yoga"}}, {"type": "node", "id": 5147968721, "lat": 52.5648847, "lon": 13.5039111, "tags": {"addr:housenumber": "4", "addr:postcode": "13051", "addr:street": "Zingster Straße", "email": "info-hsh@active-ladies.de", "leisure": "fitness_centre", "name": "Active Ladies", "phone": "+49 30 36 74 50 60", "website": "http://www.active-ladies.de"}}, {"type": "node", "id": 5248623193, "lat": 52.5377691, "lon": 13.609346, "tags": {"addr:city": "Berlin", "addr:country": "DE", "addr:housenumber": "129", "addr:postcode": "12627", "addr:street": "Tangermünder Straße", "addr:suburb": "Hellersdorf", "check_date": "2023-10-06", "leisure": "fitness_centre", "name": "Power Factory GmbH", "website": "https://www.powerfactory-berlin.de/"}}, {"type": "node", "id": 5248861547, "lat": 52.5419445, "lon": 13.5421497, "tags": {"leisure": "fitness_centre", "name": "Ladycompany", "website": "http://www.ladycompany.de/frauenfitness-studios-berlin/"}}, {"type": "node", "id": 5321891322, "lat": 52.4789617, "lon": 13.4460611, "tags": {"addr:city": "Berlin", "addr:country": "DE", "addr:housenumber": "147", "addr:postcode": "12059", "addr:street": "Sonnenallee", "addr:suburb": "Neukölln", "contact:email": "info@yoga-pilates-berlin.de", "contact:mobile": "+49 173 6153087", "contact:website": "http://www.yoga-pilates-berlin.de/", "leisure": "fitness_centre", "name": "Tayopi", "sport": "yoga"}}, {"type": "node", "id": 5337021037, "lat": 52.485211, "lon": 13.4214152, "tags": {"brand": "Holmes Place", "brand:wikidata": "Q15815819", "leisure": "fitness_centre", "level": "3", "name": "Holmes Place"}}, {"type": "node", "id": 5339159802, "lat": 52.5530222, "lon": 13.4017754, "tags": {"description": "Kathrin Adamira Brunnert", "leisure": "fitness_centre", "name": "Yoga", "phone": "+49 162 65828241", "sport": "yoga"}}, {"type": "node", "id": 5348822589, "lat": 52.505358, "lon": 13.4889231, "tags": {"addr:city": "Berlin", "addr:country": "DE", "addr:housenumber": "5", "addr:postcode": "10317", "addr:street": "Münsterlandstraße", "addr:suburb": "Rummelsburg", "contact:website": "https://www.yoga-barn-berlin.de/", "leisure": "fitness_centre", "name": "Yoga Barn", "opening_hours": "Mo 08:30-21:30; Tu 08:00-21:30; We 06:30-21:30; Th 07:30-21:30; Fr 07:00-21:30; Sa 10:30-19:30; Su 10:30-21:00", "sport": "yoga"}}, {"type": "node", "id": 5387842599, "lat": 52.5609781, "lon": 13.0915846, "tags": {"contact:phone": "+49 3322 233810", "contact:website": "http://www.vitalitaetsoase-falkensee.de/", "leisure": "fitness_centre", "level": "0", "name": "Vitalitätsoase", "opening_hours": "Mo 09:00-12:30,16:00-19:00; Tu 08:00-12:00,16:00-20:00; We 08:30-12:00,16:00-20:00; Th 09:00-12:30,16:00-20:00; Fr 08:00-12:30,17:00-19:00; Sa 09:00-12:00"}}, {"type": "node", "id": 5396107633, "lat": 52.4847501, "lon": 13.3359151, "tags": {"description": "Frauensportstudio in Berlin-Wilmersdorf", "leisure": "fitness_centre", "name": "sportraum bs", "website": "https://www.sportraum-berlin.de/"}}, {"type": "node", "id": 5408274151, "lat": 52.5069538, "lon": 13.2997785, "tags": {"addr:city": "Berlin", "addr:country": "DE", "addr:housenumber": "72", "addr:postcode": "10627", "addr:street": "Kantstraße", "addr:suburb": "Charlottenburg", "brand": "Bodystreet", "brand:wikidata": "Q117880186", "contact:email": "kantstrasse@bodystreet.com", "contact:phone": "+49 30 13894232", "contact:website": "https://www.bodystreet.com/de/standorte/deutschland/berlin/bodystreet-berlin-kantstrasse/", "leisure": "fitness_centre", "name": "Bodystreet", "opening_hours": "Mo-Fr 09:00-20:00; Sa 10:00-14:00", "wheelchair": "no"}}, {"type": "node", "id": 5424563451, "lat": 52.5354955, "lon": 13.3772335, "tags": {"addr:city": "Berlin", "addr:housenumber": "51", "addr:postcode": "10115", "addr:street": "Chausseestraße", "check_date:opening_hours": "2023-06-13", "email": "management@slim-gym.de", "leisure": "fitness_centre", "name": "Slim-Gym Club", "opening_hours": "Mo,Tu,Th,Fr 08:00-20:00; We 12:00-20:00; Sa 10:00-15:00", "phone": "+49 30 30881255", "website": "https://www.slim-gym.de/", "wheelchair": "yes"}}, {"type": "node", "id": 5443162245, "lat": 52.607932, "lon": 13.3254356, "tags": {"addr:city": "Berlin", "addr:housenumber": "6-10", "addr:postcode": "13469", "addr:street": "Oraniendamm", "brand": "FitX", "brand:wikidata": "Q29031618", "contact:phone": "+49 30 40396779", "contact:website": "https://www.fitx.de/studio/berlin-waidmannslust", "leisure": "fitness_centre", "name": "FitX", "opening_hours": "24/7", "sport": "fitness"}}, {"type": "node", "id": 5525155938, "lat": 52.4538703, "lon": 13.3874764, "tags": {"brand": "FitX", "brand:wikidata": "Q29031618", "leisure": "fitness_centre", "name": "FitX", "opening_hours": "Mo-Su 00:00-24:00"}}, {"type": "node", "id": 5552228830, "lat": 52.5642337, "lon": 13.4095229, "tags": {"addr:city": "Berlin", "addr:housenumber": "62-65", "addr:postcode": "13187", "addr:street": "Mühlenstraße", "leisure": "fitness_centre", "name": "Argo Athletics", "website": "https://www.argo-athletics.de/"}}, {"type": "node", "id": 5656522305, "lat": 52.524584, "lon": 13.410259, "tags": {"addr:city": "Berlin", "addr:country": "DE", "addr:housenumber": "14", "addr:postcode": "10178", "addr:street": "Rosa-Luxemburg-Straße", "addr:suburb": "Mitte", "contact:website": "https://evofitness.eu/de/club/evo-berlin-rosa/", "leisure": "fitness_centre", "name": "Evo Berlin Rosa", "opening_hours": "PH,Mo-Su 06:00-23:00", "wheelchair": "no"}}, {"type": "node", "id": 5659022957, "lat": 52.5079023, "lon": 13.4695348, "tags": {"leisure": "fitness_centre", "name": "Berlin Hot Yoga", "sport": "yoga"}}, {"type": "node", "id": 5718697030, "lat": 52.4965751, "lon": 13.3611761, "tags": {"leisure": "fitness_centre", "name": "Boxsport Berlin e.V.", "opening_hours": "Mo-Fr 14:30-22:00"}}, {"type": "node", "id": 5754645597, "lat": 52.4009135, "lon": 13.2445961, "tags": {"check_date:opening_hours": "2023-10-20", "contact:website": "http://ifitnessclub.de/ifitnessclub-teltow/", "leisure": "fitness_centre", "name": "IFitnessClub", "opening_hours": "Mo-Fr 07:00-22:00; Sa,Su 09:00-18:00; PH off"}}, {"type": "node", "id": 5796921707, "lat": 52.5133825, "lon": 13.2651845, "tags": {"brand": "Mrs. Sporty", "brand:wikidata": "Q100718953", "check_date:opening_hours": "2022-09-12", "leisure": "fitness_centre", "name": "Mrs. Sporty", "opening_hours": "Mo-Su 06:00-22:00", "wheelchair": "no"}}, {"type": "node", "id": 5825069584, "lat": 52.5649347, "lon": 13.4101265, "tags": {"leisure": "fitness_centre", "name": "Casa de Quilombo", "sport": "yoga;capoeira"}}, {"type": "node", "id": 5913018282, "lat": 52.5266763, "lon": 13.4062541, "tags": {"addr:city": "Berlin", "addr:country": "DE", "addr:housenumber": "5", "addr:postcode": "10119", "addr:street": "Steinstraße", "addr:suburb": "Mitte", "contact:website": "https://justfit-club.com/", "leisure": "fitness_centre", "name": "Just Fit", "wheelchair": "no"}}, {"type": "node", "id": 5916346085, "lat": 52.5745393, "lon": 13.5096069, "tags": {"addr:city": "Berlin", "addr:country": "DE", "addr:housenumber": "15", "addr:postcode": "13059", "addr:street": "Rostocker Straße", "addr:suburb": "Neu-Hohenschönhausen", "brand": "Mrs. Sporty", "brand:wikidata": "Q100718953", "leisure": "fitness_centre", "name": "Mrs. Sporty", "website": "https://www.mrssporty.de/club/berlin-wartenberg/"}}, {"type": "node", "id": 5922544402, "lat": 52.3731806, "lon": 13.1259678, "tags": {"addr:city": "Potsdam", "addr:country": "DE", "addr:housenumber": "39e", "addr:postcode": "14480", "addr:street": "Neuendorfer Straße", "contact:facebook": "https://www.facebook.com/CrossfitPotsdam/", "contact:phone": "+49 171 196 2607", "contact:website": "https://www.crossfitpotsdam.de", "leisure": "fitness_centre", "name": "CrossFit", "sport": "multi"}}, {"type": "node", "id": 5980998064, "lat": 52.4989674, "lon": 13.437719, "tags": {"addr:city": "Berlin", "addr:country": "DE", "addr:housenumber": "9", "addr:postcode": "10997", "addr:street": "Lübbener Straße", "addr:suburb": "Kreuzberg", "contact:website": "https://www.kreuzbergyoga.de/kontakt/", "leisure": "fitness_centre", "level": "1", "name": "Kreuzberg Yoga", "sport": "yoga"}}, {"type": "node", "id": 5981095822, "lat": 52.4955816, "lon": 13.426096, "tags": {"addr:city": "Berlin", "addr:country": "DE", "addr:housenumber": "30", "addr:postcode": "10999", "addr:street": "Paul-Lincke-Ufer", "addr:suburb": "Kreuzberg", "contact:website": "https://www.yogaflow.de/", "healthcare": "alternative", "leisure": "fitness_centre", "level": "3;4", "name": "Zentrum für Yoga und Stimme", "sport": "yoga", "training": "yoga;meditation"}}, {"type": "node", "id": 5985950308, "lat": 52.4788359, "lon": 13.4373568, "tags": {"addr:city": "Berlin", "addr:country": "DE", "addr:housenumber": "108", "addr:postcode": "12043", "addr:street": "Karl-Marx-Straße", "leisure": "fitness_centre", "level": "0", "name": "fitbox.de", "opening_hours": "Mo-Fr 09:00-20:00; Sa 09:00-16:00", "wheelchair": "yes"}}, {"type": "node", "id": 6006913091, "lat": 52.4350839, "lon": 13.2582451, "tags": {"addr:housenumber": "12", "addr:postcode": "14163", "addr:street": "Martin-Buber-Straße", "branch": "Zehlendorf", "brand": "Clever fit", "brand:wikidata": "Q27909675", "brand:wikipedia": "de:Clever fit", "email": "studio@berlin-zehlendorf.clever-fit.com", "internet_access": "wlan", "leisure": "fitness_centre", "name": "Clever fit", "opening_hours": "Mo-Fr 06:00-23:00; Sa-Su 09:00-20:00", "phone": "+49 3080582180", "website": "https://www.clever-fit.com/fitness-studios/clever-fit-berlin-zehlendorf/"}}, {"type": "node", "id": 6029322205, "lat": 52.5058788, "lon": 13.4455578, "tags": {"addr:city": "Berlin", "addr:housenumber": "11", "addr:postcode": "10243", "addr:street": "Tamara-Danz-Straße", "brand": "FitX", "brand:wikidata": "Q29031618", "leisure": "fitness_centre", "level": "4", "name": "FitX", "opening_hours": "24/7"}}, {"type": "node", "id": 6141321914, "lat": 52.5304776, "lon": 13.4617302, "tags": {"addr:city": "Berlin", "addr:housenumber": "14", "addr:postcode": "10369", "addr:street": "Oderbruchstraße", "brand": "FitX", "brand:wikidata": "Q29031618", "leisure": "fitness_centre", "level": "0", "name": "FitX", "opening_hours": "24/7", "phone": "+49 201 8067457200", "sport": "fitness"}}, {"type": "node", "id": 6189303135, "lat": 52.3892409, "lon": 13.0927318, "tags": {"addr:city": "Potsdam", "addr:country": "DE", "addr:housenumber": "21a", "addr:postcode": "14482", "addr:street": "Großbeerenstraße", "addr:suburb": "Babelsberg", "contact:email": "info@vitalbody-potsdam.de", "contact:facebook": "https://www.facebook.com/vitabodys/", "contact:instagram": "https://www.instagram.com/vitabodys_fitness/", "contact:phone": "+49 331 965 85645", "contact:website": "https://vitalbody-potsdam.de/", "description": "EMS-Trainingsstudio", "leisure": "fitness_centre", "name": "VitalBody", "opening_hours": "Mo-We 09:00-20:30; Th 08:00-20:30; Fr 08:00-19:30; Sa 08:00-14:00", "operator": "VitaBodys Training GmbH", "operator:type": "business", "wheelchair": "limited"}}, {"type": "node", "id": 6217415536, "lat": 52.4845339, "lon": 13.4625301, "tags": {"addr:city": "Berlin", "addr:country": "DE", "addr:housenumber": "8", "addr:postcode": "12435", "addr:street": "Puderstraße", "addr:suburb": "Plänterwald", "leisure": "fitness_centre", "name": "Paramount Fitness", "opening_hours": "Mo,We,Fr 10:00-22:00; Tu,Th 08:00-22:00; Sa-Su 10:00-18:00", "phone": "+49 30 5300747-8", "source": "local knowledge", "website": "https://paramount-fitness.de/"}}, {"type": "node", "id": 6245373115, "lat": 52.4905624, "lon": 13.3694456, "tags": {"addr:city": "Berlin", "addr:housenumber": "9/2", "addr:postcode": "10829", "addr:street": "Hochkirchstraße", "check_date": "2022-11-05", "check_date:opening_hours": "2022-12-10", "contact:facebook": "https://www.facebook.com/iyengarYogaZentrum", "contact:instagram": "https://www.instagram.com/iyengaryogaberlin/", "email": "info@iyzb.de", "leisure": "fitness_centre", "level": "0", "name": "Iyengar Yoga Zentrum", "opening_hours:signed": "no", "operator": "GbR Brass Voigt", "ref:vatin": "DE291047066", "sport": "yoga", "website": "https://www.iyengar-yoga-zentrum-berlin.de/", "wheelchair": "no"}}, {"type": "node", "id": 6249985337, "lat": 52.4937501, "lon": 13.3172922, "tags": {"addr:city": "Berlin", "addr:housenumber": "37", "addr:postcode": "10707", "addr:street": "Wittelsbacherstraße", "leisure": "fitness_centre", "name": "taohealth", "sport": "yoga", "website": "https://www.taohealth.de/standorte.html"}}, {"type": "node", "id": 6261885939, "lat": 52.5062441, "lon": 13.5602985, "tags": {"addr:city": "Berlin", "addr:housenumber": "108", "addr:postcode": "12683", "addr:street": "Weißenhöher Straße", "brand": "FitX", "brand:wikidata": "Q29031618", "leisure": "fitness_centre", "name": "FitX", "opening_hours": "24/7", "website": "https://www.fitx.de/studio/berlin-biesdorf"}}, {"type": "node", "id": 6269985404, "lat": 52.5007181, "lon": 13.4239752, "tags": {"addr:city": "Berlin", "addr:country": "DE", "addr:housenumber": "48", "addr:postcode": "10997", "addr:street": "Mariannenstraße", "addr:suburb": "Kreuzberg", "brand": "Yellow Yoga", "leisure": "fitness_centre", "name": "Gelber Raum", "operator": "Yellow Yoga GmbH", "sport": "yoga", "website": "https://yellow-yoga.com/"}}, {"type": "node", "id": 6287061378, "lat": 52.5484219, "lon": 13.4096666, "tags": {"leisure": "fitness_centre", "name": "Yoga Pankow", "sport": "yoga", "website": "http://www.yoga-pankow.de/"}}, {"type": "node", "id": 6294174556, "lat": 52.6370254, "lon": 13.2044468, "tags": {"brand": "Clever fit", "brand:wikidata": "Q27909675", "brand:wikipedia": "de:Clever fit", "leisure": "fitness_centre", "name": "Clever fit"}}, {"type": "node", "id": 6339499872, "lat": 52.5530718, "lon": 13.4037515, "tags": {"leisure": "fitness_centre", "name": "Afra Senter", "sport": "yoga", "website": "https://afrasentner.de/"}}, {"type": "node", "id": 6357893262, "lat": 52.5136199, "lon": 13.4627564, "tags": {"check_date:opening_hours": "2022-05-26", "leisure": "fitness_centre", "name": "Lotos Yoga", "opening_hours:signed": "no", "sport": "yoga", "wheelchair": "no"}}, {"type": "node", "id": 6388113852, "lat": 52.4528952, "lon": 13.6253449, "tags": {"addr:city": "Berlin", "addr:country": "DE", "addr:housenumber": "45", "addr:inclusion": "actual", "addr:postcode": "12587", "addr:street": "Bölschestraße", "addr:suburb": "Friedrichshagen", "contact:website": "https://fitbox.de/de/studios/fitbox-berlin-boelschestrasse", "leisure": "fitness_centre", "name": "Fitbox", "opening_hours": "Mo-Fr 08:30-21:00; Sa 10:00-16:00", "wheelchair": "no"}}, {"type": "node", "id": 6398137732, "lat": 52.4938947, "lon": 13.4487446, "tags": {"addr:city": "Berlin", "addr:housenumber": "12", "addr:postcode": "12435", "addr:street": "Bouchéstraße", "leisure": "fitness_centre", "name": "Urban Street Gym", "opening_hours": "Mo-Sa 10:00-20:00", "sport": "fitness;gymnastics;exercise"}}, {"type": "node", "id": 6414803768, "lat": 52.5147565, "lon": 13.4663046, "tags": {"addr:city": "Berlin", "addr:housenumber": "57", "addr:street": "Frankfurter Allee", "brand": "Fitness First", "brand:wikidata": "Q127120", "brand:wikipedia": "en:Fitness First", "description": "For women only.", "leisure": "fitness_centre", "name": "Fitness First", "opening_hours": "Mo-Sa 07:00-22:00"}}, {"type": "node", "id": 6415868985, "lat": 52.5250018, "lon": 13.3445657, "tags": {"addr:city": "Berlin", "addr:country": "DE", "addr:housenumber": "92", "addr:postcode": "10559", "addr:street": "Alt-Moabit", "addr:suburb": "Moabit", "check_date:opening_hours": "2023-06-05", "leisure": "fitness_centre", "name": "Slim-Gym", "opening_hours": "Mo,Tu,Th,Fr 08:00-20:00; We 12:00-20:00; Sa 10:00-14:00; Su off", "wheelchair": "no"}}, {"type": "node", "id": 6421090392, "lat": 52.5231862, "lon": 13.5864319, "tags": {"addr:city": "Berlin", "addr:housenumber": "83", "addr:postcode": "12619", "addr:street": "Hellersdorfer Straße", "leisure": "fitness_centre", "level": "-1", "name": "Five Star Fitness", "opening_hours": "Mo-Fr 08:00-23:00; Sa-Su 09:00-21:00; PH 10:00-18:00", "phone": "+49 30 56493956", "website": "http://five-star-fitness.de/hellersdorf/"}}, {"type": "node", "id": 6447122889, "lat": 52.5122911, "lon": 13.3238482, "tags": {"addr:city": "Berlin", "addr:country": "DE", "addr:housename": "EB 118", "addr:housenumber": "145", "addr:postcode": "10623", "addr:street": "Straße des 17. Juni", "addr:suburb": "Charlottenburg", "check_date": "2023-08-17", "contact:phone": "+49 30 31426648", "contact:website": "https://www.tu-sport.de/index.php?id=1171", "internet_access": "wlan", "leisure": "fitness_centre", "name": "Fitnessstudio TU Sport", "name:en": "Gym TU Sport", "opening_hours": "Mo-Fr 08:30-23:00; Sa 11:30-21:15; Su 10:30-20:16", "sport": "fitness"}}, {"type": "node", "id": 6451531078, "lat": 52.4763605, "lon": 13.4254971, "tags": {"addr:city": "Berlin", "addr:country": "DE", "addr:housenumber": "98", "addr:postcode": "12049", "addr:street": "Kienitzer Straße", "addr:suburb": "Neukölln", "contact:website": "https://www.dharmayogaberlin.com/", "leisure": "fitness_centre", "name": "Dharma Yoga", "sport": "yoga"}}, {"type": "node", "id": 6458744287, "lat": 52.464957, "lon": 13.3210363, "tags": {"addr:city": "Berlin", "addr:country": "DE", "addr:housenumber": "14", "addr:postcode": "12163", "addr:street": "Lepsiusstraße", "addr:suburb": "Steglitz", "dance:teaching": "yes", "leisure": "fitness_centre", "name": "Steglitzer Dance & Aerobic Center", "opening_hours": "\"Kurstermine\"", "website": "https://www.sdac.de/"}}, {"type": "node", "id": 6469985311, "lat": 52.4927896, "lon": 13.3268218, "tags": {"addr:city": "Berlin", "addr:country": "DE", "addr:housenumber": "62", "addr:postcode": "10717", "addr:street": "Nassauische Straße", "addr:suburb": "Wilmersdorf", "contact:facebook": "https://www.facebook.com/AUM-Yoga-Studio-151943974873582/", "contact:website": "http://www.aum-yoga.de/", "leisure": "fitness_centre", "name": "Aum Yoga Studio", "sport": "yoga"}}, {"type": "node", "id": 6497580485, "lat": 52.5318788, "lon": 13.1874325, "tags": {"addr:housenumber": "59-61", "addr:postcode": "13581", "addr:street": "Altonaer Straße", "brand": "McFit", "brand:wikidata": "Q871302", "brand:wikipedia": "en:McFit", "leisure": "fitness_centre", "name": "McFit", "opening_hours": "24/7", "phone": "+493035104984", "website": "http://www.mcfit.com/"}}, {"type": "node", "id": 6508696785, "lat": 52.5265415, "lon": 13.341843, "tags": {"addr:city": "Berlin", "addr:country": "DE", "addr:housenumber": "29", "addr:postcode": "10551", "addr:street": "Turmstraße", "addr:suburb": "Moabit", "check_date": "2023-04-03", "contact:phone": "+49 30 58848900", "contact:website": "https://www.fit-star.de/fitnessstudio/berlin-moabit/", "leisure": "fitness_centre", "name": "Fit Star", "opening_hours": "24/7"}}, {"type": "node", "id": 6550896785, "lat": 52.5279738, "lon": 13.4029924, "tags": {"addr:housenumber": "63", "addr:street": "Rosenthaler Straße", "check_date": "2023-12-23", "leisure": "fitness_centre", "name": "John & Jane‘s"}}, {"type": "node", "id": 6563440585, "lat": 52.5281086, "lon": 13.5389857, "tags": {"addr:city": "Berlin", "addr:country": "DE", "addr:housenumber": "5", "addr:postcode": "12681", "addr:street": "Helene-Weigel-Platz", "addr:suburb": "Marzahn", "brand": "Clever fit", "brand:wikidata": "Q27909675", "brand:wikipedia": "de:Clever fit", "contact:email": "studio@berlin-marzahn.clever-fit.com", "contact:phone": "+49 30 21453303", "leisure": "fitness_centre", "name": "Clever fit"}}, {"type": "node", "id": 6586374601, "lat": 52.5490334, "lon": 13.3551586, "tags": {"addr:housenumber": "35", "addr:postcode": "13353", "addr:street": "Müllerstraße", "leisure": "fitness_centre", "name": "FIT/ONE", "opening_hours": "Mo-Su 06:00-00:00", "phone": "+49 30 45028220", "website": "https://www.fit-one.de/berlin-wedding.html"}}, {"type": "node", "id": 6620963678, "lat": 52.5087065, "lon": 13.3126382, "tags": {"access": "customers", "addr:city": "Berlin", "addr:housenumber": "59", "addr:postcode": "10625", "addr:street": "Goethestraße", "brand": "Mrs. Sporty", "brand:wikidata": "Q100718953", "check_date": "2023-04-02", "fee": "yes", "leisure": "fitness_centre", "level": "0", "name": "Mrs. Sporty", "opening_hours": "Mo-Su 06:00-22:00", "phone": "+493035125042", "service_times": "Mo,Mi 08:00-12:00,16:00-20:00; Tue,Thu,Fr 08:00-12:00,16:00-19:00; Sa 09:00-12:00 || „oder nach telefonischer Vereinbarung“", "website": "https://www.mrssporty.de/club817", "wheelchair": "no"}}, {"type": "node", "id": 6693475018, "lat": 52.5379127, "lon": 13.4213383, "tags": {"addr:city": "Berlin", "addr:housenumber": "59", "addr:postcode": "10405", "addr:street": "Sredzkistraße", "leisure": "fitness_centre", "name": "Green Yoga", "sport": "yoga", "website": "https://greenyoga.co/studio"}}, {"type": "node", "id": 6757633586, "lat": 52.5858073, "lon": 13.4027986, "tags": {"addr:city": "Berlin", "addr:housenumber": "56", "addr:postcode": "13156", "addr:street": "Dietzgenstraße", "leisure": "fitness_centre", "name": "Green Yoga", "sport": "yoga"}}, {"type": "node", "id": 6759112267, "lat": 52.5063988, "lon": 13.4623488, "tags": {"addr:city": "Berlin", "addr:housenumber": "2", "addr:postcode": "10245", "addr:street": "Döringstraße", "healthcare:speciality": "pregnancy", "leisure": "fitness_centre", "name": "Studio Glücksmama", "opening_hours": "Mo-Fr 09:00-18:00", "sport": "yoga;dance", "website": "https://glücksmama.de"}}, {"type": "node", "id": 6789070129, "lat": 52.492162, "lon": 13.3713067, "tags": {"addr:city": "Berlin", "addr:housenumber": "20-24", "addr:postcode": "10829", "addr:street": "Bautzener Straße", "check_date:opening_hours": "2022-11-22", "leisure": "fitness_centre", "level": "1", "name": "Fit/One", "opening_hours": "PH,Mo-Su 06:00-24:00", "sport": "fitness", "website": "https://www.fit-one.de", "wheelchair": "yes"}}, {"type": "node", "id": 6841151512, "lat": 52.5000182, "lon": 13.4263004, "tags": {"addr:city": "Berlin", "addr:country": "DE", "addr:housenumber": "40", "addr:postcode": "10997", "addr:street": "Manteuffelstraße", "addr:suburb": "Kreuzberg", "leisure": "fitness_centre", "name": "Sportetage", "sport": "yoga"}}, {"type": "node", "id": 6841554512, "lat": 52.4166823, "lon": 13.2255408, "tags": {"leisure": "fitness_centre", "level": "0", "name": "Sode"}}, {"type": "node", "id": 6899045752, "lat": 52.5094167, "lon": 13.3097604, "tags": {"addr:city": "Berlin", "addr:country": "DE", "addr:housenumber": "61", "addr:postcode": "10627", "addr:street": "Krumme Straße", "addr:suburb": "Charlottenburg", "contact:mobile": "+49 170 8423194", "email": "suhara@web.de", "leisure": "fitness_centre", "name": "Iyengar Yoga", "operator": "Suhura Ben Rahal", "sport": "yoga"}}, {"type": "node", "id": 7006749859, "lat": 52.5025396, "lon": 13.3844025, "tags": {"addr:city": "Berlin", "addr:country": "DE", "addr:housenumber": "65", "addr:postcode": "10963", "addr:street": "Stresemannstraße", "addr:suburb": "Kreuzberg", "contact:website": "https://www.forde-fitness.com/", "leisure": "fitness_centre", "name": "Forde Fitness"}}, {"type": "node", "id": 7057578051, "lat": 52.4790244, "lon": 13.4518778, "tags": {"leisure": "fitness_centre", "name": "Yoga im Gartenstudio", "operator": "Bouldergarten GmbH", "sport": "yoga", "website": "https://bouldergarten.de/#studio"}}, {"type": "node", "id": 7066762906, "lat": 52.4855668, "lon": 13.3556988, "tags": {"addr:city": "Berlin", "addr:country": "DE", "addr:housenumber": "141", "addr:postcode": "10827", "addr:street": "Hauptstraße", "addr:suburb": "Schöneberg", "brand": "FitX", "brand:wikidata": "Q29031618", "leisure": "fitness_centre", "name": "FitX", "opening_hours": "24/7", "website": "https://www.fitx.de/fitnessstudios/berlin-schoeneberg"}}, {"type": "node", "id": 7069825849, "lat": 52.5316555, "lon": 13.4329339, "tags": {"addr:city": "Berlin", "addr:country": "DE", "addr:housenumber": "23", "addr:postcode": "10407", "addr:street": "Hufelandstraße", "addr:suburb": "Prenzlauer Berg", "leisure": "fitness_centre", "name": "InLight Yoga", "sport": "yoga", "wheelchair": "limited"}}, {"type": "node", "id": 7069825850, "lat": 52.5317118, "lon": 13.432789, "tags": {"addr:city": "Berlin", "addr:country": "DE", "addr:housenumber": "23", "addr:postcode": "10407", "addr:street": "Hufelandstraße", "addr:suburb": "Prenzlauer Berg", "check_date:opening_hours": "2022-03-14", "leisure": "fitness_centre", "name": "EMS Sport und Bewegung", "opening_hours": "Mo-Fr 08:00-20:00; Sa 09:00-15:00", "wheelchair": "limited"}}, {"type": "node", "id": 7095755738, "lat": 52.5331143, "lon": 13.4340409, "tags": {"addr:city": "Berlin", "addr:country": "DE", "addr:housenumber": "20", "addr:postcode": "10407", "addr:street": "Pasteurstraße", "addr:suburb": "Prenzlauer Berg", "contact:website": "https://makeda-pilates.de/", "leisure": "fitness_centre", "name": "Makeda", "sport": "pilates"}}, {"type": "node", "id": 7099412169, "lat": 52.6438012, "lon": 13.3215844, "tags": {"addr:city": "Mühlenbecker Land", "addr:country": "DE", "addr:housenumber": "62", "addr:postcode": "16567", "addr:street": "Glienicker Chaussee", "addr:suburb": "Schönfließ", "contact:website": "https://www.feelgood-fitness-sf.de/", "leisure": "fitness_centre", "name": "FeelGood Fitness"}}, {"type": "node", "id": 7133818467, "lat": 52.5494998, "lon": 13.3778323, "tags": {"addr:housenumber": "32-39", "addr:street": "Pankstraße", "check_date": "2023-07-13", "check_date:opening_hours": "2022-04-08", "leisure": "fitness_centre", "level": "2", "name": "CrunchFit", "opening_hours": "Mo-Su,PH 06:00-24:00", "sport": "fitness", "wheelchair": "no"}}, {"type": "node", "id": 7161037005, "lat": 52.4880071, "lon": 13.4241071, "tags": {"addr:city": "Berlin", "addr:housenumber": "10", "addr:postcode": "10967", "addr:street": "Hermannplatz", "leisure": "fitness_centre", "name": "American Fitness", "opening_hours": "Mo-Fr 07:00-23:00; Sa, Su 08:00-22:00; PH 10:00-20:00", "operator": "American Fitness", "phone": "+49 30 69807090", "sauna": "yes", "sport": "fitness", "swimming_pool": "no", "website": "http://american-fitness.org/berlin"}}, {"type": "node", "id": 7194124792, "lat": 52.5336363, "lon": 13.4361377, "tags": {"addr:city": "Berlin", "addr:country": "DE", "addr:housenumber": "17a", "addr:postcode": "10407", "addr:street": "Dietrich-Bonhoeffer-Straße", "addr:suburb": "Prenzlauer Berg", "contact:website": "https://www.kinderbewegung-berlin.com/", "leisure": "fitness_centre", "name": "Kindersport Sven Bora", "sport": "krav_maga"}}, {"type": "node", "id": 7194124793, "lat": 52.5336164, "lon": 13.4361912, "tags": {"addr:city": "Berlin", "addr:country": "DE", "addr:housenumber": "17a", "addr:postcode": "10407", "addr:street": "Dietrich-Bonhoeffer-Straße", "addr:suburb": "Prenzlauer Berg", "contact:website": "https://www.yogiberlin.de/", "leisure": "fitness_centre", "name": "yogi", "sport": "yoga"}}, {"type": "node", "id": 7231134046, "lat": 52.4758032, "lon": 13.4467666, "tags": {"addr:housenumber": "27", "addr:street": "Hertzbergstraße", "leisure": "fitness_centre", "name": "yogaraum Am Richardplatz", "sport": "yoga"}}, {"type": "node", "id": 7239669952, "lat": 52.5954367, "lon": 13.3746045, "tags": {"addr:city": "Berlin", "addr:country": "DE", "addr:housenumber": "101B", "addr:postcode": "13158", "addr:street": "Hauptstraße", "addr:suburb": "Rosenthal", "brand": "Mrs. Sporty", "brand:wikidata": "Q100718953", "contact:website": "https://www.mrssporty.de/club/berlin-rosenthal/", "leisure": "fitness_centre", "name": "Mrs. Sporty"}}, {"type": "node", "id": 7252377721, "lat": 52.50798, "lon": 13.4668695, "tags": {"check_date:opening_hours": "2023-11-23", "leisure": "fitness_centre", "name": "TSX Sportsclub", "opening_hours:signed": "no", "wheelchair": "limited"}}, {"type": "node", "id": 7272720758, "lat": 52.5439907, "lon": 13.4223608, "tags": {"addr:city": "Berlin", "addr:country": "DE", "addr:housenumber": "21", "addr:postcode": "10437", "addr:street": "Dunckerstraße", "addr:suburb": "Prenzlauer Berg", "check_date": "2023-04-08", "contact:phone": "+49 30 43200911", "contact:website": "https://www.formwandler.de/", "leisure": "fitness_centre", "name": "Formwandler", "opening_hours": "Mo-Fr 08:00-21:00; Sa-Su 10:00-15:00; PH off"}}, {"type": "node", "id": 7275474348, "lat": 52.5416201, "lon": 13.419718, "tags": {"addr:city": "Berlin", "addr:country": "DE", "addr:housenumber": "84", "addr:postcode": "10437", "addr:street": "Dunckerstraße", "addr:suburb": "Prenzlauer Berg", "contact:phone": "+49 30 30368487", "contact:website": "https://www.viapilates.de/", "leisure": "fitness_centre", "name": "Via Pilates", "opening_hours": "\"nach telefonischer Vereinbarung\"", "sport": "pilates"}}, {"type": "node", "id": 7279178744, "lat": 52.5450586, "lon": 13.4228163, "tags": {"addr:city": "Berlin", "addr:country": "DE", "addr:housenumber": "70", "addr:postcode": "10437", "addr:street": "Dunckerstraße", "addr:suburb": "Prenzlauer Berg", "leisure": "fitness_centre", "name": "House of Healing", "opening_hours": "Fr,Sa 12:00-19:00; Mo,We 13:00-19:00; Tu 13:00-18:00; Th 12:00-17:00", "sport": "yoga", "website": "https://houseofhealingberlin.com", "wheelchair": "no"}}, {"type": "node", "id": 7279405008, "lat": 52.5445551, "lon": 13.4207853, "tags": {"addr:city": "Berlin", "addr:country": "DE", "addr:housenumber": "22", "addr:postcode": "10437", "addr:street": "Schliemannstraße", "addr:suburb": "Prenzlauer Berg", "check_date": "2023-04-08", "contact:phone": "+49 30 44718418", "contact:website": "https://yogacircle-berlin.de/", "leisure": "fitness_centre", "name": "YogaCircle", "sport": "yoga"}}, {"type": "node", "id": 7296568749, "lat": 52.4313095, "lon": 13.7153681, "tags": {"addr:city": "Berlin", "addr:country": "DE", "addr:housenumber": "318", "addr:postcode": "12589", "addr:street": "Fürstenwalder Allee", "addr:suburb": "Rahnsdorf", "description": "Wellness und Fitness für Frauen", "leisure": "fitness_centre", "name": "fit & feminin"}}, {"type": "node", "id": 7311293615, "lat": 52.5395343, "lon": 13.4235503, "tags": {"addr:city": "Berlin", "addr:country": "DE", "addr:housenumber": "69", "addr:postcode": "10435", "addr:street": "Danziger Straße", "addr:suburb": "Prenzlauer Berg", "check_date:opening_hours": "2022-01-29", "leisure": "fitness_centre", "name": "My Sports", "opening_hours": "Mo-We 08:00-14:00,16:00-20:30; Th 08:00-14:00,16:00-20:00; Fr 08:00-20:00; Sa 10:00-15:00", "wheelchair": "yes"}}, {"type": "node", "id": 7544210933, "lat": 52.475808, "lon": 13.3246233, "tags": {"check_date:opening_hours": "2023-07-30", "description": "EMS Training", "leisure": "fitness_centre", "name": "EMS Training Berlin", "opening_hours": "Mo,We,Fr 10:00-20:00; Tu,Th 13:00-20:00; Sa 10:00-14:00", "website": "http://www.ems-training-berlin.de/"}}, {"type": "node", "id": 7554171386, "lat": 52.4694551, "lon": 13.332784, "tags": {"addr:city": "Berlin", "addr:country": "DE", "addr:housenumber": "17", "addr:postcode": "12159", "addr:street": "Rheinstraße", "addr:suburb": "Friedenau", "check_date:opening_hours": "2022-07-24", "description": "EMS-Training", "leisure": "fitness_centre", "name": "fitbox", "opening_hours": "Mo-Fr 08:00-20:30; Sa 09:00-16:00", "website": "https://fitbox.de/de/studios/fitbox-berlin-friedenau"}}, {"type": "node", "id": 7623775571, "lat": 52.5527066, "lon": 13.3424248, "tags": {"addr:city": "Berlin", "addr:country": "DE", "addr:housenumber": "11", "addr:postcode": "13351", "addr:street": "Transvaalstraße", "addr:suburb": "Wedding", "contact:phone": "+49 30 27977983", "contact:website": "https://bluepantayoga.com/", "leisure": "fitness_centre", "name": "Blue Panta", "opening_hours": "Mo-Th 07:30-11:30,18:00-22:00; Fr 07:30-11:30,18:00-20:30; Sa 10:00-14:00; Su 10:00-19:30", "sport": "yoga"}}, {"type": "node", "id": 7640755748, "lat": 52.4758116, "lon": 13.3401936, "tags": {"addr:city": "Berlin", "addr:country": "DE", "addr:housenumber": "69", "addr:postcode": "12159", "addr:street": "Hauptstraße", "addr:suburb": "Friedenau", "leisure": "fitness_centre", "name": "Yogazeit Stråla", "phone": "+49 163 6661164", "sport": "yoga", "website": "https://yogazeit-berlin.de/"}}, {"type": "node", "id": 7650571611, "lat": 52.5162635, "lon": 13.3044631, "tags": {"check_date": "2023-07-06", "leisure": "fitness_centre", "level": "0", "name": "Yogavihar", "sport": "yoga", "wheelchair": "no"}}, {"type": "node", "id": 7680118565, "lat": 52.4670632, "lon": 13.3396573, "tags": {"addr:city": "Berlin", "addr:country": "DE", "addr:housenumber": "9", "addr:postcode": "12157", "addr:street": "Beckerstraße", "addr:suburb": "Schöneberg", "leisure": "fitness_centre", "level": "0", "name": "Entspannt mit Yoga", "opening_hours": "\"Unterschiedlicher Kursplan\"", "phone": "+49 151 40450738", "sport": "yoga", "website": "https://www.entspannt-mit-yoga.de/", "wheelchair": "no"}}, {"type": "node", "id": 7683719224, "lat": 52.4726259, "lon": 13.3324358, "tags": {"addr:city": "Berlin", "addr:country": "DE", "addr:housenumber": "12", "addr:postcode": "12159", "addr:street": "Niedstraße", "addr:suburb": "Friedenau", "check_date:opening_hours": "2022-12-11", "leisure": "fitness_centre", "name": "Raum für Bewegung Quan Dao", "opening_hours:signed": "no", "operator": "Raum für Bewegung, GbR", "phone": "+49 172 3976033", "sport": "kung_fu", "website": "https://www.quandao-raum.de/", "wheelchair": "no"}}, {"type": "node", "id": 7749923385, "lat": 52.4726648, "lon": 13.3259026, "tags": {"addr:city": "Berlin", "addr:country": "DE", "addr:housenumber": "5", "addr:postcode": "12161", "addr:street": "Wilhelmshöher Straße", "addr:suburb": "Friedenau", "check_date:opening_hours": "2022-07-23", "healthcare": "alternative", "leisure": "fitness_centre", "name": "Akademie für Yoga Berlin", "opening_hours:signed": "no", "sport": "yoga", "website": "https://triyoga-akademie.de"}}, {"type": "node", "id": 7776107176, "lat": 52.4667964, "lon": 13.3306922, "tags": {"addr:city": "Berlin", "addr:country": "DE", "addr:housenumber": "46", "addr:postcode": "12161", "addr:street": "Rheinstraße", "addr:suburb": "Friedenau", "leisure": "fitness_centre", "name": "Donna Mobile", "website": "https://www.donnamobile.de/"}}, {"type": "node", "id": 7776239760, "lat": 52.4702542, "lon": 13.3370775, "tags": {"addr:city": "Berlin", "addr:country": "DE", "addr:housenumber": "11", "addr:postcode": "12159", "addr:street": "Fregestraße", "addr:suburb": "Friedenau", "contact:facebook": "https://www.facebook.com/FlowFitnessAnjaBlaku", "leisure": "fitness_centre", "name": "Flow Fitness", "phone": "+49 30 24329828", "website": "https://www.flowfitness.info/"}}, {"type": "node", "id": 7777530626, "lat": 52.4723634, "lon": 13.3231711, "tags": {"addr:city": "Berlin", "addr:country": "DE", "addr:housenumber": "20", "addr:postcode": "12161", "addr:street": "Wilhelmshöher Straße", "addr:suburb": "Friedenau", "leisure": "fitness_centre", "name": "Peronal Pilates", "opening_hours": "\"Termine nach Vereinbarung\"", "operator": "Michael Mischor", "sport": "yoga;pilates"}}, {"type": "node", "id": 7804846347, "lat": 52.4867414, "lon": 13.3236197, "tags": {"addr:city": "Berlin", "addr:country": "DE", "addr:housenumber": "30", "addr:postcode": "10715", "addr:street": "Berliner Straße", "addr:suburb": "Wilmersdorf", "leisure": "fitness_centre", "name": "CrossFit", "website": "https://hauptstadt-crossfit.de/"}}, {"type": "node", "id": 7820519429, "lat": 52.4250355, "lon": 13.7514327, "tags": {"addr:city": "Erkner", "addr:country": "DE", "addr:housenumber": "1-3", "addr:postcode": "15537", "addr:street": "Friedrichstraße", "contact:email": "info@sport-lady.de", "contact:phone": "+49 33 627000505", "contact:website": "https://sport-lady.de/", "leisure": "fitness_centre", "name": "SportLady", "sport": "fitness"}}, {"type": "node", "id": 7836953685, "lat": 52.508509, "lon": 13.5599114, "tags": {"leisure": "fitness_centre", "name": "Health Gym Berlin"}}, {"type": "node", "id": 7850361039, "lat": 52.4945812, "lon": 13.3577898, "tags": {"leisure": "fitness_centre", "name": "Ashtanga Yoga Schule", "sport": "yoga"}}, {"type": "node", "id": 7867810048, "lat": 52.536809, "lon": 13.4277953, "tags": {"addr:city": "Berlin", "addr:housenumber": "42", "addr:postcode": "10405", "addr:street": "Winsstraße", "addr:suburb": "Prenzlauer Berg", "brand": "Mrs. Sporty", "brand:wikidata": "Q100718953", "check_date": "2022-09-28", "check_date:opening_hours": "2022-09-18", "leisure": "fitness_centre", "name": "Mrs. Sporty", "opening_hours": "Mo-Su 06:00-22:00", "phone": "+49 30 30026644", "website": "https://www.mrssporty.de/club/berlin-prenzlauerberg-winsstrasse/", "wheelchair": "no"}}, {"type": "node", "id": 8042827117, "lat": 52.4792746, "lon": 13.3325115, "tags": {"addr:city": "Berlin", "addr:country": "DE", "addr:housenumber": "42", "addr:postcode": "10715", "addr:street": "Prinzregentenstraße", "addr:suburb": "Wilmersdorf", "leisure": "fitness_centre", "name": "Strom-Linien", "sport": "ems", "website": "https://www.strom-linien.de/"}}, {"type": "node", "id": 8066147155, "lat": 52.5444176, "lon": 13.4118011, "tags": {"addr:city": "Berlin", "addr:housenumber": "134", "addr:postcode": "10437", "addr:street": "Schönhauser Allee", "brand": "Ready Set Move", "description": "Personal Fitness Training Studio im Hinterhof, 65qm Trainingsfläche, Gesundheits-, Bewegungs- und Krafttraining, kleine Boulderwand mit Hangelparkour", "email": "info@ready-set-move.de", "leisure": "fitness_centre", "level": "0", "name": "Ready Set Move – Personal Training Berlin", "opening_hours": "Mo-Fr 08:00-20:00", "phone": "+49 17621964450", "source": "local knowledge", "sport": "fitness;climbing", "start_date": "2020-10-01", "website": "https://ready-set-move.de"}}, {"type": "node", "id": 8077205619, "lat": 52.4909974, "lon": 13.3313311, "tags": {"check_date:opening_hours": "2023-06-01", "leisure": "fitness_centre", "name": "Fitbox", "opening_hours": "Mo-Fr 09:00-20:00; Sa 09:00-16:00"}}, {"type": "node", "id": 8091797796, "lat": 52.4526924, "lon": 13.3304973, "tags": {"addr:city": "Berlin", "addr:country": "DE", "addr:housenumber": "8", "addr:postcode": "12167", "addr:street": "Klingsorstraße", "addr:suburb": "Steglitz", "check_date:opening_hours": "2023-06-19", "leisure": "fitness_centre", "name": "EMS Training Berlin", "opening_hours": "Mo,We,Fr 13:00-20:00; Tu,Th 10:00-20:00; Sa 10:00-14:00; PH,Su off", "sport": "ems", "website": "http://ems-training-berlin.de/"}}, {"type": "node", "id": 8094802649, "lat": 52.4709457, "lon": 13.3202746, "tags": {"addr:city": "Berlin", "addr:country": "DE", "addr:housenumber": "12", "addr:postcode": "14197", "addr:street": "Laubacher Straße", "addr:suburb": "Friedenau", "female": "only", "leisure": "fitness_centre", "name": "Sporteve", "opening_hours": "Mo-Su 07:00-21:00", "website": "https://www.sporteve.de/clubs/berlin-friedenau/"}}, {"type": "node", "id": 8120989341, "lat": 52.4575255, "lon": 13.3208065, "tags": {"brand": "Fitness First", "brand:wikidata": "Q127120", "brand:wikipedia": "en:Fitness First", "female": "yes", "leisure": "fitness_centre", "level": "3", "name": "Fitness First Ladies"}}, {"type": "node", "id": 8143925996, "lat": 52.4714277, "lon": 13.320908, "tags": {"addr:city": "Berlin", "addr:country": "DE", "addr:housenumber": "79", "addr:postcode": "12161", "addr:street": "Wiesbadener Straße", "addr:suburb": "Friedenau", "check_date:opening_hours": "2022-07-23", "contact:website": "http://pilates-on-the-go.com", "leisure": "fitness_centre", "name": "Pilates On The Go", "opening_hours:signed": "no", "sport": "pilates"}}, {"type": "node", "id": 8197441972, "lat": 52.5005866, "lon": 13.3103661, "tags": {"leisure": "fitness_centre", "name": "Rocycle", "sport": "bicycle"}}, {"type": "node", "id": 8199219273, "lat": 52.4703204, "lon": 13.3231656, "tags": {"addr:city": "Berlin", "addr:country": "DE", "addr:housenumber": "6", "addr:postcode": "12161", "addr:street": "Homuthstraße", "addr:suburb": "Friedenau", "leisure": "fitness_centre", "name": "pilaME", "sport": "pilates", "website": "https://pila-me.de/"}}, {"type": "node", "id": 8222836706, "lat": 52.4697929, "lon": 13.3289566, "tags": {"addr:city": "Berlin", "addr:country": "DE", "addr:housenumber": "123", "addr:postcode": "12161", "addr:street": "Bundesallee", "addr:suburb": "Friedenau", "leisure": "fitness_centre", "name": "Praxis für die Seele", "sport": "yoga", "website": "http://praxis-fuer-die-seele.eu"}}, {"type": "node", "id": 8231100116, "lat": 52.4395292, "lon": 13.5479174, "tags": {"addr:city": "Berlin", "addr:country": "DE", "addr:housenumber": "7", "addr:postcode": "12489", "addr:street": "Hackenbergstraße", "addr:suburb": "Adlershof", "email": "kontakt@yoga-glueck-berlin.de", "leisure": "fitness_centre", "name": "Yoga Glück", "sport": "yoga", "website": "https://www.yoga-glueck-berlin.de"}}, {"type": "node", "id": 8258006226, "lat": 52.6361722, "lon": 13.3193601, "tags": {"addr:city": "Glienicke/Nordbahn", "addr:housenumber": "9", "addr:postcode": "16548", "addr:street": "Eichenallee", "leisure": "fitness_centre", "name": "SPORTSMANN", "opening_hours": "Mo,We 09:00-12:00,17:00-21:00; Tu,Th 09:00-12:00,16:00-20:00; Fr 09:00-12:00,16:00-19:00; Sa 09:00-13:00", "sport": "fitness", "website": "https://www.sports-mann.de/"}}, {"type": "node", "id": 8261548027, "lat": 52.4099807, "lon": 13.7523446, "tags": {"addr:city": "Erkner", "addr:housenumber": "41", "addr:postcode": "15537", "addr:street": "Neu Zittauer Straße", "leisure": "fitness_centre", "name": "Athletic Park Erkner", "opening_hours": "Mo-Fr 08:00-20:00; PH,Sa,Su 10:00-18:00", "sport": "fitness;gymnastics"}}, {"type": "node", "id": 8270550321, "lat": 52.425342, "lon": 13.7510695, "tags": {"leisure": "fitness_centre", "name": "CUBE4FIT", "opening_hours": "Mo-Sa 06:00-22:00; PH,Su 09:00-16:00", "wheelchair": "yes"}}, {"type": "node", "id": 8325422642, "lat": 52.4106044, "lon": 13.1105363, "tags": {"addr:city": "Potsdam", "addr:country": "DE", "addr:housenumber": "24A", "addr:postcode": "14482", "addr:street": "Am Waldrand", "contact:email": "kontakt@sport-am-waldrand.de", "contact:mobile": "+49 160 972 59524", "contact:phone": "+49 331 967 6065", "contact:website": "http://sport-am-waldrand.de/", "description": "Personal Training, Rücken- und Yogakurse", "leisure": "fitness_centre", "name": "Sport am Waldrand", "operator": "Dorothee Ecke", "operator:type": "private", "personal_trainer": "yes", "sport": "walking;yoga"}}, {"type": "node", "id": 8330198881, "lat": 52.6048775, "lon": 13.3673041, "tags": {"addr:city": "Berlin", "addr:housenumber": "37", "addr:postcode": "13439", "addr:street": "Zerpenschleuser Ring", "email": "vitalis-fitness@t-online.de", "leisure": "fitness_centre", "name": "Fitnessclub Vitalis", "opening_hours": "Mo-Fr 07:00-22:00; Sa-Su 10:00-20:00", "phone": "+49 30 415 38 80", "sport": "fitness", "website": "https://www.fitnessclub-vitalis.de/"}}, {"type": "node", "id": 8379002230, "lat": 52.4650446, "lon": 13.3233808, "tags": {"addr:city": "Berlin", "addr:country": "DE", "addr:housenumber": "10", "addr:postcode": "12163", "addr:street": "Hackerstraße", "addr:suburb": "Steglitz", "description": "Yoga - Körpertherapie - Coaching", "healthcare": "alternative", "leisure": "fitness_centre", "name": "Raum für Leben", "opening_hours": "Tu 10:00-11:15,19:45-21:00; We 19:00-20:15; Th 17:30-18:45", "operator": "Gudrun Schultheiß", "sport": "yoga", "website": "https://wasnunwastun.de"}}, {"type": "node", "id": 8422865852, "lat": 52.4877092, "lon": 13.3345576, "tags": {"addr:city": "Berlin", "addr:country": "DE", "addr:housenumber": "161", "addr:postcode": "10715", "addr:street": "Berliner Straße", "addr:suburb": "Wilmersdorf", "check_date:opening_hours": "2023-06-02", "leisure": "fitness_centre", "name": "Hundred & Friends", "opening_hours": "Mo-Fr 16:00-20:00, Tu,Th 10:00-18:00+", "opening_hours:signed": "no", "sport": "pilates", "website": "https://www.lifekosmetik.com/"}}, {"type": "node", "id": 8462294818, "lat": 52.5603992, "lon": 13.4984219, "tags": {"addr:city": "Berlin", "addr:housenumber": "236", "addr:postcode": "13051", "addr:street": "Hansastraße", "leisure": "fitness_centre", "name": "FIT/ONE", "opening_hours": "Mo-Su 06:00-24:00"}}, {"type": "node", "id": 8558365378, "lat": 52.5535695, "lon": 13.4052242, "tags": {"email": "me@centerline-pilates.de", "leisure": "fitness_centre", "name": "Centerline Pilates", "phone": "+49 176 20 21 22 24", "sport": "yoga", "website": "https://www.centerline-pilates.de/"}}, {"type": "node", "id": 8621664469, "lat": 52.5371215, "lon": 13.4225943, "tags": {"addr:city": "Berlin", "addr:country": "DE", "addr:housenumber": "207", "addr:postcode": "10405", "addr:street": "Prenzlauer Allee", "addr:suburb": "Prenzlauer Berg", "contact:website": "https://fitbox.de/", "leisure": "fitness_centre", "name": "Fitbox", "opening_hours": "Mo-Fr 08:00-20:30; Sa 09:00-16:00", "sport": "fitness"}}, {"type": "node", "id": 8622816454, "lat": 52.5399323, "lon": 13.4177211, "tags": {"check_date:opening_hours": "2023-06-18", "leisure": "fitness_centre", "name": "ride-berlin.com", "opening_hours:signed": "no"}}, {"type": "node", "id": 8626109382, "lat": 52.5110332, "lon": 13.2913584, "tags": {"leisure": "fitness_centre", "name": "Iyengar Yoga", "sport": "yoga"}}, {"type": "node", "id": 8637655134, "lat": 52.4872648, "lon": 13.3407554, "tags": {"addr:city": "Berlin", "addr:country": "DE", "addr:housenumber": "56", "addr:postcode": "10825", "addr:street": "Innsbrucker Straße", "addr:suburb": "Schöneberg", "leisure": "fitness_centre", "name": "Schule für Yoga und Prana", "operator": "Barbara Münzer", "sport": "yoga", "website": "https://muenzeryoga.jimdofree.com/"}}, {"type": "node", "id": 8662502304, "lat": 52.5121345, "lon": 13.4485371, "tags": {"addr:city": "Berlin", "addr:housenumber": "47", "addr:postcode": "10243", "addr:street": "Gubener Straße", "check_date:opening_hours": "2022-12-08", "leisure": "fitness_centre", "name": "Soulsport Yoga", "opening_hours:signed": "no", "sport": "yoga;pilates", "website": "https://www.soulsport.net/"}}, {"type": "node", "id": 8679795668, "lat": 52.5492037, "lon": 13.3471371, "tags": {"description": "Auf der Matte und an den Pilatesgeräten nehmen wir uns Zeit für gesunde Bewegungen. Als Tänzerinnen und Pilatesexpertinnen geben wir vielseitige Impulse und Möglichkeiten zu Veränderung, Körpervertrauen und Bewegungskompetenz.", "email": "post@pilatique.de", "image": "https://pilatique.de/wp-content/uploads/2015/08/pilatique_logo_master_rgb_250.png", "leisure": "fitness_centre", "level": "0", "name": "pilatique, Pilatesstudio", "opening_hours": "\"nach Vereinbarung\"", "phone": "+49 30 57704087", "sport": "pilates", "website": "https://pilatique.de/"}}, {"type": "node", "id": 8839649644, "lat": 52.4990796, "lon": 13.2960862, "tags": {"addr:city": "Berlin", "addr:country": "DE", "addr:housenumber": "41", "addr:postcode": "10711", "addr:street": "Joachim-Friedrich-Straße", "addr:suburb": "Halensee", "leisure": "fitness_centre", "name": "Be Your Star Fitnesscoaching", "phone": "+49 171 2697356", "website": "https://www.be-your-star.berlin/"}}, {"type": "node", "id": 8989690901, "lat": 52.4825358, "lon": 13.3816579, "tags": {"leisure": "fitness_centre", "source": "survey", "sport": "yoga", "survey:date": "2021-08-04"}}, {"type": "node", "id": 9067697047, "lat": 52.500659, "lon": 13.3756597, "tags": {"addr:city": "Berlin", "addr:country": "DE", "addr:housenumber": "36", "addr:postcode": "10963", "addr:street": "Tempelhofer Ufer", "addr:suburb": "Kreuzberg", "contact:facebook": "https://www.facebook.com/xstepberlin/", "contact:instagram": "https://www.instagram.com/xstepberlin/", "contact:website": "https://www.x-step.de/", "leisure": "fitness_centre", "name": "X-Step", "opening_hours": "16:00-18:00", "operator": "Eggert / Schmidt  GbR", "phone": "+49 30 2616925", "ref:vatin": "DE178802063", "sport": "fitness;dancing;martial_arts"}}, {"type": "node", "id": 9105794918, "lat": 52.6647995, "lon": 13.308013, "tags": {"leisure": "fitness_centre", "name": "lifeStyle Yoga", "sport": "yoga", "website": "https://www.lifestyleyoga.de/"}}, {"type": "node", "id": 9402426708, "lat": 52.5478641, "lon": 13.4534306, "tags": {"addr:city": "Berlin", "addr:housenumber": "43", "addr:postcode": "13088", "addr:street": "Bizetstraße", "check_date:opening_hours": "2023-06-14", "email": "info@bisee-yoga.de", "leisure": "fitness_centre", "name": "BiSee Yoga", "opening_hours:signed": "no", "sport": "yoga", "website": "https://bisee-yoga.de", "wheelchair": "no"}}, {"type": "node", "id": 9404573372, "lat": 52.4623323, "lon": 13.3395351, "tags": {"addr:city": "Berlin", "addr:country": "DE", "addr:housenumber": "70", "addr:postcode": "12157", "addr:street": "Bismarckstraße", "addr:suburb": "Steglitz", "brand": "Bodystreet", "brand:wikidata": "Q117880186", "email": "berlin-bismarckstrasse@bodystreet.de", "leisure": "fitness_centre", "name": "Bodystreet", "opening_hours": "Mo-Fr 09:00-20:30", "phone": "+49 30 79014869", "sport": "ems", "website": "https://www.bodystreet.com/de/studio/bodystreet-berlin-bismarckstrasse"}}, {"type": "node", "id": 9431775959, "lat": 52.5500839, "lon": 13.4596077, "tags": {"addr:city": "Berlin", "addr:housenumber": "108", "addr:postcode": "13088", "addr:street": "Berliner Allee", "leisure": "fitness_centre", "name": "Fitbox", "opening_hours": "Mo-Fr 10:00-21:00; Sa 10:00-16:00", "phone": "+49 30 40569210", "website": "https://fitbox.de/de/studios/fitbox-berlin-weissensee"}}, {"type": "node", "id": 9504311194, "lat": 52.5476997, "lon": 13.4572285, "tags": {"addr:city": "Berlin", "addr:housenumber": "59", "addr:postcode": "13088", "addr:street": "Meyerbeerstraße", "email": "kathrin1m@web.de", "leisure": "fitness_centre", "name": "Sonne Mond & Sterne", "sport": "yoga", "website": "https://hatha-yoga-mit-kathrin.jimdosite.com/"}}, {"type": "node", "id": 9524144982, "lat": 52.4939117, "lon": 13.3982992, "tags": {"description": "3. Hinterhof, Remise rechts", "email": "info@prostage.berlin", "leisure": "fitness_centre", "name": "PRO-STAGE", "phone": "+49 30 61209261", "website": "https://prostage.berlin/"}}, {"type": "node", "id": 9529221826, "lat": 52.508465, "lon": 13.2726237, "tags": {"leisure": "fitness_centre", "name": "LovFit"}}, {"type": "node", "id": 9532970248, "lat": 52.4951128, "lon": 13.3328601, "tags": {"addr:city": "Berlin", "addr:country": "DE", "addr:housenumber": "18", "addr:postcode": "10779", "addr:street": "Nachodstraße", "addr:suburb": "Wilmersdorf", "contact:email": "hallo@minimalyoga.de", "contact:mobile": "+49 1772884231", "contact:website": "https://minimalyoga.de", "leisure": "fitness_centre", "level": "1", "name": "Minimal Yoga", "opening_hours": "Mo-Th 19:00-21:00", "sport": "yoga"}}, {"type": "node", "id": 9592884391, "lat": 52.5097577, "lon": 13.306013, "tags": {"addr:city": "Berlin", "addr:country": "DE", "addr:housenumber": "126-127", "addr:postcode": "10627", "addr:street": "Wilmersdorfer Straße", "addr:suburb": "Charlottenburg", "branch": "Club Berlin Charlottenburg", "brand": "JOHN REED Fitness", "brand:wikidata": "Q106434148", "check_date": "2023-04-10", "leisure": "fitness_centre", "level": "1", "name": "JOHN REED Fitness", "opening_hours": "Mo-Su,PH 06:00-24:00", "phone": "+49 30 31800437", "sport": "fitness;gym", "website": "https://johnreed.fitness/club-berlin-charlottenburg", "wheelchair": "no"}}, {"type": "node", "id": 9632071018, "lat": 52.462798, "lon": 13.3408491, "tags": {"addr:city": "Berlin", "addr:country": "DE", "addr:housenumber": "9", "addr:postcode": "12157", "addr:street": "Kissinger Straße", "addr:suburb": "Steglitz", "check_date:opening_hours": "2023-01-10", "leisure": "fitness_centre", "name": "MO.VE", "opening_hours:signed": "no", "sport": "yoga"}}, {"type": "node", "id": 9662767223, "lat": 52.5016941, "lon": 13.432989, "tags": {"addr:city": "Berlin", "addr:housenumber": "5", "addr:postcode": "10997", "addr:street": "Eisenbahnstraße", "email": "info@peaceyoga.de", "leisure": "fitness_centre", "name": "Peace Yoga Berlin", "sport": "yoga", "website": "https://www.peaceyoga.de"}}, {"type": "node", "id": 9708780370, "lat": 52.5702216, "lon": 13.4103995, "tags": {"addr:city": "Berlin", "addr:country": "DE", "addr:housenumber": "2", "addr:postcode": "13187", "addr:street": "Berliner Straße", "addr:suburb": "Pankow", "brand": "Bodystreet", "brand:wikidata": "Q117880186", "contact:website": "https://www.bodystreet.com/de/studio/bodystreet-berlin-pankow-kirche", "leisure": "fitness_centre", "name": "Bodystreet", "opening_hours": "Mo-Fr 09:30-20:30", "wheelchair": "no"}}, {"type": "node", "id": 9728794514, "lat": 52.5209499, "lon": 13.4041015, "tags": {"addr:city": "Berlin", "addr:housenumber": "4", "addr:postcode": "10178", "addr:street": "Spandauer Straße", "leisure": "fitness_centre", "name": "Ladycompany - Fitness für Frauen", "opening_hours": "Mo-Fr 08:00-22:00; Sa,Su 10:00-20:00", "phone": "+493024020677", "website": "https://www.ladycompany.de/"}}, {"type": "node", "id": 9775820813, "lat": 52.5151023, "lon": 13.4654729, "tags": {"leisure": "fitness_centre", "name": "yogafürdich Berlin", "sport": "yoga"}}, {"type": "node", "id": 9775829185, "lat": 52.3648443, "lon": 13.5944846, "tags": {"addr:city": "Schulzendorf", "addr:housenumber": "3", "addr:postcode": "15732", "addr:street": "Richard-Israel-Straße", "leisure": "fitness_centre", "name": "Localfit"}}, {"type": "node", "id": 9809316129, "lat": 52.360776, "lon": 13.4118747, "tags": {"addr:city": "Blankenfelde-Mahlow", "addr:postcode": "15831", "addr:street": "Albrechtstraße", "addr:suburb": "Mahlow", "email": "info@shambomaya.de", "leisure": "fitness_centre", "mobile": "+49 171 4456529", "name": "shambo maya", "operator": "Jörg-Holger Zlotos", "phone": "+49 33708 410188", "sport": "yoga", "website": "https://www.shambomaya.de"}}, {"type": "node", "id": 9814415268, "lat": 52.3612068, "lon": 13.4113836, "tags": {"leisure": "fitness_centre", "name": "Impuls EMS-Studio", "opening_hours": "Mo-Th 09:00-20:00; Fr 09:00-18:00; PH off", "sport": "gymnastics"}}, {"type": "node", "id": 9830837796, "lat": 52.511239, "lon": 13.4558403, "tags": {"addr:city": "Berlin", "addr:country": "DE", "addr:housenumber": "54", "addr:postcode": "10245", "addr:street": "Grünberger Straße", "addr:suburb": "Friedrichshain", "contact:mobile": "+49 179 1757415", "contact:website": "https://bunker-berlin.com", "leisure": "fitness_centre", "level": "-1", "name": "Bunker Berlin", "opening_hours": "24/7", "sport": "bodybuilding;fitness"}}, {"type": "node", "id": 9846635117, "lat": 52.5133709, "lon": 13.4633274, "tags": {"addr:housenumber": "30", "addr:street": "Scharnweberstraße", "email": "yoga@yoga-lotos.de", "leisure": "fitness_centre", "name": "Lotos Yoga Berlin - YOGA LOFT", "phone": "+49 30 91544928", "sport": "yoga", "survey:date": "2022-06-25", "website": "https://yoga-lotos.de/"}}, {"type": "node", "id": 9852432518, "lat": 52.4919528, "lon": 13.489293, "tags": {"addr:city": "Berlin", "addr:housenumber": "13", "addr:postcode": "10317", "addr:street": "Hauptstraße", "leisure": "fitness_centre", "name": "AXT CrossFit", "opening_hours": "Mo-Fr 07:00-08:00,12:00-13:00,15:00-21:30; Sa 09:00-14:00; Su 11:00-15:00", "phone": "+4915792465440", "sport": "fitness;crossfit", "survey:date": "2022-06-28", "website": "https://www.axtcrossfit.com/"}}, {"type": "node", "id": 9867335575, "lat": 52.5232792, "lon": 13.4769045, "tags": {"addr:city": "Berlin", "addr:country": "DE", "addr:housenumber": "225", "addr:postcode": "10367", "addr:street": "Storkower Straße", "addr:suburb": "Fennpfuhl", "leisure": "fitness_centre", "level": "-1", "name:signed": "no"}}, {"type": "node", "id": 9906919513, "lat": 52.4913262, "lon": 13.4575902, "tags": {"addr:housenumber": "113", "addr:street": "Elsenstraße", "email": "fitnessampark@activ-fitness.de", "leisure": "fitness_centre", "name": "Fitness am Park", "opening_hours": "Mo-Fr 07:00-22:00; Sa 09:00-17:00; Su 09:00-20:00", "phone": "+49 30 5363800", "website": "https://www.activ-fitness-deutschland.de/berlin-treptow.html"}}, {"type": "node", "id": 9906938038, "lat": 52.4888923, "lon": 13.387549, "tags": {"addr:housenumber": "6", "addr:street": "Am Tempelhofer Berg", "email": "fitnesscenter@web.de", "leisure": "fitness_centre", "name": "FitnessCenter aTB", "opening_hours": "Mo, We, Fr 07:00-22:00; Tu, Th 09:00-22:00; Sa 10:00-20:00; Su 10:00-18:00", "phone": "+49 30 693 40 40", "website": "https://www.fitnesscenter-atb.com/"}}, {"type": "node", "id": 9928786051, "lat": 52.5101818, "lon": 13.3814085, "tags": {"addr:city": "Berlin", "addr:housenumber": "12", "addr:postcode": "10117", "addr:street": "Leipziger Platz", "email": "info@allstargym.de", "internet_access": "yes", "leisure": "fitness_centre", "name": "AllStar Gym", "official_name": "AllStar Gym LP12 GmbH", "phone": "+49 30 94051670", "website": "https://allstargym.de/"}}, {"type": "node", "id": 9985456517, "lat": 52.5646061, "lon": 13.4095769, "tags": {"leisure": "fitness_centre", "name": "mPointUp"}}, {"type": "node", "id": 10000479377, "lat": 52.4908896, "lon": 13.30329, "tags": {"check_date": "2022-09-04", "leisure": "fitness_centre", "name": "Lokai Loft", "opening_hours": "06:00-22:00"}}, {"type": "node", "id": 10035842242, "lat": 52.5438448, "lon": 13.4127951, "tags": {"addr:city": "Berlin", "addr:country": "DE", "addr:housenumber": "57", "addr:postcode": "10437", "addr:street": "Schönhauser Allee", "addr:suburb": "Prenzlauer Berg", "contact:phone": "+49 30 40576242", "contact:website": "https://www.myfuturefit.de/", "leisure": "fitness_centre", "name": "Future Fit", "opening_hours": "Mo-Fr 09:00-19:00", "sport": "fitness"}}, {"type": "node", "id": 10045257318, "lat": 52.544999, "lon": 13.4279151, "tags": {"addr:housenumber": "88", "addr:street": "Prenzlauer Allee", "brand": "Bodystreet", "brand:wikidata": "Q117880186", "check_date": "2022-09-22", "leisure": "fitness_centre", "name": "Bodystreet", "wheelchair": "limited"}}, {"type": "node", "id": 10056214905, "lat": 52.544723, "lon": 13.4111529, "tags": {"addr:city": "Berlin", "addr:housenumber": "11", "addr:postcode": "10437", "addr:street": "Cantianstraße", "addr:suburb": "Prenzlauer Berg", "leisure": "fitness_centre", "name": "Arcoverde Pilates Zentrum", "phone": "+49 30 40301875", "sport": "yoga", "website": "http://pilatesinberlin.de"}}, {"type": "node", "id": 10100682968, "lat": 52.5313866, "lon": 13.4215563, "tags": {"addr:city": "Berlin", "addr:housenumber": "24", "addr:postcode": "10405", "addr:street": "Heinrich-Roller-Straße", "addr:suburb": "Prenzlauer Berg", "leisure": "fitness_centre", "name": "Marion Röhrig Pilates", "sport": "yoga"}}, {"type": "node", "id": 10100813297, "lat": 52.5335247, "lon": 13.4247709, "tags": {"addr:city": "Berlin", "addr:housenumber": "60", "addr:postcode": "10405", "addr:street": "Winsstraße", "addr:suburb": "Prenzlauer Berg", "leisure": "fitness_centre", "name": "Pantarei Approach", "sport": "yoga", "website": "www.learnpantarei.com"}}, {"type": "node", "id": 10121509310, "lat": 52.4690894, "lon": 13.3279458, "tags": {"addr:city": "Berlin", "addr:country": "DE", "addr:housenumber": "1", "addr:postcode": "12161", "addr:street": "Stubenrauchstraße", "addr:suburb": "Friedenau", "leisure": "fitness_centre", "name": "Twenty Minutes Fitness Lounge", "sport": "ems;power_plate", "website": "https://twentyminutes-fitness.jimdo.com/"}}, {"type": "node", "id": 10124188468, "lat": 52.4532489, "lon": 13.3223719, "tags": {"addr:housenumber": "16", "addr:street": "Schützenstraße", "check_date": "2023-10-02", "description": "Personal Training", "leisure": "fitness_centre", "name": "Indiv Sports", "phone": "+4915224261916", "website": "www.indivsports.de", "wheelchair": "no"}}, {"type": "node", "id": 10130657647, "lat": 52.4008179, "lon": 13.2425049, "tags": {"addr:city": "Teltow", "addr:country": "DE", "addr:housenumber": "7", "addr:postcode": "14513", "addr:street": "Am Teltowkanal", "leisure": "fitness_centre", "name": "Freiraum Fitnessclub Teltow"}}, {"type": "node", "id": 10131167926, "lat": 52.462578, "lon": 13.3674509, "tags": {"addr:city": "Berlin", "addr:housenumber": "57-75", "addr:postcode": "12103", "addr:street": "Bessemerstrasse", "leisure": "fitness_centre", "level": "1", "name": "Crunch Fit Studio Berlin-Schöneberg", "opening_hours": "Mo-Su 06:00-24:00", "phone": "+49 30 586 155 690", "sport": "fitness;weightlifting", "website": "https://www.crunchfit.de/studio/berlin-schoeneberg/"}}, {"type": "node", "id": 10175951317, "lat": 52.503731, "lon": 13.3845448, "tags": {"addr:housenumber": "72", "addr:postcode": "10963", "addr:street": "Stresemannstraße", "email": "hallo@basement-boulderstudio.de", "leisure": "fitness_centre", "name": "Basement Boulderstudio", "phone": "+49 30 2464 9465", "website": "https://basement-boulderstudio.de/"}}, {"type": "node", "id": 10248360663, "lat": 52.4978481, "lon": 13.3266094, "tags": {"leisure": "fitness_centre", "name": "stromtown", "sport": "fitness"}}, {"type": "node", "id": 10282680110, "lat": 52.5187846, "lon": 13.415099, "tags": {"addr:city": "Berlin", "addr:housenumber": "99", "addr:postcode": "10178", "addr:street": "Dircksenstraße", "check_date:opening_hours": "2023-05-23", "leisure": "fitness_centre", "name": "Beat 81", "opening_hours:signed": "no"}}, {"type": "node", "id": 10293894600, "lat": 52.531081, "lon": 13.3680776, "tags": {"addr:housenumber": "12", "addr:street": "Heidestraße", "check_date": "2022-12-29", "leisure": "fitness_centre", "level": "0", "name": "Getimpulse"}}, {"type": "node", "id": 10314570434, "lat": 52.4900414, "lon": 13.3559614, "tags": {"addr:city": "Berlin", "addr:country": "DE", "addr:housenumber": "86", "addr:postcode": "10823", "addr:street": "Grunewaldstraße", "addr:suburb": "Schöneberg", "check_date:opening_hours": "2023-04-30", "leisure": "fitness_centre", "name": "Die Schönebergerin", "opening_hours:signed": "no", "sport": "pilates", "website": "https://www.dieschönebergerin.de/"}}, {"type": "node", "id": 10594955331, "lat": 52.4794998, "lon": 13.3102202, "tags": {"addr:city": "Berlin", "addr:country": "DE", "addr:housenumber": "24a", "addr:postcode": "14197", "addr:street": "Mecklenburgische Straße", "addr:suburb": "Wilmersdorf", "leisure": "fitness_centre", "name": "Classic Crossfit", "website": "https://www.classic-crossfit.de"}}, {"type": "node", "id": 10609414411, "lat": 52.5472139, "lon": 13.4129051, "tags": {"leisure": "fitness_centre", "name": "fitbox"}}, {"type": "node", "id": 10648363519, "lat": 52.5057198, "lon": 13.2963353, "tags": {"leisure": "fitness_centre", "name": "Warias Kosmetik & Yoga", "shop": "beauty", "sport": "yoga", "website": "https://wariaskosmetik.de"}}, {"type": "node", "id": 10675679016, "lat": 52.5268844, "lon": 13.4787593, "tags": {"addr:city": "Berlin", "addr:country": "DE", "addr:housenumber": "112", "addr:postcode": "10369", "addr:street": "Weißenseer Weg", "leisure": "fitness_centre", "name": "Crunch Fit", "opening_hours": "Mo-Su 06:00-24:00", "website": "https://crunchfit.de/dein-studio/berlin-lichtenberg/"}}, {"type": "node", "id": 10702130505, "lat": 52.5384092, "lon": 13.4876781, "tags": {"leisure": "fitness_centre", "name": "VitalInn"}}, {"type": "node", "id": 10727283773, "lat": 52.4469431, "lon": 13.623723, "tags": {"leisure": "fitness_centre", "name": "Vibra Fitness Lounge", "sport": "fitness"}}, {"type": "node", "id": 10780033147, "lat": 52.5084656, "lon": 13.3115118, "tags": {"check_date": "2023-07-01", "leisure": "fitness_centre", "name": "Feldenkrais & QiGong", "operator": "Anne Barthelmeß", "phone": "+49 172 3824268", "sport": "yoga", "website": "https://www.anne-barthelmess.de", "wheelchair": "no"}}, {"type": "node", "id": 10788427170, "lat": 52.466586, "lon": 13.3305061, "tags": {"addr:city": "Berlin", "addr:country": "DE", "addr:housenumber": "45-46", "addr:postcode": "12161", "addr:street": "Rheinstraße", "addr:suburb": "Friedenau", "addr:unit": "Aufgang B, 2. OG", "contact:website": "https://strikefirst.de/", "leisure": "fitness_centre", "name": "Strike First Krav Maga"}}, {"type": "node", "id": 10788867287, "lat": 52.4585685, "lon": 13.3274238, "tags": {"addr:city": "Berlin", "addr:country": "DE", "addr:housenumber": "93", "addr:postcode": "12169", "addr:street": "Bergstraße", "addr:suburb": "Steglitz", "contact:email": "office@evltn.de", "contact:phone": "+49 176 459 617 25", "contact:website": "https://krav-maga-berlin.de", "leisure": "fitness_centre", "name": "Krav Maga Berlin Headquarters"}}, {"type": "node", "id": 10792875944, "lat": 52.5069366, "lon": 13.326358, "tags": {"addr:city": "Berlin", "addr:country": "DE", "addr:housenumber": "194", "addr:postcode": "10623", "addr:street": "Uhlandstraße", "addr:suburb": "Charlottenburg", "leisure": "fitness_centre", "name": "Fitness Unlimited", "website": "https://www.activ-fitness-deutschland.de/fitness-unlimited/"}}, {"type": "node", "id": 10797454234, "lat": 52.4538251, "lon": 13.3160563, "tags": {"brand": "Bodystreet", "brand:wikidata": "Q117880186", "check_date": "2023-04-09", "leisure": "fitness_centre", "name": "Bodystreet", "wheelchair": "no"}}, {"type": "node", "id": 10802968151, "lat": 52.5311208, "lon": 13.4306675, "tags": {"check_date": "2023-04-11", "leisure": "fitness_centre", "name": "yogibar", "sport": "yoga"}}, {"type": "node", "id": 10804733989, "lat": 52.4976583, "lon": 13.5221442, "tags": {"addr:city": "Berlin", "addr:housenumber": "7", "addr:postcode": "10319", "addr:street": "Otto-Schmirgal-Straße", "brand": "FitX", "brand:wikidata": "Q29031618", "leisure": "fitness_centre", "level": "2", "name": "FitX", "opening_hours": "24/7", "sport": "fitness", "website": "https://www.fitx.de/fitnessstudios/berlin-tierpark"}}, {"type": "node", "id": 10881753305, "lat": 52.4781146, "lon": 13.3646654, "tags": {"addr:city": "Berlin", "addr:country": "DE", "addr:housenumber": "77", "addr:postcode": "10829", "addr:street": "Wilhelm-Kabus-Straße", "addr:suburb": "Schöneberg", "brand": "FitX", "brand:wikidata": "Q29031618", "leisure": "fitness_centre", "name": "FitX", "opening_hours": "24/7", "phone": "+49 30 78951767", "website": "https://www.fitx.de/fitnessstudios/berlin-suedkreuz", "wheelchair": "no"}}, {"type": "node", "id": 10909471605, "lat": 52.5305105, "lon": 13.5585447, "tags": {"leisure": "fitness_centre", "name": "Sportstudio"}}, {"type": "node", "id": 10936515611, "lat": 52.5218757, "lon": 13.3367913, "tags": {"addr:city": "Berlin", "addr:housenumber": "6", "addr:postcode": "10555", "addr:street": "Dortmunder Straße", "email": "yogapetersen@web.de", "leisure": "fitness_centre", "name": "Yogaschule Petersen", "phone": "+49 30 39905483", "sport": "yoga", "website": "http://www.yogaschule-petersen.de/"}}, {"type": "node", "id": 10938713752, "lat": 52.5229664, "lon": 13.6776383, "tags": {"leisure": "fitness_centre", "name": "höhenflug"}}, {"type": "node", "id": 10958258205, "lat": 52.6628372, "lon": 13.2853001, "tags": {"leisure": "fitness_centre", "name": "Gym4us", "opening_hours": "24/7"}}, {"type": "node", "id": 10973845906, "lat": 52.5085275, "lon": 13.3610272, "tags": {"leisure": "fitness_centre", "name": "BMVg Sportcontainer"}}, {"type": "node", "id": 10978245699, "lat": 52.4828083, "lon": 13.6020198, "tags": {"brand": "Clever fit", "brand:wikidata": "Q27909675", "leisure": "fitness_centre", "name": "Clever fit"}}, {"type": "node", "id": 10978245702, "lat": 52.4833807, "lon": 13.6023922, "tags": {"leisure": "fitness_centre", "sport": "ems"}}, {"type": "node", "id": 11010271941, "lat": 52.6340691, "lon": 13.4966691, "tags": {"brand": "Clever fit", "brand:wikidata": "Q27909675", "leisure": "fitness_centre", "level": "1", "name": "Clever fit", "sport": "fitness"}}, {"type": "node", "id": 11014339720, "lat": 52.5310799, "lon": 13.396507, "tags": {"addr:housenumber": "155", "addr:street": "Ackerstraße", "check_date": "2023-06-29", "leisure": "fitness_centre", "name": "HIT BLN", "wheelchair": "no"}}, {"type": "node", "id": 11026581858, "lat": 52.5673491, "lon": 13.3983889, "tags": {"leisure": "fitness_centre", "name": "Studio 108", "sport": "yoga"}}, {"type": "node", "id": 11046023605, "lat": 52.5142111, "lon": 13.4816451, "tags": {"check_date:opening_hours": "2023-09-10", "contact:website": "https://blnathletics.com/", "leisure": "fitness_centre", "name": "BLN Athletics", "opening_hours:signed": "no"}}, {"type": "node", "id": 11061882780, "lat": 52.6402199, "lon": 13.295109, "tags": {"addr:city": "Berlin", "addr:housenumber": "23", "addr:postcode": "13465", "addr:street": "Königsbacher Zeile", "check_date": "2023-07-22", "contact:email": "biancascheiber@web.de", "currency:XBT": "yes", "leisure": "fitness_centre", "name": "B-touched Yoga by Bianca", "payment:lightning": "no", "payment:lightning_contactless": "no", "payment:onchain": "yes", "phone": "+49 (0)176 387 475 34", "sport": "yoga", "website": "https://b-touched-yoga.com/"}}, {"type": "node", "id": 11107054359, "lat": 52.5365531, "lon": 13.4507477, "tags": {"addr:city": "Berlin", "addr:housenumber": "105", "addr:postcode": "10407", "addr:street": "Storkower Str.", "leisure": "fitness_centre", "name": "EVOPE Performance Center", "sport": "crossfit;martial_arts;hyrox;hiit", "website": "https://evope.com/pages/gym-memberships"}}, {"type": "node", "id": 11109294278, "lat": 52.5509589, "lon": 13.3611178, "tags": {"leisure": "fitness_centre", "name": "Sensing Yoga", "sport": "yoga"}}, {"type": "node", "id": 11143206743, "lat": 52.4069695, "lon": 13.6509908, "tags": {"addr:city": "Berlin", "addr:housenumber": "30", "addr:postcode": "12559", "addr:street": "Eppenbrunner Weg", "leisure": "fitness_centre", "name": "Nature Womb", "opening_hours": "Mo,Th 07:45-21:30; Tu 07:45-20:30; We 09:15-20:30; Fr 07:45-22:00", "sport": "yoga", "website": "https://www.nature-womb.de/"}}, {"type": "node", "id": 11181712344, "lat": 52.5244747, "lon": 13.3991704, "tags": {"addr:housenumber": "19A", "addr:street": "Große Hamburger Straße", "email": "mail@yogatribe.de", "leisure": "fitness_centre", "name": "Yogatribe", "phone": "+493028883688", "sport": "yoga", "website": "https://www.yogatribe.de/"}}, {"type": "node", "id": 11201598334, "lat": 52.5296219, "lon": 13.4161686, "tags": {"addr:housenumber": "4", "addr:street": "Saarbrücker Straße", "check_date": "2023-10-08", "internet_access": "wlan", "internet_access:fee": "customers", "leisure": "fitness_centre", "name": "John Reed Bötzow", "opening_hours": "Mo-Fr 06:00-23:00; Sa-Su 08:00-22:00", "payment:girocard": "yes", "payment:mastercard": "yes", "payment:visa": "yes", "sport": "multi;yoga;fitness;running;swimming", "website": "https://johnreed.fitness/clubs/berlin-boetzow", "wheelchair": "no"}}, {"type": "node", "id": 11211952137, "lat": 52.5503767, "lon": 13.4189229, "tags": {"addr:housenumber": "35", "addr:postcode": "10439", "addr:street": "Rodenbergstraße", "brand": "Mrs. Sporty", "brand:wikidata": "Q100718953", "leisure": "fitness_centre", "name": "Mrs. Sporty", "opening_hours": "Mo-Su 06:00-22:00", "phone": "32591933;017643499561", "website": "https://www.mrssporty.de/club/berlin-prenzlauerberg-rodenbergstrasse/"}}, {"type": "node", "id": 11227904749, "lat": 52.5054645, "lon": 13.3752868, "tags": {"brand": "Holmes Place", "brand:wikidata": "Q15815819", "leisure": "fitness_centre", "name": "Holmes Place"}}, {"type": "node", "id": 11291360614, "lat": 52.5162056, "lon": 13.3113031, "tags": {"check_date": "2023-10-26", "leisure": "fitness_centre", "level": "0", "name": "Abnehmen Im Liegen"}}, {"type": "node", "id": 11410528669, "lat": 52.532346, "lon": 13.3970753, "tags": {"addr:housenumber": "158", "addr:postcode": "10115", "addr:street": "Invalidenstraße", "email": "dance-info@la-candela-salsa.de", "leisure": "fitness_centre", "name": "La Candela Salsa", "phone": "017634449686", "website": "https://la-candela-salsa.de/"}}, {"type": "node", "id": 11433087561, "lat": 52.5666674, "lon": 13.410098, "tags": {"leisure": "fitness_centre"}}]}