{"version": 0.6, "generator": "Overpass API 0.7.61.5 4133829e", "osm3s": {"timestamp_osm_base": "2024-01-02T13:45:02Z", "copyright": "The data included in this document is from www.openstreetmap.org. The data is made available under ODbL."}, "elements": [{"type": "node", "id": 66917094, "lat": 52.5239216, "lon": 13.3888786, "tags": {"addr:city": "Berlin", "addr:country": "DE", "addr:housenumber": "107", "addr:postcode": "10117", "addr:street": "Friedrichstraße", "addr:suburb": "Mitte", "amenity": "theatre", "contact:facebook": "https://www.facebook.com/friedrichstadt.palast", "contact:instagram": "https://www.instagram.com/friedrichstadt.palast/", "contact:youtube": "https://www.youtube.com/user/Showpalast", "name": "Friedrichstadt-Palast", "phone": "+49 30 23262326", "toilets:wheelchair": "yes", "website": "https://www.palast.berlin/", "wheelchair": "yes", "wheelchair:description": "Sie erreichen das Foyer barrierefrei über den Seiteneingang in der Johannisstraße. Von dort gelangen Sie mit einem Aufzug in alle Ebenen und in den Saal. Der Palast verfügt über 4 Rollstuhlplätze. Dazu gibt es Behindertenparkplätze direkt am Palast.", "wikidata": "Q565670", "wikimedia_commons": "Category:Friedrichstadtpalast", "wikipedia": "de:Friedrichstadtpalast"}}, {"type": "node", "id": 66917098, "lat": 52.5236239, "lon": 13.3886211, "tags": {"addr:city": "Berlin", "addr:country": "DE", "addr:housenumber": "107", "addr:postcode": "10117", "addr:street": "Friedrichstraße", "addr:suburb": "Mitte", "amenity": "theatre", "check_date": "2023-03-18", "contact:facebook": "https://www.facebook.com/quatschcomedyclub/", "contact:instagram": "https://www.instagram.com/quatschcomedyclub/", "contact:phone": "+49 30 27879030", "level": "0", "name": "Quatsch Comedy Club", "theatre:genre": "stand_up_comedy", "toilets:wheelchair": "yes", "website": "https://www.quatsch-comedy-club.de/", "wheelchair": "limited", "wikidata": "Q1791352", "wikimedia_commons": "Category:Quatsch Comedy Club", "wikipedia": "de:Quatsch Comedy Club"}}, {"type": "node", "id": 66917115, "lat": 52.5206669, "lon": 13.3885051, "tags": {"addr:city": "Berlin", "addr:country": "DE", "addr:housenumber": "101", "addr:postcode": "10117", "addr:street": "Friedrichstraße", "addr:suburb": "Mitte", "amenity": "theatre", "check_date": "2022-12-06", "contact:email": "distel@distel-berlin.de", "contact:fax": "+49 30 203000-20", "contact:phone": "+49 30 203000-0", "name": "Kabarett-Theater Distel", "operator": "Martin Maier-Bode", "payment:credit_cards": "yes", "payment:debit_cards": "yes", "website": "http://www.distel-berlin.de", "wheelchair": "yes", "wikidata": "Q1211965", "wikimedia_commons": "Category:Die Distel", "wikipedia": "de:Die Distel"}}, {"type": "node", "id": 66917188, "lat": 52.5207714, "lon": 13.3889021, "tags": {"addr:city": "Berlin", "addr:country": "DE", "addr:housenumber": "101", "addr:postcode": "10117", "addr:street": "Friedrichstraße", "addr:suburb": "Mitte", "amenity": "theatre", "contact:phone": "+49 30 47997499", "name": "Admiralspalast", "name:de": "Admiralspalast", "name:ru": "Адмиралспаласт", "toilets:wheelchair": "yes", "website": "http://www.admiralspalast.de", "wheelchair": "limited", "wikidata": "Q359242", "wikimedia_commons": "Category:Admiralspalast, Berlin", "wikipedia": "de:Admiralspalast"}}, {"type": "node", "id": 79808389, "lat": 52.5088651, "lon": 13.2707514, "tags": {"addr:city": "Berlin", "addr:country": "DE", "addr:housenumber": "2-4", "addr:postcode": "14052", "addr:street": "Pommernallee", "addr:suburb": "Westend", "amenity": "theatre", "contact:phone": "+49 30 30673011", "contact:website": "https://www.wuehlmaeuse.de/", "name": "Die Wühlmäuse", "toilets:wheelchair": "yes", "wheelchair": "yes", "wikidata": "Q1217653"}}, {"type": "node", "id": 173985100, "lat": 52.4990938, "lon": 13.3862714, "tags": {"addr:city": "Berlin", "addr:country": "DE", "addr:housenumber": "32", "addr:postcode": "10963", "addr:street": "Hallesches Ufer", "addr:suburb": "Kreuzberg", "amenity": "theatre", "contact:email": "info@hebbel-am-ufer.de", "contact:fax": "+49 30 259004-13", "contact:phone": "+49 30 259004-27", "name": "HAU 2 (Hebbel am Ufer)", "old_name": "Theater am Halleschen Ufer", "toilets:wheelchair": "yes", "website": "https://www.hebbel-am-ufer.de/", "wheelchair": "yes", "wikidata": "Q1592694", "wikimedia_commons": "Category:HEBBEL AM UFER", "wikipedia": "de:Hebbel am Ufer"}}, {"type": "node", "id": 229948256, "lat": 52.5258112, "lon": 13.4011409, "tags": {"addr:city": "Berlin", "addr:country": "DE", "addr:housenumber": "18", "addr:postcode": "10178", "addr:street": "Sophienstraße", "addr:suburb": "Mitte", "alt_name": "Sophiensäle", "amenity": "theatre", "contact:email": "info@sophiensaele.com", "contact:phone": "+49 30 2825266", "contact:website": "https://www.sophiensaele.com/", "name": "Sophiensæle", "operator": "Sophiensæle GmbH", "wheelchair": "yes", "wikidata": "Q1492210", "wikipedia": "de:Sophiensäle"}}, {"type": "node", "id": 259797763, "lat": 52.5182037, "lon": 13.4399455, "tags": {"addr:city": "Berlin", "addr:country": "DE", "addr:housenumber": "48", "addr:postcode": "10243", "addr:street": "Palisadenstraße", "addr:suburb": "Friedrichshain", "amenity": "theatre", "check_date": "2016-01-29", "contact:email": "info@kriminaltheater.de", "contact:facebook": "https://www.facebook.com/kriminaltheater/", "contact:fax": "+49 30 28098333", "contact:phone": "+49 30 47997488", "contact:website": "http://www.kriminaltheater.de/", "name": "Berliner Kriminaltheater", "operator": "BKT Bühnen und Betriebs GmbH", "toilets:wheelchair": "yes", "wheelchair": "yes", "wheelchair:description": "Rolliparkplatz vor der Tür", "wikidata": "Q821599", "wikipedia": "de:Berliner Kriminal Theater"}}, {"type": "node", "id": 272406395, "lat": 52.4986606, "lon": 13.3022747, "tags": {"addr:city": "Berlin", "addr:country": "DE", "addr:housenumber": "153", "addr:postcode": "10709", "addr:street": "Kurfürstendamm", "addr:suburb": "Wilmersdorf", "alt_name": "Schaubühne", "amenity": "theatre", "contact:facebook": "Schaubuehne", "contact:instagram": "schaubuehne_berlin", "contact:twitter": "schaubuehne", "contact:youtube": "https://www.youtube.com/user/schaubuehne", "email": "ticket@schaubuehne.de", "fax": "+49-30-89002-295300", "name": "Schaubühne am Lehniner Platz", "name:etymology:wikidata": "Q939583", "name:he": "שאוביהנה", "opening_hours": "Mo-Sa 11:00-18:30; Su 15:00-18:30", "operator": "Schaubühne am Lehniner Platz Theaterbetriebs GmbH", "phone": "+49-30-890023", "theatre:genre": "drama", "theatre:type": "stage", "toilets:wheelchair": "yes", "website": "https://www.schaubuehne.de/", "wheelchair": "yes", "wikidata": "Q569461", "wikipedia": "de:Schaubühne am Lehniner Platz"}}, {"type": "node", "id": 272807733, "lat": 52.4976425, "lon": 13.4430035, "tags": {"addr:city": "Berlin", "addr:country": "DE", "addr:housenumber": "20a", "addr:postcode": "10997", "addr:street": "Cuvrystraße", "addr:suburb": "Kreuzberg", "amenity": "theatre", "contact:email": "ratibortheater@t-online.de", "contact:phone": "+49 30 6186199", "contact:website": "http://www.ratibortheater.de/", "name": "Ratibortheater", "toilets:wheelchair": "no", "wheelchair": "yes"}}, {"type": "node", "id": 282754671, "lat": 52.5142329, "lon": 13.4721701, "tags": {"addr:city": "Berlin", "addr:country": "DE", "addr:housenumber": "91", "addr:postcode": "10247", "addr:street": "Frankfurter Allee", "addr:suburb": "Friedrichshain", "amenity": "theatre", "name": "Verlängertes Wohnzimmer"}}, {"type": "node", "id": 289404068, "lat": 52.5121441, "lon": 13.3083771, "tags": {"addr:city": "Berlin", "addr:country": "DE", "addr:housenumber": "35", "addr:postcode": "10627", "addr:street": "Bismarckstraße", "addr:suburb": "Charlottenburg", "amenity": "theatre", "check_date": "2023-06-03", "email": "info@deutscheoperberlin.de", "fax": "+49 30 34384 246", "name": "Deutsche Oper Berlin", "name:de": "Deutsche Oper Berlin", "name:en": "German Opera Berlin", "name:es": "Ópera Alemana de Berlín", "name:he": "דויטשה אופר ברלין", "name:nl": "Duitse Opera Berlijn", "name:ru": "Немецкая опера", "operator": "Stiftung Oper in Berlin", "phone": "+49 30 34384343", "short_name": "Deutsche Oper", "theatre:genre": "opera", "theatre:type": "opera_house", "toilets:wheelchair": "yes", "website": "https://www.deutscheoperberlin.de/", "wheelchair": "yes", "wikidata": "Q637834", "wikipedia": "de:Deutsche Oper Berlin"}}, {"type": "node", "id": 290381165, "lat": 52.5170913, "lon": 13.4782731, "tags": {"addr:city": "Berlin", "addr:country": "DE", "addr:housenumber": "31", "addr:postcode": "10367", "addr:street": "Parkaue", "addr:suburb": "Lichtenberg", "amenity": "theatre", "contact:email": "info@parkaue.de", "contact:facebook": "https://www.facebook.com/TheaterParkaue/", "contact:fax": "+49 30 557752-22", "contact:instagram": "https://www.instagram.com/theateranderparkaue/", "contact:phone": "+49 30 557752-0", "contact:tiktok": "https://www.tiktok.com/@theateranderparkaue", "contact:website": "http://www.parkaue.de", "contact:youtube": "https://www.youtube.com/user/Parkaue1", "name": "Theater an der Parkaue", "old_name": "Theater der Freundschaft", "wheelchair": "yes", "wikidata": "Q2416046", "wikimedia_commons": "Category:Theater an der Parkaue (Berlin)", "wikipedia": "de:Theater an der Parkaue"}}, {"type": "node", "id": 303027574, "lat": 52.4881169, "lon": 13.366735, "tags": {"addr:city": "Berlin", "addr:country": "DE", "addr:postcode": "10829", "amenity": "theatre", "contact:website": "http://www.scheinbar.de", "description": "kleine gemütliche Kleinkunstbühne", "name": "Scheinbar Varieté e.V.", "theatre:genre": "variety", "toilets:wheelchair": "no", "wheelchair": "no"}}, {"type": "node", "id": 315146496, "lat": 52.4873738, "lon": 13.3883479, "tags": {"addr:city": "Berlin", "addr:country": "DE", "addr:housenumber": "40", "addr:postcode": "10965", "addr:street": "Fidicinstraße", "addr:suburb": "Kreuzberg", "amenity": "theatre", "contact:email": "mail@thikwa.de", "contact:fax": "+49 30 6146437", "contact:phone": "+49 30 6146467", "email": "mail@thikwa.de", "name": "Theater Thikwa (F40)", "operator": "Theater Thikwa e.V.", "toilets:wheelchair": "yes", "website": "https://www.thikwa.de/", "wheelchair": "yes"}}, {"type": "node", "id": 318525456, "lat": 52.5156648, "lon": 13.3869856, "tags": {"addr:city": "Berlin", "addr:country": "DE", "addr:housenumber": "55-57", "addr:postcode": "10117", "addr:street": "Behrenstraße", "addr:suburb": "Mitte", "amenity": "theatre", "contact:fax": "+49 30 47997490", "contact:phone": "+49 30 47997400", "contact:website": "https://www.komische-oper-berlin.de/", "name": "Komische Oper Berlin", "operator": "Stiftung Oper in Berlin", "theatre:genre": "opera", "theatre:type": "opera_house", "toilets:wheelchair": "yes", "wheelchair": "yes", "wheelchair:description:de": "Rollstuhlfahrer: Eingang zwischen Westin Grand Hotel und Oper.", "wheelchair:description:en": "Access for wheelchair drivers between Grand Westin Hotel and theatre.", "wikidata": "Q687694", "wikimedia_commons": "Category:Komische Oper Berlin", "wikipedia": "de:Komische Oper Berlin"}}, {"type": "node", "id": 345806623, "lat": 52.5243546, "lon": 13.3819066, "tags": {"addr:city": "Berlin", "addr:country": "DE", "addr:housenumber": "13a", "addr:postcode": "10117", "addr:street": "Schumannstraße", "addr:suburb": "Mitte", "amenity": "theatre", "contact:email": "service@deutschestheater.de", "contact:fax": "+49 30 2824117", "contact:phone": "+49 30 28441221", "contact:website": "https://www.deutschestheater.de/", "name": "Deutsches Theater", "toilets:wheelchair": "yes", "wheelchair": "limited", "wikidata": "Q703955", "wikimedia_commons": "Category:Deutsches Theater Berlin", "wikipedia": "de:Deutsches Theater (Berlin)"}}, {"type": "node", "id": 428511003, "lat": 52.5166137, "lon": 13.464371, "tags": {"addr:city": "Berlin", "addr:country": "DE", "addr:street": "Rigaer Straße", "amenity": "theatre", "name": "TIK: Theater im Kino", "toilets:wheelchair": "no", "wheelchair": "limited"}}, {"type": "node", "id": 454167248, "lat": 52.5583825, "lon": 13.413048, "tags": {"amenity": "theatre", "name": "Vineta Theater", "wheelchair": "no"}}, {"type": "node", "id": 474378383, "lat": 52.4733641, "lon": 13.3223214, "tags": {"addr:city": "Berlin", "addr:country": "DE", "addr:housenumber": "64", "addr:postcode": "12161", "addr:street": "Südwestkorso", "addr:suburb": "Friedenau", "amenity": "theatre", "contact:facebook": "https://www.facebook.com/kleines.theater", "contact:instagram": "https://www.instagram.com/kleinestheaterberlin/", "name": "Kleines Theater", "operator": "Kleines Theater am Südwestkorso GmbH", "phone": "+49 30 8212021", "theatre:genre": "drama", "website": "https://www.kleines-theater.de/", "wheelchair": "yes", "wikidata": "Q47012971", "wikipedia": "de:Kleines Theater (Südwestkorso)"}}, {"type": "node", "id": 474801032, "lat": 52.4775631, "lon": 13.439333, "tags": {"addr:city": "Berlin", "addr:country": "DE", "addr:housenumber": "131-133", "addr:postcode": "12043", "addr:street": "Karl-Marx-Straße", "addr:suburb": "Neukölln", "amenity": "theatre", "contact:email": "info@neukoellneroper.de", "contact:fax": "+49 30 688907-89", "contact:phone": "+49 30 688907-77", "name": "Neuköllner Oper", "operator": "Neuköllner Oper e.V.", "toilets:wheelchair": "yes", "website": "https://www.neukoellneroper.de/", "wheelchair": "limited", "wheelchair:description": "Die Oper verfügt über einen Fahrstuhl, der allerdings nicht öffentlich zugänglich ist und über den Hinterhof zu erreichen ist. Bei der Abholung der Karten kann der Kassendame bescheid gegeben werden, die sich um die Organisation des Fahrstuhls kümmert.", "wikidata": "Q1980823", "wikipedia": "de:Neuköllner Oper"}}, {"type": "node", "id": 476027573, "lat": 52.5399039, "lon": 13.4136365, "tags": {"amenity": "theatre", "name": "Theater Rambazamba", "wheelchair": "yes", "wikidata": "Q2415924", "wikipedia": "de:RambaZamba Theater"}}, {"type": "node", "id": 510154873, "lat": 52.5398598, "lon": 13.4107279, "tags": {"addr:city": "Berlin", "addr:country": "DE", "addr:housenumber": "7-9", "addr:postcode": "10435", "addr:street": "Kastanienallee", "addr:suburb": "Prenzlauer Berg", "amenity": "theatre", "check_date": "2023-11-12", "contact:phone": "+49-30 24065777", "level": "0", "name": "Volksbühne im Prater", "website": "http://www.volksbuehne-berlin.de/", "wheelchair": "no"}}, {"type": "node", "id": 545733901, "lat": 52.5185239, "lon": 13.3954981, "tags": {"addr:city": "Berlin", "addr:country": "DE", "addr:housenumber": "1", "addr:postcode": "10117", "addr:street": "Am Festungsgraben", "addr:suburb": "Mitte", "amenity": "theatre", "contact:fax": "+49 30 2010693", "contact:phone": "+49 30 2010693", "email": "service@theater-im-palais.de", "name": "Theater im Palais", "operator": "Theaterverein Am Festungsgraben e.V.", "toilets:wheelchair": "yes", "website": "https://www.theater-im-palais.de/", "wheelchair": "yes", "wikidata": "Q1583640"}}, {"type": "node", "id": 549931287, "lat": 52.4608983, "lon": 13.5130035, "tags": {"amenity": "theatre", "name": "SpreeLacArt Kulturwerk Schöneweide", "website": "http://www.spreelacart.de", "wheelchair": "yes"}}, {"type": "node", "id": 572221430, "lat": 52.5061225, "lon": 13.3285705, "tags": {"addr:city": "Berlin", "addr:country": "DE", "addr:housenumber": "12a", "addr:postcode": "10623", "addr:street": "Kantstraße", "addr:suburb": "Charlottenburg", "amenity": "theatre", "contact:email": "info@vaganten.de", "contact:fax": "+49-30-3133483", "contact:phone": "+49-30-3124529", "contact:website": "http://www.vaganten.de/", "name": "Vaganten Bühne", "operator": "Vaganten Bühne gemeinnützige Theater GmbH", "toilets:wheelchair": "no", "wheelchair": "limited", "wikidata": "Q2507233", "wikimedia_commons": "Category:Vaganten Bühne", "wikipedia": "de:Vaganten Bühne"}}, {"type": "node", "id": 613229739, "lat": 52.535733, "lon": 13.398065, "tags": {"addr:city": "Berlin", "addr:country": "DE", "addr:housenumber": "35", "addr:postcode": "10115", "addr:street": "Brunnenstraße", "addr:suburb": "Mitte", "amenity": "theatre", "contact:phone": "+49 30 4490820", "contact:website": "https://www.mirakulum.de/", "name": "Theater Mirakulum", "wheelchair": "no"}}, {"type": "node", "id": 615148215, "lat": 52.524042, "lon": 13.402083, "tags": {"addr:city": "Berlin", "addr:country": "DE", "addr:housenumber": "40-41", "addr:postcode": "10178", "addr:street": "Rosenthaler Straße", "addr:suburb": "Mitte", "alt_name": "CHAMÄLEON Musik Theater Varieté", "amenity": "theatre", "contact:email": "info@chamaeleonberlin.com", "contact:fax": "+49 30 400059-33", "contact:phone": "+49 30 400059-0", "contact:website": "http://www.chamaeleonberlin.com", "name": "Chamäleon", "operator": "CHAMÄLEON Theater GmbH", "theatre:genre": "variety", "toilets:wheelchair": "yes", "wheelchair": "limited", "wikidata": "Q1061549", "wikipedia": "de:Chamäleon (Varieté)"}}, {"type": "node", "id": 619119805, "lat": 52.5103384, "lon": 13.323503, "tags": {"addr:city": "Berlin", "addr:country": "DE", "addr:housenumber": "100", "addr:postcode": "10623", "addr:street": "Knesebeckstraße", "addr:suburb": "Charlottenburg", "amenity": "theatre", "contact:email": "tickets@renaissance-theater.de", "contact:fax": "+49-30-315973-40", "contact:phone": "+49-30-3124202", "contact:website": "http://www.renaissance-theater.de/", "name": "Renaissance-Theater Berlin", "operator": "Neue Theater-Betriebs GmbH", "phone": "+49 30 3159730", "toilets:wheelchair": "no", "website": "https://www.renaissance-theater.de/", "wheelchair": "no", "wikidata": "Q876556", "wikipedia": "de:Renaissance-Theater (Berlin)"}}, {"type": "node", "id": 695831689, "lat": 52.4894386, "lon": 13.3122082, "tags": {"addr:city": "Berlin", "addr:country": "DE", "addr:housenumber": "177", "addr:postcode": "10713", "addr:street": "Hohenzollerndamm", "addr:suburb": "Wilmersdorf", "amenity": "theatre", "capacity": "80", "name": "Theater Coupé", "operator": "Künstlerkolonie Berin e.V.", "phone": "+49 30 9029 16706", "theatre:type": "stage", "website": "https://www.berlin.de/ba-charlottenburg-wilmersdorf/verwaltung/kultur/theater-coup/", "wheelchair": "limited"}}, {"type": "node", "id": 735151601, "lat": 52.4937535, "lon": 13.3876511, "tags": {"addr:city": "Berlin", "addr:country": "DE", "addr:housenumber": "34", "addr:postcode": "10961", "addr:street": "Mehringdamm", "addr:suburb": "Kreuzberg", "alt_name": "Berliner Kabarett Anstalt", "amenity": "theatre", "contact:email": "info@bka-theater.de", "contact:fax": "+49 30 202200-51", "contact:phone": "+49 30 202200-7", "name": "BKA-Theater", "operator": "Die Theaterexperten gGmbH", "theatre:genre": "cabaret", "toilets:wheelchair": "yes", "website": "https://www.bka-theater.de/", "wheelchair": "limited", "wheelchair:description": "Dieser Ort hat eine Rampe, bitte vorher Bescheid sagen.", "wikidata": "Q821575", "wikimedia_commons": "Category:Berliner Kabarett Anstalt", "wikipedia": "de:Berliner Kabarett Anstalt"}}, {"type": "node", "id": 833111849, "lat": 52.5250687, "lon": 13.4025511, "tags": {"addr:city": "Berlin", "addr:country": "DE", "addr:housenumber": "10", "addr:postcode": "10178", "addr:street": "Sophienstraße", "addr:suburb": "Mitte", "amenity": "theatre", "contact:phone": "+49302833560", "contact:website": "http://www.puppentheater-firlefanz.de/", "name": "Puppentheater Firlefanz", "wheelchair": "limited"}}, {"type": "node", "id": 873444364, "lat": 52.5020031, "lon": 13.4213249, "tags": {"addr:city": "Berlin", "addr:country": "DE", "addr:housenumber": "27", "addr:postcode": "10997", "addr:street": "Naunynstraße", "addr:suburb": "Kreuzberg", "amenity": "theatre", "contact:phone": "+49 30 75453725", "contact:website": "http://www.ballhausnaunynstrasse.de/", "name": "Ballhaus Naunynstraße", "wikidata": "Q805250", "wikipedia": "de:Ballhaus Naunynstraße"}}, {"type": "node", "id": 873444370, "lat": 52.5016868, "lon": 13.420827, "tags": {"addr:city": "Berlin", "addr:country": "DE", "addr:postcode": "10997", "addr:suburb": "Kreuzberg", "amenity": "theatre", "contact:website": "http://www.hoftheater-kreuzberg.de/", "name": "Hoftheater Kreuzberg", "wheelchair": "limited"}}, {"type": "node", "id": 894765631, "lat": 52.4881467, "lon": 13.3678205, "tags": {"addr:city": "Berlin", "addr:country": "DE", "addr:housenumber": "13", "addr:postcode": "10829", "addr:street": "Monumentenstraße", "addr:suburb": "Schöneberg", "amenity": "theatre", "name": "AHA-Berlin e.V.", "website": "https://www.aha-berlin.de", "wheelchair": "limited"}}, {"type": "node", "id": 895507273, "lat": 52.5189862, "lon": 13.3959797, "tags": {"amenity": "theatre", "name": "Maxim Gorki Theater - Studio", "name:ru": "Студия Театра Максима Горького", "wheelchair": "yes"}}, {"type": "node", "id": 895509940, "lat": 52.529684, "lon": 13.3965478, "tags": {"amenity": "theatre", "name": "Acker Stadt Palast - Freie Bühne Mitte .eV", "website": "http://www.artfab.de/tisch/"}}, {"type": "node", "id": 899133792, "lat": 52.5654952, "lon": 13.401433, "tags": {"amenity": "theatre", "name": "Zimmer 16", "wheelchair": "yes", "wikidata": "Q47086388", "wikimedia_commons": "Category:Zimmer 16"}}, {"type": "node", "id": 910361469, "lat": 52.4770235, "lon": 13.4399161, "tags": {"addr:city": "Berlin", "addr:country": "DE", "addr:housenumber": "141", "addr:postcode": "12043", "addr:street": "Karl-Marx-Straße", "addr:suburb": "Neukölln", "amenity": "theatre", "contact:phone": "+49 30 56821333", "name": "Heimathafen Neukölln", "phone": "+49 30 56821333", "toilets:wheelchair": "yes", "website": "https://www.heimathafen-neukoelln.de/", "wheelchair": "limited", "wikidata": "Q23786339"}}, {"type": "node", "id": 910725856, "lat": 52.5043712, "lon": 13.3374894, "tags": {"addr:city": "Berlin", "addr:country": "DE", "addr:housename": "Europa-Center", "addr:housenumber": "9-12", "addr:postcode": "10789", "addr:street": "Tauentzienstraße", "addr:suburb": "Charlottenburg", "amenity": "theatre", "contact:email": "info@diestachelschweine.de", "contact:fax": "+49-30-2614774", "contact:phone": "+49-30-2615795", "contact:website": "http://www.diestachelschweine.de/", "level": "-1", "name": "Die Stachelschweine", "operator": "Berliner Literarisches Kabarett GmbH", "theatre:genre": "cabaret", "toilets:wheelchair": "yes", "wheelchair": "yes", "wikidata": "Q1216398", "wikimedia_commons": "Category:Die Stachelschweine", "wikipedia": "de:Die Stachelschweine"}}, {"type": "node", "id": 945390395, "lat": 52.5354834, "lon": 13.2025072, "tags": {"amenity": "theatre", "name": "Theatersaal des Kulturhauses Spandau"}}, {"type": "node", "id": 945402693, "lat": 52.5525607, "lon": 13.4307318, "tags": {"addr:city": "Berlin", "addr:country": "DE", "addr:housenumber": "1", "addr:place": "Caligariplatz", "addr:postcode": "13086", "addr:suburb": "Weißensee", "amenity": "theatre", "name": "BrotfabrikBühne", "wheelchair": "no"}}, {"type": "node", "id": 946790935, "lat": 52.441939, "lon": 13.2974764, "tags": {"addr:city": "Berlin", "addr:country": "DE", "addr:housenumber": "49", "addr:postcode": "12205", "addr:street": "Drakestraße", "addr:suburb": "Lichterfelde", "amenity": "theatre", "contact:email": "info@theater-lichterfelde.de", "contact:phone": "+49 30 84314646", "description": "Kindertheater", "name": "Theater Lichterfelde", "operator": "Hans-Hermann Keune", "owner": "Maria Berger und Hans-Hermann Keune GbR", "website": "http://www.theater-lichterfelde.de/"}}, {"type": "node", "id": 977686791, "lat": 52.4919181, "lon": 13.3882686, "tags": {"addr:city": "Berlin", "addr:country": "DE", "addr:housenumber": "2a", "addr:postcode": "10961", "addr:street": "Gneisenaustraße", "addr:suburb": "Kreuzberg", "amenity": "theatre", "contact:email": "mehringhof@ipn.de", "contact:phone": "+49 30 6918021", "identity": "commons;solidarity_economy", "name": "Mehringhof Theater", "phone": "+49306915099", "provides": "culture", "source": "Solikon 2015", "topic": "culture", "website": "https://www.mehringhoftheater.de/", "wheelchair": "limited"}}, {"type": "node", "id": 1096182603, "lat": 52.516541, "lon": 13.40783, "tags": {"amenity": "theatre", "name": "Theater im Nikolaiviertel", "website": "http://www.theater-im-nikolaiviertel.de/"}}, {"type": "node", "id": 1154118481, "lat": 52.4667595, "lon": 13.3213047, "tags": {"addr:city": "Berlin", "addr:country": "DE", "addr:housenumber": "17", "addr:postcode": "12163", "addr:street": "Bornstraße", "addr:suburb": "Steglitz", "amenity": "theatre", "contact:phone": "+49 30 25058078", "contact:website": "http://www.zimmertheater-steglitz.de/", "name": "Zimmertheater Steglitz", "wheelchair": "limited"}}, {"type": "node", "id": 1158225994, "lat": 52.5430767, "lon": 13.4149784, "tags": {"addr:city": "Berlin", "addr:country": "DE", "addr:housenumber": "15", "addr:postcode": "10437", "addr:street": "Pappelallee", "addr:suburb": "Prenzlauer Berg", "amenity": "theatre", "contact:email": "info@ballhausost.de", "contact:phone": "+49 30 44049250", "contact:website": "https://www.ballhausost.de/", "name": "Ballhaus Ost", "wheelchair": "limited", "wikidata": "Q805249", "wikipedia": "de:Ballhaus Ost"}}, {"type": "node", "id": 1175152683, "lat": 52.4911319, "lon": 13.4249827, "tags": {"amenity": "theatre", "name": "Wohnzimmerclub", "wheelchair": "limited"}}, {"type": "node", "id": 1187935417, "lat": 52.5166443, "lon": 13.4508437, "tags": {"amenity": "theatre", "name": "Berliner Schnauze", "website": "https://www.berliner-schnauze-theater.com/", "wheelchair": "no"}}, {"type": "node", "id": 1226781760, "lat": 52.5119023, "lon": 13.295502, "tags": {"addr:city": "Berlin", "addr:country": "DE", "addr:housenumber": "3", "addr:postcode": "14059", "addr:street": "Horstweg", "addr:suburb": "Charlottenburg", "amenity": "theatre", "name": "Zauberlounge", "website": "https://www.zauberlounge.de/"}}, {"type": "node", "id": 1246340370, "lat": 52.4873295, "lon": 13.3881082, "tags": {"addr:city": "Berlin", "addr:country": "DE", "addr:housenumber": "40", "addr:postcode": "10965", "addr:street": "Fidicinstraße", "addr:suburb": "Kreuzberg", "amenity": "theatre", "contact:email": "tickets@etberlin.de", "contact:fax": "+49 30 69504727", "contact:phone": "+49 30 6911211", "name": "F40 - English Theatre Berlin", "toilets:wheelchair": "yes", "website": "https://www.etberlin.de/", "wheelchair": "limited", "wikidata": "Q1342860", "wikimedia_commons": "Category:English Theatre Berlin", "wikipedia": "de:English Theatre Berlin"}}, {"type": "node", "id": 1246402201, "lat": 52.5247268, "lon": 13.4651975, "tags": {"addr:city": "Berlin", "addr:country": "DE", "addr:housenumber": "207", "addr:postcode": "10369", "addr:street": "Storkower Str", "addr:suburb": "Lichtenberg", "amenity": "theatre", "contact:email": "pupp@das-weite-theater.de", "contact:fax": "+49 30 9917827", "contact:phone": "+49 30 9917927", "contact:website": "http://www.das-weite-theater.de/", "description": "Das Weite Theater spielt momentan an seinem Inerrimsspielort direkt am S- Bhf Storkower Str.", "name": "Das Weite Theater", "operator": "Das Weite Theater e.V.", "phone": "030/9917927", "theatre:genre": "puppet", "website": "www.das-weite-theater.de", "wheelchair": "yes"}}, {"type": "node", "id": 1246402202, "lat": 52.5118136, "lon": 13.4487808, "tags": {"addr:city": "Berlin", "addr:country": "DE", "addr:housenumber": "45", "addr:postcode": "10243", "addr:street": "Gubener Straße", "addr:suburb": "Friedrichshain", "amenity": "theatre", "contact:email": "theater@niva.de", "contact:phone": "+49 30 293 50 461", "contact:website": "http://www.theater-der-kleinen-form.de", "description": "Figurentheater und Puppentheater in Berlin", "name": "Theater der kleinen Form", "operator": "KiT - Kinder im Theater e.V.", "theatre:genre": "puppet", "wheelchair": "no"}}, {"type": "node", "id": 1246402203, "lat": 52.4919756, "lon": 13.3645476, "tags": {"addr:city": "Berlin", "addr:country": "DE", "addr:housenumber": "20a", "addr:postcode": "10783", "addr:street": "Kulmer Straße", "addr:suburb": "Schöneberg", "amenity": "theatre", "contact:phone": "+49 30 37447808", "name": "Theater O-TonArt", "operator": "Art aller Art e.V.", "website": "https://www.o-tonart.de/"}}, {"type": "node", "id": 1246402205, "lat": 52.5349848, "lon": 13.4162235, "tags": {"addr:city": "Berlin", "addr:country": "DE", "addr:housenumber": "53", "addr:postcode": "10405", "addr:street": "Kollwitzstraße", "addr:suburb": "Prenzlauer Berg", "alt_name": "Theater ohne Namen", "amenity": "theatre", "contact:email": "info@theater-on.de", "contact:phone": "+49 30 4409214", "contact:website": "https://www.theater-on.de/", "name": "Theater o.N.", "operator": "Theater o.N. e.V.", "wheelchair": "no"}}, {"type": "node", "id": 1246402206, "lat": 52.5318164, "lon": 13.418434, "tags": {"addr:city": "Berlin", "addr:country": "DE", "addr:housenumber": "15", "addr:postcode": "10405", "addr:street": "Belforter Straße", "addr:suburb": "Prenzlauer Berg", "amenity": "theatre", "contact:email": "karten@bat-berlin.de", "contact:phone": "+49 30 755417-777", "name": "bat-Studiotheater", "toilets:wheelchair": "yes", "website": "https://www.bat-berlin.de/", "wheelchair": "yes", "wikidata": "Q47088861", "wikimedia_commons": "Category:Bat-Studiotheater"}}, {"type": "node", "id": 1246402207, "lat": 52.497339, "lon": 13.3856884, "tags": {"addr:city": "Berlin", "addr:country": "DE", "addr:housenumber": "10", "addr:postcode": "10963", "addr:street": "Tempelhofer Ufer", "addr:suburb": "Kreuzberg", "amenity": "theatre", "contact:email": "info@hebbel-am-ufer.de", "contact:fax": "+49 30 25900413", "contact:phone": "+49 30 25900427", "contact:website": "http://www.hebbel-am-ufer.de/", "name": "HAU 3 (Hebbel am Ufer)", "old_name": "Theater am Ufer", "wheelchair": "no", "wikidata": "Q1592694", "wikimedia_commons": "Category:HEBBEL AM UFER", "wikipedia": "de:Hebbel am Ufer"}}, {"type": "node", "id": 1246402211, "lat": 52.5098099, "lon": 13.3290202, "tags": {"addr:city": "Berlin", "addr:country": "DE", "addr:housenumber": "1b", "addr:postcode": "10623", "addr:street": "Fasanenstraße", "addr:suburb": "Charlottenburg", "alt_name": "UNI.T - Theater der Universität der Künste Berlin", "amenity": "theatre", "contact:email": "unitheater@gmail.com", "contact:phone": "+49 30 3185-2678", "contact:website": "http://www.udk-berlin.de/sites/unit/", "name": "UNI.T - Theater der UdK Berlin", "wheelchair": "no"}}, {"type": "node", "id": 1256737686, "lat": 52.4925187, "lon": 13.4162666, "tags": {"amenity": "theatre", "name": "Kleinkunstkeller", "theatre:genre": "cabaret", "toilets:wheelchair": "no", "website": "http://www.kabarett-mueckenstich-berlin.de/", "wheelchair": "no"}}, {"type": "node", "id": 1263355907, "lat": 52.5434945, "lon": 13.3633056, "tags": {"addr:city": "Berlin", "addr:country": "DE", "addr:housenumber": "163", "addr:postcode": "13353", "addr:street": "Müllerstraße", "addr:suburb": "Wedding", "amenity": "theatre", "contact:facebook": "https://www.facebook.com/primetimetheater", "contact:instagram": "https://www.instagram.com/primetimetheater/", "name": "Prime Time Theater", "phone": "+49 30 49907958", "ref:vatin": "DE325406180", "toilets:wheelchair": "no", "website": "https://www.primetimetheater.de/", "wheelchair": "yes", "wikidata": "Q1370685", "wikimedia_commons": "Category:Prime Time Theater", "wikipedia": "de:Prime Time Theater"}}, {"type": "node", "id": 1289390673, "lat": 52.4860391, "lon": 13.4319584, "tags": {"amenity": "theatre", "culture": "kleinkunst", "name": "Die Musenstube", "theatre:genre": "cabaret", "website": "http://www.musenstube.de/"}}, {"type": "node", "id": 1303363193, "lat": 52.48842, "lon": 13.4277627, "tags": {"addr:city": "Berlin", "addr:country": "DE", "addr:housenumber": "211", "addr:postcode": "12047", "addr:street": "Weserstraße", "addr:suburb": "Neukölln", "amenity": "theatre", "name": "Theater im Keller", "phone": "+49306231452", "theatre:genre": "variety", "website": "http://www.tikberlin.de", "wheelchair": "no", "wikidata": "Q2416128", "wikipedia": "de:Theater im Keller Berlin"}}, {"type": "node", "id": 1336883756, "lat": 52.5072208, "lon": 13.3721193, "tags": {"addr:city": "Berlin", "addr:country": "DE", "addr:housenumber": "1", "addr:postcode": "10785", "addr:street": "Marlene-Dietrich-Platz", "addr:suburb": "Tiergarten", "alt_name": "Berlinale Palast", "amenity": "theatre", "name": "Stage Theater am Potsdamer Platz", "operator": "Stage Entertainment Germany GmbH", "phone": "+49 30 259290", "theatre:type": "stage", "wheelchair": "yes", "wikidata": "Q328706", "wikimedia_commons": "Category:Theater am Potsdamer Platz", "wikipedia": "de:Theater am Potsdamer Platz"}}, {"type": "node", "id": 1336890158, "lat": 52.4967578, "lon": 13.4214048, "tags": {"amenity": "theatre", "name": "Dancetheater LaborGRAS.com", "source": "www.laborgras.com"}}, {"type": "node", "id": 1445221277, "lat": 52.524275, "lon": 13.3813992, "tags": {"addr:city": "Berlin", "addr:country": "DE", "addr:housenumber": "14a", "addr:postcode": "10117", "addr:street": "Schumannstraße", "addr:suburb": "Mitte", "amenity": "theatre", "contact:email": "service@deutschestheater.de", "contact:fax": "+49 30 2824117", "contact:phone": "+49 30 28441221", "contact:website": "https://www.deutschestheater.de/", "name": "Kammerspiele", "toilets:wheelchair": "yes", "wheelchair": "yes", "wikidata": "Q703955", "wikimedia_commons": "Category:Deutsches Theater Berlin", "wikipedia": "de:Deutsches Theater (Berlin)"}}, {"type": "node", "id": 1457124704, "lat": 52.5190141, "lon": 13.3950767, "tags": {"addr:city": "Berlin", "addr:country": "DE", "addr:housenumber": "2", "addr:postcode": "10117", "addr:street": "Am Festungsgraben", "addr:suburb": "Mitte", "amenity": "theatre", "contact:email": "kontakt@gorki.de", "contact:phone": "+49 30 202210", "contact:website": "https://www.gorki.de/", "name": "Maxim-Gorki-Theater", "name:en": "Maxim Gorky Theatre", "name:ru": "Театр Максима Горького", "old_name": "Singakademie", "theatre:genre": "drama", "wheelchair": "limited", "wikidata": "Q460259", "wikipedia": "de:Maxim-Gorki-Theater"}}, {"type": "node", "id": 1486087544, "lat": 52.5514416, "lon": 13.4183206, "tags": {"addr:city": "Berlin", "addr:country": "DE", "addr:housenumber": "27", "addr:postcode": "10439", "addr:street": "Erich-Weinert-Straße", "addr:suburb": "Prenzlauer Berg", "amenity": "theatre", "contact:facebook": "BuehnenRausch", "contact:instagram": "buehnenrausch", "contact:phone": "+493044673264", "name": "BühnenRausch", "website": "https://buehnenrausch.de/", "wheelchair": "no"}}, {"type": "node", "id": 1737242128, "lat": 52.5713652, "lon": 13.5682593, "tags": {"addr:city": "Berlin", "addr:housenumber": "410", "addr:postcode": "12689", "addr:street": "Märkische Allee", "amenity": "theatre", "image": "http://i.imgur.com/MB5Gnl.jpg", "name": "Berliner Tschechow Theater", "source": "Garmin Oregon 550", "wheelchair": "yes", "wikidata": "Q107136976", "wikimedia_commons": "File:Berliner Tschechow-Theater.jpg"}}, {"type": "node", "id": 1739006720, "lat": 52.4941597, "lon": 13.3267044, "tags": {"amenity": "theatre", "name": "Theater unterm Turm", "theatre:genre": "drama", "website": "http://theateruntermturm.de/"}}, {"type": "node", "id": 1746712005, "lat": 52.5033188, "lon": 13.3479976, "tags": {"addr:city": "Berlin", "addr:housenumber": "116", "addr:postcode": "10787", "addr:street": "Kurfürstenstraße", "amenity": "theatre", "email": "info@kleine-nachtrevue.de", "name": "Kleine Nachtrevue", "operator": "Sylvia Schmid", "phone": "+49302188950", "theatre:genre": "burlesque", "website": "https://www.kleine-nachtrevue.de/", "wheelchair": "no"}}, {"type": "node", "id": 1871854816, "lat": 52.5016098, "lon": 13.381181, "tags": {"addr:city": "Berlin", "addr:country": "DE", "addr:housenumber": "10", "addr:postcode": "10963", "addr:street": "Möckernstraße", "addr:suburb": "Kreuzberg", "amenity": "theatre", "contact:facebook": "https://www.facebook.com/tempodrom", "contact:instagram": "https://www.instagram.com/tempodromberlin/", "contact:linkedin": "https://www.linkedin.com/company/tempodrom-berlin/", "email": "info@tempodrom.de", "name": "Tempodrom", "operator": "Tempodrom Betriebsgesellschaft mbH & Co. KG", "phone": "+49 30 747370", "theatre:type": "amphi", "toilets:wheelchair": "yes", "website": "https://www.tempodrom.de/", "wheelchair": "yes", "wheelchair:description": "Behindertenparkplatz auf Gelände, Fahrstuhl", "wikidata": "Q896180", "wikimedia_commons": "Category:Tempodrom", "wikipedia": "de:Tempodrom"}}, {"type": "node", "id": 1945796840, "lat": 52.5298014, "lon": 13.410003, "tags": {"addr:city": "Berlin", "addr:country": "DE", "addr:housenumber": "184", "addr:postcode": "10119", "addr:street": "Schönhauser Allee", "addr:suburb": "Prenzlauer Berg", "amenity": "theatre", "contact:phone": "+4930 48623186", "contact:website": "http://www.comedyclub.de/berlin/start.php", "name": "Kookaburra Comedy Club", "wheelchair": "limited", "wikidata": "Q1114046", "wikipedia": "de:Comedy Club Kookaburra"}}, {"type": "node", "id": 1948871674, "lat": 52.5182934, "lon": 13.2899708, "tags": {"addr:city": "Berlin", "addr:country": "DE", "addr:housenumber": "19", "addr:postcode": "14059", "addr:street": "Klausenerplatz", "addr:suburb": "Charlottenburg", "amenity": "theatre", "contact:website": "http://www.freietheateranstalten.de", "name": "Freie Theateranstalten Berlin", "wheelchair": "limited"}}, {"type": "node", "id": 2093602596, "lat": 52.5342712, "lon": 13.3595034, "tags": {"addr:city": "Berlin", "addr:housenumber": "35", "addr:postcode": "10557", "addr:street": "Lehrter Straße", "amenity": "theatre", "internet_access": "wlan", "level": "2", "name": "Fabriktheater", "operator": "FABRIKTHEATER MOABIT e.V.", "toilets:wheelchair": "no", "website": "www.fabrik.theater", "wheelchair": "no"}}, {"type": "node", "id": 2395299465, "lat": 52.5205352, "lon": 13.3586326, "tags": {"addr:city": "Berlin", "addr:country": "DE", "addr:housenumber": "372", "addr:place": "Stadtbahnbogen", "addr:postcode": "10557", "addr:suburb": "Moabit", "amenity": "theatre", "entrance": "yes", "name": "Theater Artenschutz", "website": "https://www.artenschutztheater.de/", "wheelchair": "no"}}, {"type": "node", "id": 2424327231, "lat": 52.4744133, "lon": 13.6000868, "tags": {"amenity": "theatre", "name": "Kabarett Knieriem", "wheelchair": "no"}}, {"type": "node", "id": 2488873131, "lat": 52.487038, "lon": 13.376389, "tags": {"addr:city": "Berlin", "addr:country": "DE", "addr:housenumber": "19", "addr:postcode": "10965", "addr:street": "Katzbachstraße", "amenity": "theatre", "name": "Garn Theater", "operator": "Adolfo Assor", "website": "http://www.garn-theater.de", "wikidata": "Q1494339", "wikipedia": "de:Garn-Theater"}}, {"type": "node", "id": 2627106420, "lat": 52.527024, "lon": 13.4119171, "tags": {"addr:city": "Berlin", "addr:country": "DE", "addr:housenumber": "227", "addr:postcode": "10178", "addr:street": "Linienstraße", "addr:suburb": "Mitte", "amenity": "theatre", "contact:phone": "+49 30 24065777", "contact:website": "http://www.volksbuehne-berlin.de/", "internet_access": "wlan", "internet_access:fee": "no", "loc_name": "Volksbühne", "name": "Volksbühne am Rosa-Luxemburg-Platz", "short_name": "Volksbühne", "toilets:wheelchair": "yes", "wheelchair": "limited", "wikidata": "Q617244", "wikipedia": "de:Volksbühne Berlin"}}, {"type": "node", "id": 2649739384, "lat": 52.4824948, "lon": 13.4306601, "tags": {"addr:city": "Berlin", "addr:country": "DE", "addr:housenumber": "58", "addr:postcode": "12043", "addr:street": "Karl-Marx-Straße", "amenity": "theatre", "name": "Keller", "website": "http://keller-label.de/"}}, {"type": "node", "id": 2715760752, "lat": 52.5133026, "lon": 13.307806, "tags": {"amenity": "theatre", "check_date": "2023-04-09", "name": "Tischlerei", "theatre:genre": "variety", "website": "https://deutscheoperberlin.de/de_DE/home-tischlerei"}}, {"type": "node", "id": 2733888748, "lat": 52.5161677, "lon": 13.4422678, "tags": {"amenity": "theatre", "name": "Studiobühne", "toilets:wheelchair": "yes", "wheelchair": "yes"}}, {"type": "node", "id": 2763752659, "lat": 52.540836, "lon": 13.4389797, "tags": {"addr:city": "Berlin", "addr:country": "DE", "addr:housenumber": "81-84", "addr:postcode": "10405", "addr:street": "Greifswalder Straße", "addr:suburb": "Prenzlauer Berg", "amenity": "theatre", "contact:email": "info@schaubude-berlin.de", "fax": "+49 30 423 43 10", "name": "Schaubude Berlin", "phone": "+49 30 4234314", "website": "http://www.schaubude-berlin.de", "wheelchair": "limited", "wikidata": "Q43061296"}}, {"type": "node", "id": 2781293656, "lat": 52.4249086, "lon": 13.2050769, "tags": {"addr:city": "Berlin", "addr:country": "DE", "addr:housenumber": "6", "addr:postcode": "14129", "addr:street": "Kirchweg", "addr:suburb": "Nikolassee", "amenity": "theatre", "name": "Theater Nikolassee", "website": "https://www.theaternikolassee.de/"}}, {"type": "node", "id": 2877333455, "lat": 52.4523699, "lon": 13.2894916, "tags": {"amenity": "theatre", "name": "Theaterhof"}}, {"type": "node", "id": 2878820301, "lat": 52.5347918, "lon": 13.4249436, "tags": {"addr:city": "Berlin", "addr:country": "DE", "addr:housenumber": "39", "addr:postcode": "10405", "addr:street": "Marienburger Straße", "addr:suburb": "Prenzlauer Berg", "amenity": "theatre", "check_date": "2023-01-08", "email": "prenzlkasper@gmail.com", "level": "0", "name": "Prenzlkasper", "phone": "+49 30 21791060", "website": "https://www.prenzlkasper.de/", "wheelchair": "limited", "wheelchair:description": "ziemlich steile Rampe, Toilette geht irgendwie, ziemlich schmal"}}, {"type": "node", "id": 2886633616, "lat": 52.5390911, "lon": 13.2050154, "tags": {"amenity": "theatre", "name": "Spandauer Theater Varianta", "phone": "+49 (0)30 3339695"}}, {"type": "node", "id": 2891401081, "lat": 52.5918975, "lon": 13.2835311, "tags": {"addr:city": "Berlin", "addr:country": "DE", "addr:housenumber": "9", "addr:postcode": "13507", "addr:street": "Schloßstraße", "addr:suburb": "Tegel", "amenity": "theatre", "name": "Kulturversteck Tegel", "source": "Geoportal Berlin / Hauskoordinaten"}}, {"type": "node", "id": 2918303868, "lat": 52.47268, "lon": 13.2698924, "tags": {"amenity": "theatre", "name": "Freilichtbühne"}}, {"type": "node", "id": 3116790122, "lat": 52.5078995, "lon": 13.372025, "tags": {"addr:city": "Berlin", "addr:country": "DE", "addr:housenumber": "1", "addr:postcode": "10785", "addr:street": "Marlene-Dietrich-Platz", "addr:suburb": "Tiergarten", "amenity": "theatre", "entrance": "yes", "name": "Sternberg - Theater in der Spielbank", "phone": "+4930255990", "website": "https://www.spielbank-berlin.de/sternberg"}}, {"type": "node", "id": 3312400192, "lat": 52.5167042, "lon": 13.302854, "tags": {"addr:city": "Berlin", "addr:country": "DE", "addr:housenumber": "2", "addr:postcode": "10585", "addr:street": "Gierkeplatz", "addr:suburb": "Charlottenburg", "amenity": "theatre", "contact:website": "https://www.puppentheater-berlin.de/", "name": "Puppentheater Berlin", "theatre:type": "puppet_theatre", "wheelchair": "no"}}, {"type": "node", "id": 3464946992, "lat": 52.5505948, "lon": 13.4120357, "tags": {"addr:city": "Berlin", "addr:country": "DE", "addr:housenumber": "45", "addr:postcode": "10439", "addr:street": "Schivelbeiner Straße", "addr:suburb": "Prenzlauer Berg", "amenity": "theatre", "name": "Puppentheater Felicio", "website": "http://www.felicio.de/"}}, {"type": "node", "id": 3487575693, "lat": 52.500295, "lon": 13.3017312, "tags": {"addr:city": "Berlin", "addr:country": "DE", "addr:housenumber": "7", "addr:postcode": "10629", "addr:street": "Roscherstraße", "addr:suburb": "Charlottenburg", "amenity": "theatre", "name": "Zaubertheater Igor Jedlin", "phone": "+49 30 3233777", "theatre:genre": "magic", "website": "https://www.zaubertheater.de/"}}, {"type": "node", "id": 3716477056, "lat": 52.5039194, "lon": 13.2939896, "tags": {"addr:city": "Berlin", "addr:country": "DE", "addr:housenumber": "29", "addr:postcode": "14057", "addr:street": "Friedbergstraße", "addr:suburb": "Charlottenburg", "amenity": "theatre", "contact:phone": "+49 30 81863695", "name": "Spiegelsalon", "note": "Geprüft am 25./26. Dez 2015", "opening_hours": "Th-Sa 16:00-19:00"}}, {"type": "node", "id": 3763639067, "lat": 52.4782137, "lon": 13.4430391, "tags": {"addr:city": "Berlin", "addr:country": "DE", "addr:housenumber": "79", "addr:postcode": "12043", "addr:street": "Donaustraße", "amenity": "theatre", "club": "yes", "contact:email": "kkwm@ida-nowhere.com", "contact:phone": "+49 163 4921813", "contact:website": "http://www.ida-nowhere.com", "description": "offener Raum, als selbstverwaltetes Kollektiv", "diet:vegan": "yes", "diet:vegetarian": "only", "fee": "no", "identity": "demonetized_economy;commons", "mode_of_organisation:purpose": "non_profit", "mode_of_organisation:self_managed": "yes", "name": "Ida Nowhere", "opening_hours": "Sa 18:00+", "operator": "eiliges Kanonenohr e.V.", "provides": "food+drink;culture;spaces", "source": "Solikon 2015"}}, {"type": "node", "id": 3837620170, "lat": 52.5021802, "lon": 13.364582, "tags": {"addr:city": "Berlin", "addr:country": "DE", "addr:housenumber": "96", "addr:postcode": "10785", "addr:street": "Potsdamer Straße", "addr:suburb": "Tiergarten", "amenity": "theatre", "name": "Wintergarten Varieté", "phone": "+4930588433", "theatre:genre": "variety", "toilets:wheelchair": "yes", "website": "https://www.wintergarten-berlin.de/", "wheelchair": "yes", "wheelchair:description": "Eine Stufe am Eingang. Diese wird mit Hilfe des Abenddienstes und einer variablen Rampe überbrückt.", "wikidata": "Q116318835"}}, {"type": "node", "id": 3925275757, "lat": 52.531674, "lon": 13.411322, "tags": {"addr:city": "Berlin", "addr:country": "DE", "addr:housenumber": "176", "addr:postcode": "10119", "addr:street": "Schönhauser Allee", "addr:suburb": "Prenzlauer Berg", "amenity": "theatre", "contact:website": "https://pfefferberg-theater.de", "name": "Pfefferberg Theater", "wheelchair": "yes", "wikidata": "Q2083439", "wikimedia_commons": "Category:Pfefferberg", "wikipedia": "de:Pfefferberg (Berlin)"}}, {"type": "node", "id": 4065074489, "lat": 52.4897927, "lon": 13.4222385, "tags": {"addr:city": "Berlin", "addr:housenumber": "100", "addr:postcode": "10967", "addr:street": "Urbanstraße", "amenity": "theatre", "name": "Fliegendes Theater", "phone": "+49 30 6922100", "toilets:wheelchair": "no", "website": "https://fliegendes-theater.de/", "wheelchair": "yes"}}, {"type": "node", "id": 4151694509, "lat": 52.4737355, "lon": 13.4490623, "tags": {"amenity": "theatre", "contact:website": "http://www.volkart.eu/", "name": "Kaspertheater Rixdorf", "phone": "+49 30 26378812", "theatre:genre": "puppet"}}, {"type": "node", "id": 4217051191, "lat": 52.5131377, "lon": 13.4094134, "tags": {"addr:postcode": "10179", "amenity": "theatre", "contact:email": "kontakt@kreativhaus-tpz.de", "contact:phone": "+49 30 2380913", "contact:website": "http://kreativhaus-berlin.de", "name": "Kreativhaus e.V.", "toilets:wheelchair": "no", "wheelchair": "limited"}}, {"type": "node", "id": 4243480894, "lat": 52.5057161, "lon": 13.4667402, "tags": {"addr:city": "Berlin", "addr:housenumber": "8", "addr:postcode": "10245", "addr:street": "Sonntagstraße", "amenity": "theatre", "email": "info@zebrano-theater.de", "name": "Zebrano-Theater", "phone": "+4930 29049411", "theatre:genre": "variety", "website": "https://www.zebrano-theater.de/", "wheelchair": "limited", "wikidata": "Q24619306", "wikipedia": "de:Zebrano-Theater"}}, {"type": "node", "id": 4398530368, "lat": 52.5017766, "lon": 13.4112804, "tags": {"addr:city": "Berlin", "addr:housenumber": "12-14", "addr:postcode": "10969", "addr:street": "Ritterstraße", "amenity": "theatre", "description": "Schule für die darstellenden und bildenden Künste", "name": "Die Etage", "office": "educational_institution", "theatre:genre": "musical", "theatre:genre_1": "dance"}}, {"type": "node", "id": 4456147960, "lat": 52.5519035, "lon": 13.4311632, "tags": {"addr:city": "Berlin", "addr:country": "DE", "addr:housenumber": "2", "addr:postcode": "13086", "addr:street": "Gustav-Adolf-Straße", "addr:suburb": "Weißensee", "amenity": "theatre", "contact:website": "https://theater-im-delphi.de", "name": "Theater im Delphi", "old_name": "Stummfilmkino Delphi", "wheelchair": "no", "wikidata": "Q1299542", "wikimedia_commons": "Category:Kino Delphi (Berlin-Weißensee)", "wikipedia": "de:Kino Delphi (Berlin-Weißensee)"}}, {"type": "node", "id": 4465297306, "lat": 52.4897764, "lon": 13.3933683, "tags": {"amenity": "theatre", "name": "Theater im Bergmannkiez", "phone": "+49 30 95597189", "website": "https://theaterimbergmannkiez.de"}}, {"type": "node", "id": 4508022333, "lat": 52.5258054, "lon": 13.3943591, "tags": {"addr:city": "Berlin", "addr:country": "DE", "addr:housenumber": "32", "addr:postcode": "10117", "addr:street": "Oranienburger Straße", "amenity": "theatre", "email": "berlin@galli.de", "name": "Galli Theater Berlin", "phone": "+49 30 27596971", "website": "https://galli-berlin.de/", "wheelchair": "limited"}}, {"type": "node", "id": 4716921527, "lat": 52.5154359, "lon": 13.3963671, "tags": {"addr:city": "Berlin", "addr:housenumber": "33d", "addr:postcode": "10117", "addr:street": "Französische Straße", "amenity": "theatre", "name": "Pierre Boulez Saal", "theatre:genre": "philharmonic", "theatre:type": "concert_hall", "website": "https://boulezsaal.de", "wheelchair": "yes", "wikidata": "Q28870831"}}, {"type": "node", "id": 4745230362, "lat": 52.502379, "lon": 13.3499315, "tags": {"amenity": "theatre", "name": "Russische Bühne", "name:ru": "Русская сцена", "website": "https://www.russische-buehne.de/", "wheelchair": "yes"}}, {"type": "node", "id": 4831523454, "lat": 52.5662041, "lon": 13.3965864, "tags": {"addr:city": "Berlin", "addr:housenumber": "112", "addr:postcode": "13187", "addr:street": "Wollankstraße", "amenity": "theatre", "name": "Theater BOKA", "wheelchair": "limited"}}, {"type": "node", "id": 4946716108, "lat": 52.5076794, "lon": 13.4540503, "tags": {"addr:housenumber": "99", "addr:street": "Revaler Straße", "amenity": "theatre", "name": "Zirkus Zack", "operator": "Vuesch gGmbH", "theatre:genre": "circus", "website": "https://vuesch.org/zack/"}}, {"type": "node", "id": 4948140225, "lat": 52.4716475, "lon": 13.307745, "tags": {"addr:housenumber": "30", "addr:street": "Schlangenbader Straße", "amenity": "theatre", "name": "Jaro Theater", "toilets:wheelchair": "no", "wheelchair": "yes"}}, {"type": "node", "id": 5140754521, "lat": 52.5515969, "lon": 13.3739474, "tags": {"addr:city": "Berlin", "addr:housenumber": "8", "addr:postcode": "13357", "addr:street": "Uferstraße", "alternative:amenity": "concert_hall", "amenity": "theatre", "description": "Veranstaltungsort für Klassische Musik", "name": "Piano Salon Christophori", "theatre:genre": "chamber_music", "toilets:wheelchair": "yes", "website": "https://www.konzertfluegel.com", "wheelchair": "yes"}}, {"type": "node", "id": 5249079050, "lat": 52.5490912, "lon": 13.4040123, "tags": {"amenity": "theatre", "description": "Tanz, Konzerte, Lesungen, offene Bühne", "email": "hausdersinne@yahoo.com", "name": "Haus der Sinne", "operator": "SchaukelSofaSündikat e.V.", "operator:type": "cooperative", "website": "https://hausdersinne-berlin.de/"}}, {"type": "node", "id": 5249346659, "lat": 52.5175993, "lon": 13.4119798, "tags": {"addr:city": "Berlin", "addr:country": "DE", "addr:housenumber": "44", "addr:postcode": "10179", "addr:street": "Klosterstraße", "addr:suburb": "Mitte", "amenity": "theatre", "contact:phone": "+49 30 28093062", "contact:website": "https://td.berlin", "email": "info@td.berlin", "level": "2", "name": "TD Berlin", "theatre:genre": "drama", "wikidata": "Q1326666", "wikimedia_commons": "Category:Theaterdiscounter"}}, {"type": "node", "id": 6274128110, "lat": 52.5100723, "lon": 13.325568, "tags": {"addr:city": "Berlin", "addr:housenumber": "35", "addr:postcode": "10623", "addr:street": "Hardenbergstraße", "amenity": "theatre", "name": "Freiraum - Veranstaltungssaal", "operator": "Kulturbüro studierendenWERK BERLIN", "website": "https://www.stw.berlin/kultur/kulturthemen/freiraum.html"}}, {"type": "node", "id": 6306436221, "lat": 52.5577738, "lon": 13.3864077, "tags": {"addr:city": "Berlin", "addr:country": "DE", "addr:housenumber": "33", "addr:postcode": "13359", "addr:street": "Prinzenallee", "addr:suburb": "Gesundbrunnen", "amenity": "theatre", "name": "Ballhaus Prinzenallee", "operator": "Interkulturell Aktiv e.V."}}, {"type": "node", "id": 6352638453, "lat": 52.4452074, "lon": 13.5744674, "tags": {"addr:city": "Berlin", "addr:housenumber": "31", "addr:postcode": "12555", "addr:street": "Alt-Köpenick", "amenity": "theatre", "email": "info@schlossplatztheater.de", "name": "Schlossplatztheater", "phone": "+49 30 6516516", "website": "https://schlossplatztheater.de", "wikidata": "Q35010272"}}, {"type": "node", "id": 6512247318, "lat": 52.5221046, "lon": 13.3052748, "tags": {"amenity": "theatre", "name": "Globe Theater Berlin", "operator": "GLOBE Berlin Theater gGmbH", "website": "https://globe.berlin"}}, {"type": "node", "id": 6946245046, "lat": 52.5312654, "lon": 13.3295679, "tags": {"addr:city": "Berlin", "addr:country": "DE", "addr:housenumber": "32", "addr:postcode": "10551", "addr:street": "Wiclefstraße", "addr:suburb": "Moabit", "amenity": "theatre", "name": "Theater X", "operator": "Initiative Grenzen-los! e. V. Verein für emanzipative Bildung und kulturelle Aktion", "website": "https://www.theater-x.com/", "wheelchair": "limited"}}, {"type": "node", "id": 7077883098, "lat": 52.506926, "lon": 13.3733397, "tags": {"addr:city": "Berlin", "addr:country": "DE", "addr:housenumber": "4", "addr:postcode": "10785", "addr:street": "Marlene-Dietrich-Platz", "addr:suburb": "Tiergarten", "amenity": "theatre", "name": "Stage Bluemax Theater", "operator": "Stage Entertainment Germany GmbH", "toilets:wheelchair": "yes", "website": "https://www.stage-entertainment.de/musicals/blue-man-group-berlin/blue-man-group-berlin.html", "wheelchair": "limited", "wikidata": "Q17353438", "wikipedia": "de:BlueMax Theater"}}, {"type": "node", "id": 7212405461, "lat": 52.5231686, "lon": 13.3337683, "tags": {"addr:city": "Berlin", "addr:country": "DE", "addr:housenumber": "29", "addr:postcode": "10555", "addr:street": "Jagowstraße", "addr:suburb": "Moabit", "amenity": "theatre", "contact:website": "http://kulturbremse.mo-po.net/", "name": "Kulturbremse"}}, {"type": "node", "id": 7546100377, "lat": 52.4766714, "lon": 13.3319721, "tags": {"addr:city": "Berlin", "addr:housenumber": "9", "addr:postcode": "12159", "addr:street": "Isoldestraße", "amenity": "theatre", "name": "Kammermusiksaal Friedenau", "theatre:genre": "chamber_music", "theatre:type": "concert_hall", "website": "https://www.kammermusiksaal-friedenau.de/", "wheelchair": "no", "wikidata": "Q15116149"}}, {"type": "node", "id": 7710509077, "lat": 52.6635244, "lon": 13.680271, "tags": {"amenity": "theatre", "contact:email": "info@dinnerforfun.net", "contact:phone": "+49 173 6710512", "contact:website": "http://www.dinnerforfun.net/", "name": "DINNER FOR FUN", "operator": "Sabrina Bienas & David Blundell GbR"}}, {"type": "node", "id": 8589954014, "lat": 52.5334318, "lon": 13.4009767, "tags": {"addr:city": "Berlin", "addr:country": "DE", "addr:housenumber": "21", "addr:postcode": "10119", "addr:street": "Veteranenstraße", "addr:suburb": "Mitte", "amenity": "theatre", "contact:phone": "+49 30 44359497", "contact:website": "https://www.acud-theater.de/", "name": "ACUD Theater", "wheelchair": "yes"}}, {"type": "node", "id": 8699014134, "lat": 52.5106061, "lon": 13.2662477, "tags": {"access": "private", "amenity": "theatre", "lit": "no", "theatre:type": "amphi"}}, {"type": "node", "id": 8909423107, "lat": 52.6259069, "lon": 13.2808102, "tags": {"addr:city": "Berlin", "addr:housenumber": "36", "addr:postcode": "13465", "addr:street": "Forstweg", "amenity": "theatre", "name": "Papiertheater Invisius", "website": "http://www.invisius.de", "wikidata": "Q96976184", "wikimedia_commons": "Category:Papiertheater Invisius"}}, {"type": "node", "id": 9124518729, "lat": 52.5563924, "lon": 13.3864811, "tags": {"amenity": "theatre", "name": "SprInt Bildung, Sprache und Integration", "phone": "+49 30 49768460", "website": "https://bildung-sprint.de", "wheelchair": "yes"}}, {"type": "node", "id": 9573608156, "lat": 52.53339, "lon": 13.4010458, "tags": {"amenity": "theatre", "name": "Lettrétage", "website": "https://www.lettretage.de/"}}, {"type": "node", "id": 9656229274, "lat": 52.4531188, "lon": 13.3299441, "tags": {"addr:city": "Berlin", "addr:country": "DE", "addr:housenumber": "28", "addr:postcode": "12167", "addr:street": "Albrechtstraße", "addr:suburb": "Steglitz", "amenity": "theatre", "contact:phone": "+49 30 74696773", "contact:website": "https://www.alpha-nova-werkstatttheater.de/", "name": "Alpha Nova Werkstatttheter", "name:de": "Alpha Nova Werkstatttheater", "operator": "Kultur in Zehlendorf e.V."}}, {"type": "node", "id": 9748411426, "lat": 52.4950494, "lon": 13.3254173, "tags": {"amenity": "theatre", "name": "Der Theater Salon"}}, {"type": "node", "id": 10098812511, "lat": 52.4728137, "lon": 13.3363405, "tags": {"addr:city": "Berlin", "addr:country": "DE", "addr:housenumber": "1", "addr:postcode": "12159", "addr:street": "Rheinstraße", "addr:suburb": "Friedenau", "amenity": "theatre", "contact:facebook": "https://www.facebook.com/theatermorgenstern", "contact:instagram": "https://www.instagram.com/theatermorgenstern", "name": "Theater Morgenstern", "phone": "+49 30 92355950", "theatre:genre": "children", "website": "https://www.theater-morgenstern.de/", "wheelchair": "yes"}}, {"type": "node", "id": 10128714287, "lat": 52.4983247, "lon": 13.2906051, "tags": {"addr:city": "Berlin", "addr:country": "DE", "addr:housenumber": "4", "addr:postcode": "10711", "addr:street": "Georg-Wilhelm-Straße", "addr:suburb": "Halensee", "amenity": "theatre", "name": "Puppenbühnchen", "theatre:genre": "puppet"}}, {"type": "node", "id": 10167589317, "lat": 52.4880488, "lon": 13.4222367, "tags": {"addr:housenumber": "9", "addr:postcode": "10967", "addr:street": "Hasenheide", "amenity": "theatre", "email": "space@tatwerk-berlin.de", "name": "Tatwerk Theater", "website": "https://tatwerk-berlin.de/das-tatwerk/studio"}}, {"type": "node", "id": 10262733380, "lat": 52.4420034, "lon": 13.582361, "tags": {"amenity": "theatre", "contact:email": "info@stadttheater-koepenick.de", "contact:phone": "+49 30 650 75 483", "contact:website": "http://www.stadttheater-coepenick.de/", "name": "Stadttheater Cöpenick", "operator": "Stadttheater-Köpenick e.V."}}, {"type": "node", "id": 10316977904, "lat": 52.5040108, "lon": 13.4344545, "tags": {"addr:housenumber": "21", "addr:street": "Eisenbahnstraße", "amenity": "theatre", "email": "info@tfk-berlin.de", "name": "theaterforum kreuzberg", "phone": "03061288880", "website": "https://tfk-berlin.de"}}, {"type": "node", "id": 10688463815, "lat": 52.5526663, "lon": 13.3762533, "tags": {"addr:city": "Berlin", "addr:housenumber": "41a", "addr:postcode": "13357", "addr:street": "Badstraße", "amenity": "theatre", "description": "Die Uferstudios für zeitgenössischen Tanz sind ein denkmalgeschütztes Areal in Berlin-Wedding, auf dem zeitgenössische Tänzer*innen und Choreograf*innen ihre Arbeiten erproben und präsentieren.", "name": "Uferstudios für zeitgenössischen Tanz", "operator": "uferstudios GmbH", "website": "https://www.uferstudios.com/de/home", "wheelchair": "yes"}}, {"type": "node", "id": 10902497205, "lat": 52.4737158, "lon": 13.3886918, "tags": {"amenity": "theatre", "name": "Luftschloss", "survey:date": "2023-05-16", "theatre:type": "open_air", "website": "https://luftschloss-tempelhoferfeld.de/"}}, {"type": "node", "id": 10942761216, "lat": 52.5074693, "lon": 13.3721099, "tags": {"addr:city": "Berlin", "addr:housenumber": "1", "addr:postcode": "10785", "addr:street": "Marlene-Dietrich-Platz", "amenity": "theatre", "name": "Komödie am Kurfürstendamm", "note": "Übergangsspielstätte von Theater und Komödie am Kurfürstendamm. Vorherige Übergangsspielstätte war im Schillertheater.", "official_name": "Komödie am Kurfürstendamm Theater am Potsdamer Platz", "phone": "+49 30 8859110", "source": "survey", "survey:date": "2022-03-02", "theatre:genre": "comedy", "theatre:type": "stage", "website": "https://www.komoedie-berlin.de/", "wheelchair": "limited", "wikidata": "Q869970", "wikimedia_commons": "Category:Theater am Kurfürstendamm", "wikipedia": "de:Theater am Kurfürstendamm"}}, {"type": "node", "id": 11218721726, "lat": 52.4457454, "lon": 13.5778827, "tags": {"addr:city": "Berlin", "addr:housenumber": "4", "addr:postcode": "12555", "addr:street": "Jägerstraße", "amenity": "theatre", "description": "Die Kultbühne im Hinterhof des Altstadttheater Köpenick", "name": "Zilles Stubentheater im Altstadttheater Köpenick", "operator": "Altstadttheater Köpenick", "website": "https://altstadttheater-koepenick.de"}}, {"type": "node", "id": 11218737137, "lat": 52.4458991, "lon": 13.577872, "tags": {"addr:city": "Berlin", "addr:housenumber": "4", "addr:postcode": "12555", "addr:street": "Jägerstraße", "air_conditioning": "yes", "amenity": "theatre", "contact:facebook": "https://www.facebook.com/altstadttheaterkoepenick", "description": "Mitten in der Altstadt von Köpenick, direkt am Alten Markt, findet unser Publikum mit Zilles Stubentheater und der Altstadtbühne ein „Kleinod in der Berliner Theater-Landschaft“: Das Altstadttheater Köpenick.", "email": "info@altstadttheater-koepenick.de", "image": "https://altstadttheater-koepenick.de/wp-content/uploads/2023/05/Altstadttheater-Vorderhaus-scaled.jpg", "name": "Altstadttheater Köpenick", "opening_hours": "Th-Sa 18:00-22:00, We 14:30-21:00, Th 11:00-14:00, Su 15:00-18:00", "operator": "Albrecht Hoffmann", "phone": "+49 30 66309320", "website": "https://altstadttheater-koepenick.de", "wheelchair": "yes", "wikidata": "Q118372527", "wikimedia_commons": "Category:Altstadttheater%20Köpenick", "wikipedia": "de:Altstadttheater Köpenick"}}]}