{"version": 0.6, "generator": "Overpass API 0.7.61.5 4133829e", "osm3s": {"timestamp_osm_base": "2024-01-02T13:45:02Z", "copyright": "The data included in this document is from www.openstreetmap.org. The data is made available under ODbL."}, "elements": [{"type": "node", "id": 29040741, "lat": 52.5343784, "lon": 13.3596231, "tags": {"addr:city": "Berlin", "addr:country": "DE", "addr:housenumber": "35", "addr:postcode": "10557", "addr:street": "Lehrter Straße", "addr:suburb": "Moabit", "amenity": "cinema", "name": "Filmrauschpalast in der Kulturfabrik", "phone": "+49 30 3844344", "toilets:wheelchair": "no", "website": "https://www.filmrausch.de/", "wheelchair": "no"}}, {"type": "node", "id": 79615774, "lat": 52.5839192, "lon": 13.2860048, "tags": {"amenity": "cinema", "brand": "CineStar", "brand:wikidata": "Q321889", "brand:wikipedia": "de:Cinestar", "name": "CineStar", "opening_hours": "Mo-Su 13:30-23:00", "toilets:wheelchair": "yes", "wheelchair": "yes"}}, {"type": "node", "id": 101186634, "lat": 52.5417516, "lon": 13.5420275, "tags": {"addr:city": "Berlin", "addr:country": "DE", "addr:housenumber": "176-178", "addr:postcode": "12681", "addr:street": "Märkische Allee", "amenity": "cinema", "brand": "UCI Kinowelt", "brand:wikidata": "Q521922", "description": "Im UCI Am Eastgate können Sie neben dem Kino auch weitere Freizeitangebote nutzen: Bowling, Sonnenstudio, Fitnessstudio und Restaurants. Im gegenüber liegenden EKZ Eastgate lädt weitere Gastronomie zum Verweilen ein.", "name": "UCI Am Eastgate", "phone": "+49 30 93030260", "short_name": "UCI", "toilets:wheelchair": "yes", "website": "https://www.uci-kinowelt.de/kinoprogramm/berlin-am-eastgate/44", "wheelchair": "yes", "wikidata": "Q47117136"}}, {"type": "node", "id": 251559871, "lat": 52.5129109, "lon": 13.4581955, "tags": {"addr:city": "Berlin", "addr:country": "DE", "addr:housenumber": "107", "addr:postcode": "10245", "addr:street": "Boxhagener Straße", "addr:suburb": "Friedrichshain", "amenity": "cinema", "contact:website": "https://www.kino-zeit.de/kinoprogramm/berlin/kino-intimes-berlin", "name": "Kino Intimes", "opening_hours": "Mo-Fr 13:30-18:00+, Sa,Su 12:00-18:00+", "screen": "2", "toilets:wheelchair": "no", "wheelchair": "yes", "wikidata": "Q47155856", "wikimedia_commons": "Category:Kino Intimes (Berlin)"}}, {"type": "node", "id": 256754256, "lat": 52.5258984, "lon": 13.4114358, "tags": {"addr:city": "Berlin", "addr:country": "DE", "addr:housenumber": "30", "addr:postcode": "10178", "addr:street": "Rosa-Luxemburg-Straße", "addr:suburb": "Mitte", "amenity": "cinema", "check_date": "2023-05-12", "contact:phone": "+49 30 2425969", "contact:website": "http://www.babylonberlin.de", "drink:club-mate": "yes", "name": "Kino Babylon", "opening_hours": "Mo-Fr 17:00+; Sa,Su \"eine halbe Stunde vor der ersten Vorstellung\"", "short_name": "Babylon", "wheelchair": "limited", "wikidata": "Q1742238", "wikipedia": "en:Kino Babylon"}}, {"type": "node", "id": 270347505, "lat": 52.4221808, "lon": 13.7538315, "tags": {"amenity": "cinema", "name": "Kino Movieland", "wikidata": "Q100786403"}}, {"type": "node", "id": 272004025, "lat": 52.5385009, "lon": 13.2063427, "tags": {"amenity": "cinema", "brand": "Cineplex", "brand:wikidata": "Q1092476", "brand:wikipedia": "de:Cineplex", "contact:phone": "+49 180 5050211", "contact:website": "http://www.cineplex.de", "name": "Cineplex", "wheelchair": "limited", "wheelchair:description": "Eingang nur durch den Hintereingang !!!", "wikidata": "Q47079139"}}, {"type": "node", "id": 273477667, "lat": 52.4620593, "lon": 13.5121795, "tags": {"addr:city": "Berlin", "addr:country": "DE", "addr:housenumber": "89", "addr:postcode": "12459", "addr:street": "Wilhelminenhofstraße", "addr:suburb": "Oberschöneweide", "amenity": "cinema", "name": "Kino Spreehöfe", "opening_hours": "\"Unterschiedlich, je nach Spielplan.\"", "phone": "+49 30 538 95 90", "website": "https://www.kino-spreehoefe.de", "wheelchair": "limited", "wikidata": "Q34991764"}}, {"type": "node", "id": 277004600, "lat": 52.4769552, "lon": 13.3304523, "tags": {"addr:city": "Berlin", "addr:housenumber": "10", "addr:postcode": "12159", "addr:street": "Sieglindestraße", "amenity": "cinema", "name": "Cosima", "screen": "1", "wheelchair": "no", "wikidata": "Q47012920"}}, {"type": "node", "id": 281887442, "lat": 52.5488199, "lon": 13.4509296, "tags": {"addr:city": "Berlin", "addr:country": "DE", "addr:housenumber": "1", "addr:postcode": "13086", "addr:street": "Antonplatz", "addr:suburb": "Weißensee", "amenity": "cinema", "check_date:opening_hours": "2023-02-21", "image": "File:Kino Toni Antonplatz Berlin-Weißensee 02.jpg", "name": "Kino Toni & Tonino", "opening_hours": "Mo-Su 09:00-22:00", "phone": "+49 30 92791200", "toilets:wheelchair": "yes", "website": "https://www.kino-toni.de/", "wheelchair": "yes", "wikidata": "Q40289735", "wikimedia_commons": "Category:Kino Toni"}}, {"type": "node", "id": 297512119, "lat": 52.4669397, "lon": 13.3286196, "tags": {"addr:city": "Berlin", "addr:country": "DE", "addr:housenumber": "111", "addr:postcode": "12161", "addr:street": "Bundesallee", "addr:suburb": "Friedenau", "amenity": "cinema", "name": "Cinema", "phone": "+49 30 852 30 04", "website": "https://www.cineplex.de/berlin-titania/", "wheelchair": "limited", "wikidata": "Q47012912"}}, {"type": "node", "id": 299288097, "lat": 52.5354615, "lon": 13.2024584, "tags": {"amenity": "cinema", "contact:phone": "+4930333402122", "contact:website": "http://www.kinoimkulturhaus.de/", "name": "Kino im Kulturhaus Spandau", "wheelchair": "yes", "wheelchair:description": "Eingang meist offen, keine automatische Tüt, Fahrstühle vorhanden, viel Platz", "wikidata": "Q47079217"}}, {"type": "node", "id": 306592727, "lat": 52.4176037, "lon": 13.2263724, "tags": {"addr:city": "Kleinmachnow", "addr:country": "DE", "addr:housenumber": "18", "addr:postcode": "14532", "addr:street": "Karl-Marx-Straße", "amenity": "cinema", "atm": "no", "name": "Neue Kammerspiele", "website": "https://neuekammerspiele.de/", "wheelchair": "limited", "wikidata": "Q61613869"}}, {"type": "node", "id": 312618622, "lat": 52.5067663, "lon": 13.3084282, "tags": {"addr:city": "Berlin", "addr:country": "DE", "addr:housenumber": "54", "addr:postcode": "10627", "addr:street": "Kantstraße", "addr:suburb": "Charlottenburg", "alt_name": "Neue Kant Kinos", "amenity": "cinema", "check_date": "2023-02-19", "contact:phone": "+49 30 319 98 66", "contact:website": "https://yorck.de/kinos/kant-kino", "description": "5 Säle (349 / 81 / 61 / 59 / 22 Plätze)", "name": "Kant Kino", "operator": "Yorck Kinogruppe", "payment:credit_cards": "yes", "payment:debit_cards": "yes", "payment:girocard": "yes", "payment:maestro": "yes", "payment:mastercard": "yes", "payment:visa": "yes", "screen": "5", "wheelchair": "limited", "wheelchair:description": "Leider sind nicht alle Säle rollstuhlgerecht. Besser vorher erkundigen.", "wikidata": "Q42297621"}}, {"type": "node", "id": 313942258, "lat": 52.5377975, "lon": 13.6041151, "tags": {"amenity": "cinema", "brand": "CineStar", "brand:wikidata": "Q321889", "brand:wikipedia": "de:Cinestar", "name": "CineStar", "wheelchair": "yes"}}, {"type": "node", "id": 331345531, "lat": 52.4899914, "lon": 13.4101466, "tags": {"addr:city": "Berlin", "addr:country": "DE", "addr:housenumber": "54", "addr:postcode": "10967", "addr:street": "Hasenheide", "addr:suburb": "Kreuzberg", "amenity": "cinema", "name": "Sputnik Kino", "opening_hours:signed": "no", "phone": "+49 30 6941147", "website": "https://www.sputnik-kino.com/", "wheelchair": "limited", "wikidata": "Q47155393"}}, {"type": "node", "id": 333351711, "lat": 52.4819661, "lon": 13.4316965, "tags": {"amenity": "cinema", "brand": "Cineplex", "brand:wikidata": "Q1092476", "brand:wikipedia": "de:Cineplex", "level": "3", "name": "Cineplex", "opening_hours": "Mo-We 14:00-23:00, Th,Fr 14:00-01:00, Sa 11:30-01:00, Su 11:30-23:00", "toilets:wheelchair": "no", "website": "https://www.cineplex.de/berlin-neukoelln/", "wheelchair": "yes", "wikidata": "Q47089242"}}, {"type": "node", "id": 339825650, "lat": 52.5364987, "lon": 13.4077602, "tags": {"addr:city": "Berlin", "addr:country": "DE", "addr:housenumber": "77", "addr:postcode": "10435", "addr:street": "Kastanienallee", "addr:suburb": "Prenzlauer Berg", "amenity": "cinema", "contact:phone": "+49 30 44058179", "contact:website": "http://www.lichtblick-kino.org/", "name": "Lichtblick", "operator": "Stattkino Berlin e.V.", "wheelchair": "no", "wheelchair:description": "Stufen am Eingang"}}, {"type": "node", "id": 343650200, "lat": 52.5240474, "lon": 13.4019658, "tags": {"addr:city": "Berlin", "addr:country": "DE", "addr:housenumber": "40-41", "addr:postcode": "10178", "addr:street": "Rosenthaler Straße", "addr:suburb": "Mitte", "amenity": "cinema", "contact:phone": "+49302834603", "contact:website": "http://www.hoefekino.de", "name": "Hackesche Höfe Kino", "operator": "Timebandits", "wheelchair": "no", "wikidata": "Q47164843"}}, {"type": "node", "id": 343650283, "lat": 52.5245664, "lon": 13.4018422, "tags": {"addr:city": "Berlin", "addr:country": "DE", "addr:housenumber": "39", "addr:postcode": "10178", "addr:street": "Rosenthaler Straße", "addr:suburb": "Mitte", "amenity": "cinema", "contact:phone": "+49 30 28599973", "contact:website": "http://www.kino-central.de", "drink:club-mate": "yes", "name": "Kino Central", "wheelchair": "limited", "wheelchair:description": "Es gibt einen Fahrstuhl in Kinosaal1 (Toiletten von dort leider nicht erreichbar). Kinosaal 2 ist nicht rollstuhlgerecht - ist aber über 5 Stufen mit Hilfe der Kinomitarbeiter_innen erreichbar. Dafür einfach an der Kinokasse bescheid geben: 030/28599973", "wikidata": "Q47168214", "wikimedia_commons": "Category:Haus Schwarzenberg"}}, {"type": "node", "id": 350460866, "lat": 52.5015918, "lon": 13.4146103, "tags": {"addr:city": "Berlin", "addr:country": "DE", "addr:housenumber": "2", "addr:postcode": "10969", "addr:street": "Segitzdamm", "addr:suburb": "Kreuzberg", "amenity": "cinema", "check_date:opening_hours": "2023-02-27", "contact:email": "post@fsk-kino.de", "contact:phone": "+49 30 6142464", "contact:website": "https://fsk-kino.peripherfilm.de/", "description": "Vorbestellen kann man unter Tel. 030 6142464 (So – Fr 12–24 Uhr, Sa 14–24 Uhr) und an post@fsk-kino.de", "name": "fsk - Kino am Oranienplatz", "opening_hours:signed": "no", "operator": "fsk Kino & Peripher Filmverleih GmbH", "operator:type": "private", "toilets:wheelchair": "yes", "wheelchair": "yes", "wikidata": "Q47126528"}}, {"type": "node", "id": 350460874, "lat": 52.5006568, "lon": 13.4169229, "tags": {"addr:city": "Berlin", "addr:country": "DE", "addr:housenumber": "126", "addr:postcode": "10999", "addr:street": "Dresdener Straße", "addr:suburb": "Kreuzberg", "amenity": "cinema", "contact:phone": "+49 30 61609693", "contact:website": "https://yorck.de/kinos/babylon-kreuzberg", "name": "Babylon Kreuzberg", "operator": "Yorck Kinogruppe", "screen": "2", "wheelchair": "limited", "wheelchair:description": "An der Kasse jemanden um Hilfe holen (lassen). Dann wird Seiteneingang aufgemacht."}}, {"type": "node", "id": 352907002, "lat": 52.4863303, "lon": 13.3593976, "tags": {"addr:city": "Berlin", "addr:country": "DE", "addr:housenumber": "5", "addr:postcode": "10827", "addr:street": "Kolonnenstraße", "addr:suburb": "Schöneberg", "amenity": "cinema", "contact:email": "service@xenon-kino.de", "contact:facebook": "https://www.facebook.com/xenonkino", "contact:phone": "+49 30 78001530", "contact:website": "http://www.xenon-kino.de/", "lgbtq": "primary", "name": "Xenon", "old_name": "Colonna", "opening_hours:signed": "no", "operator": "Xenon Kino Wieske FTB Filmtheaterbetriebe", "screen": "1", "start_date": "1909", "wheelchair": "yes", "wikidata": "Q47036615", "wikipedia": "de:Xenon Kino"}}, {"type": "node", "id": 355946428, "lat": 52.4930489, "lon": 13.3853593, "tags": {"addr:city": "Berlin", "addr:country": "DE", "addr:housenumber": "86", "addr:postcode": "10965", "addr:street": "Yorckstraße", "addr:suburb": "Kreuzberg", "air_conditioning": "no", "amenity": "cinema", "check_date": "2023-07-21", "contact:phone": "+49 30 78913240", "contact:website": "https://yorck.de/kinos/yorck", "name": "Yorck", "operator": "Yorck Kinogruppe", "screen": "2", "wheelchair": "no", "wikidata": "Q47126371"}}, {"type": "node", "id": 388325296, "lat": 52.5803587, "lon": 13.401489, "tags": {"addr:city": "Berlin", "addr:country": "DE", "addr:housenumber": "11", "addr:postcode": "13156", "addr:street": "Hermann-Hesse-Straße", "addr:suburb": "Niederschönhausen", "amenity": "cinema", "check_date:opening_hours": "2023-07-13", "contact:website": "https://yorck.de/kinos/blauer-stern", "name": "Blauer Stern", "opening_hours:signed": "no", "operator": "Yorck Kinogruppe", "screen": "2", "wheelchair": "yes", "wikidata": "Q47086121"}}, {"type": "node", "id": 391462594, "lat": 52.4295254, "lon": 13.4554457, "tags": {"addr:city": "Berlin", "addr:housenumber": "295", "addr:postcode": "12351", "addr:street": "Johannisthaler Chaussee", "alt_name": "UCI Kinowelt Gropius Passagen;UCI Luxe Gropius Passagen", "amenity": "cinema", "brand": "UCI Kinowelt", "brand:wikidata": "Q521922", "brand:wikipedia": "de:United Cinemas International", "image": "https://www.kinokompendium.de/foto_kino_berlin/uciluxe_gropiuspassage_f02.jpg;https://ewa.co.uk/wp-content/uploads/2019/04/UCI-Gropiuspassagen_04_1417-x-1028.jpg", "level": "1;2", "name": "UCI Kinowelt", "short_name": "UCI", "website": "https://www.uci-kinowelt.de/kinoinformation/berlin-gropius-passagen/43", "wheelchair": "yes", "wikidata": "Q47089227"}}, {"type": "node", "id": 437291301, "lat": 52.5202013, "lon": 13.412224, "tags": {"addr:city": "Berlin", "addr:country": "DE", "addr:housenumber": "1", "addr:postcode": "10178", "addr:street": "Rathausstraße", "addr:suburb": "Mitte", "amenity": "cinema", "brand": "CineStar", "brand:wikidata": "Q321889", "brand:wikipedia": "de:Cinestar", "contact:phone": "+49 30 257610", "contact:website": "http://www.cinestar.de/de/kino/berlin-cinestar-cubix-am-alexanderplatz", "name": "Cinestar Cubix am Alexanderplatz", "opening_hours": "Mo,Tu 13:15-21:00; We-Fr 13:15-23:30; Sa 10:45-23:30; Su 10:45-21:00", "payment:credit_cards": "no", "payment:debit_cards": "no", "wheelchair": "yes", "wikidata": "Q47164876", "wikimedia_commons": "Category:Cubix (Berlin)"}}, {"type": "node", "id": 447078290, "lat": 52.5525596, "lon": 13.4305846, "tags": {"addr:city": "Berlin", "addr:country": "DE", "addr:housenumber": "1", "addr:place": "Caligariplatz", "addr:postcode": "13086", "addr:suburb": "Weißensee", "amenity": "cinema", "email": "joerg.fuegmann@brotfabrik-berlin.de", "facebook": "https://www.facebook.com/BrotfabrikBerlin/", "instagram": "https://www.instagram.com/brotfabrikberlin/", "name": "Brotfabrik", "opening_hours": "Mo-Fr 18:00+, Sa,Su 16:00-18:00+; PH 16:00-18:00+", "phone": "+49 30 4714002", "toilets:wheelchair": "yes", "twitter": "https://twitter.com/BrotfabrikBln", "website": "https://www.brotfabrik-berlin.de", "wheelchair": "yes", "wikidata": "Q990769", "wikimedia_commons": "Category:Brotfabrik in Berlin"}}, {"type": "node", "id": 448811295, "lat": 52.4903342, "lon": 13.4234006, "tags": {"addr:city": "Berlin", "addr:country": "DE", "addr:housenumber": "22", "addr:postcode": "10967", "addr:street": "Kottbusser Damm", "addr:suburb": "Kreuzberg", "amenity": "cinema", "name": "Kino Moviemento", "phone": "+49 30 6924785", "website": "https://www.moviemento.de/", "wheelchair": "no", "wheelchair:description": "Baulich gibt es leider keine Möglichkeit die Treppe zu umgehen. Die MItarbeiter_innen des Kinos sind aber jederzeit sehr gerne bereit beim Hochtragen zu helfen! Die Nummer der Kinokassse: 6924785", "wikidata": "Q1657924", "wikipedia": "de:Moviemento"}}, {"type": "node", "id": 474801031, "lat": 52.4774811, "lon": 13.439406, "tags": {"addr:city": "Berlin", "addr:country": "DE", "addr:housenumber": "131", "addr:postcode": "12043", "addr:street": "Karl-Marx-Straße", "addr:suburb": "Neukölln", "amenity": "cinema", "contact:phone": "+49 30 68237018", "contact:website": "https://yorck.de/kinos/passage", "image": "https://www.kinokompendium.de/foto_kino_berlin/passage_kino_f01.jpg;https://images.ctfassets.net/4mws6uyas4ta/24L29Y5ZcXR3738hxh2KP0/00d122dc9b053a2dcfb8bfd337dc2059/Passage1_Saal_Vorhang-Copyright_Daniel_Horn.jpg", "name": "Passage", "operator": "Yorck Kinogruppe", "screen": "4", "wheelchair": "limited", "wikidata": "Q47089203"}}, {"type": "node", "id": 494156434, "lat": 52.5207515, "lon": 13.447355, "tags": {"addr:city": "Berlin", "addr:country": "DE", "addr:housenumber": "25A", "addr:postcode": "10249", "addr:street": "Richard-Sorge-Straße", "addr:suburb": "Friedrichshain", "amenity": "cinema", "contact:phone": "+49 30 4268129", "contact:website": "https://www.tilsiter-lichtspiele.de/", "name": "Tilsiter Lichtspiele", "opening_hours": "Mo-Fr 16:00-24:00+, Sa,Su 14:00-24:00+", "wheelchair": "no", "wikidata": "Q1483262", "wikimedia_commons": "Category:Tilsiter Lichtspiele"}}, {"type": "node", "id": 609911082, "lat": 52.5336588, "lon": 13.4008151, "tags": {"addr:city": "Berlin", "addr:country": "DE", "addr:housenumber": "21", "addr:postcode": "10119", "addr:street": "Veteranenstraße", "addr:suburb": "Mitte", "amenity": "cinema", "contact:phone": "+49 30 44359498", "contact:website": "https://acudkino.de/", "description": "Arthouse-Kino im ACUD", "name": "ACUDkino", "wheelchair": "no", "wikidata": "Q288846", "wikimedia_commons": "Category:Kunsthaus ACUD", "wikipedia": "de:ACUD"}}, {"type": "node", "id": 638313755, "lat": 52.435842, "lon": 13.547897, "tags": {"addr:city": "Berlin", "addr:country": "DE", "addr:housenumber": "12", "addr:postcode": "12489", "addr:street": "Friedenstraße", "addr:suburb": "Adlershof", "amenity": "cinema", "email": "casablanca-berlin@gmx.de", "name": "Casablanca", "phone": "+49 30 67 75 752", "toilets:wheelchair": "no", "website": "http://www.casablanca-berlin.de", "wheelchair": "yes", "wikidata": "Q34965979"}}, {"type": "node", "id": 660899079, "lat": 52.5040614, "lon": 13.4234804, "tags": {"addr:city": "Berlin", "addr:country": "DE", "addr:housenumber": "2", "addr:postcode": "10997", "addr:street": "Mariannenplatz", "addr:suburb": "Kreuzberg", "amenity": "cinema", "contact:phone": "+49 30 29361628", "contact:website": "http://www.freiluftkino-kreuzberg.de", "name": "Freiluftkino Kreuzberg", "opening_hours": "\"Nur im Sommer, Filmstart nach Einbruch der Dunkelheit. \"", "toilets:wheelchair": "yes", "wheelchair": "yes"}}, {"type": "node", "id": 662864720, "lat": 52.4787966, "lon": 13.4280286, "tags": {"addr:city": "Berlin", "addr:country": "DE", "addr:housenumber": "70", "addr:postcode": "12053", "addr:street": "Rollbergstraße", "addr:suburb": "Neukölln", "amenity": "cinema", "check_date": "2023-03-23", "contact:phone": "+49 30 322 931 322", "contact:website": "https://yorck.de/kinos/rollberg", "level": "0", "name": "Rollberg Kino", "operator": "Yorck Kinogruppe", "screen": "5", "wheelchair": "limited", "wikidata": "Q47089256"}}, {"type": "node", "id": 675243681, "lat": 52.5086444, "lon": 13.3737448, "tags": {"addr:city": "Berlin", "addr:country": "DE", "addr:housenumber": "5", "addr:postcode": "10785", "addr:street": "Potsdamer Straße", "addr:suburb": "Tiergarten", "amenity": "cinema", "brand": "Cinemaxx", "brand:wikidata": "Q881860", "brand:wikipedia": "de:CinemaxX", "name": "CinemaxX", "phone": "+49 30 25921111", "toilets:wheelchair": "yes", "website": "https://www.cinemaxx.de/Home?SwitchCinemaId=12", "wheelchair": "limited", "wheelchair:description": "Bitte vorher genau Prüfen, ob der Saal (genug) Rollstuhlplätze hat.", "wheelchair:description:de": "Wegen der Evakuierungsregeln sind im Saal 9+10 keine Rollstühle erlaubt.", "wheelchair:description:en": "Due to evacuation-rules: Wheelchairs are not allowed in Room 9 +10", "wikidata": "Q47459889"}}, {"type": "node", "id": 792057385, "lat": 52.5361682, "lon": 13.6094676, "tags": {"addr:city": "Berlin", "addr:country": "DE", "addr:housenumber": "10", "addr:postcode": "12627", "addr:street": "Heidenauer Straße", "addr:suburb": "Hellersdorf", "amenity": "cinema", "name": "Die Kiste", "phone": "+49 30 9987481", "website": "https://www.kiste.net/kino/", "wheelchair": "limited"}}, {"type": "node", "id": 837792482, "lat": 52.4834225, "lon": 13.4244236, "tags": {"addr:city": "Berlin", "addr:country": "DE", "addr:housenumber": "20", "addr:postcode": "12049", "addr:street": "Hermannstraße", "addr:suburb": "Neukölln", "amenity": "cinema", "contact:phone": "+49 30 322 931 322", "contact:website": "https://yorck.de/kinos/neues-off", "name": "Neues Off", "opening_hours:signed": "no", "operator": "Yorck Kinogruppe", "screen": "1", "wheelchair": "no", "wikidata": "Q47089254"}}, {"type": "node", "id": 945097267, "lat": 52.5095662, "lon": 13.3734177, "tags": {"addr:city": "Berlin", "addr:country": "DE", "addr:housenumber": "2", "addr:postcode": "10785", "addr:street": "Potsdamer Straße", "addr:suburb": "Tiergarten", "amenity": "cinema", "name": "arsenal", "opening_hours": "\"täglich\"", "website": "https://www.arsenal-berlin.de/", "wheelchair": "yes", "wikidata": "Q704465", "wikipedia": "de:Arsenal (Kino)"}}, {"type": "node", "id": 979081268, "lat": 52.4641482, "lon": 13.3266521, "tags": {"addr:city": "Berlin", "addr:country": "DE", "addr:housenumber": "27-28", "addr:postcode": "12163", "addr:street": "Gutsmuthsstraße", "addr:suburb": "Steglitz", "alt_name": "Cineplex Titania", "amenity": "cinema", "contact:phone": "+49 180 5050520", "contact:website": "https://www.cineplex.de/berlin-titania/", "name": "Titania-Palast", "opening_hours": "\"Kasseneröffnung 30 min vor der ersten Vorstellung\"", "wheelchair": "limited", "wikidata": "Q2436848", "wikipedia": "de:Titania-Palast"}}, {"type": "node", "id": 1197273317, "lat": 52.5364431, "lon": 13.2015024, "tags": {"addr:city": "Berlin", "addr:country": "DE", "addr:housenumber": "13", "addr:postcode": "13597", "addr:street": "Carl-Schurz-Straße", "addr:suburb": "Spandau", "amenity": "cinema", "contact:phone": "+49 30 3336081", "contact:website": "http://www.openairkino-spandau.de", "name": "OpenAirKino Spandau", "wheelchair": "yes", "wikidata": "Q47079340"}}, {"type": "node", "id": 1336816758, "lat": 52.5383336, "lon": 13.2028074, "tags": {"addr:city": "Berlin", "addr:country": "DE", "addr:housenumber": "29", "addr:postcode": "13597", "addr:street": "Jüdenstraße", "addr:suburb": "Spandau", "amenity": "cinema", "name": "Sweet Secrets", "wheelchair": "yes", "wheelchair:description": "Erotik Video Verleih."}}, {"type": "node", "id": 1426582972, "lat": 52.5016113, "lon": 13.4654275, "tags": {"addr:city": "Berlin", "addr:country": "DE", "addr:postcode": "10245", "addr:suburb": "Friedrichshain", "amenity": "cinema", "contact:website": "http://kino-zukunft.de/", "description": "Freiluftkino am Ostkreuz", "name": "Zukunft / Pompeji", "opening_hours": "Mo-Fr 17:00-24:00+, Sa 16:00-24:00+", "wheelchair": "yes"}}, {"type": "node", "id": 1569218585, "lat": 52.4896169, "lon": 13.4275386, "tags": {"amenity": "cinema", "name": "Kino Sex Shop", "shop": "erotic", "wheelchair": "no"}}, {"type": "node", "id": 1787511231, "lat": 52.5118751, "lon": 13.4616485, "tags": {"addr:city": "Berlin", "addr:housenumber": "19", "addr:postcode": "10245", "addr:street": "Gärtnerstraße", "amenity": "cinema", "check_date:opening_hours": "2022-11-10", "name": "b-ware! ladenkino", "opening_hours": "11:00+", "opening_hours:signed": "no", "payment:cash": "yes", "phone": "+49 30 20078888", "ref:vatin": "DE812158316", "screen": "3", "toilets:wheelchair": "no", "website": "https://ladenkino.de/", "wheelchair": "limited", "wikidata": "Q47155923"}}, {"type": "node", "id": 1863569258, "lat": 52.5290306, "lon": 13.4302735, "tags": {"addr:city": "Berlin", "addr:country": "DE", "addr:housenumber": "1-5", "addr:postcode": "10407", "addr:street": "Bötzowstraße", "addr:suburb": "Prenzlauer Berg", "air_conditioning": "yes", "amenity": "cinema", "check_date": "2023-10-25", "contact:phone": "+49 30 42845188", "contact:website": "https://yorck.de/kinos/filmtheater-am-friedrichshain", "name": "Filmtheater am Friedrichshain", "operator": "Yorck Kinogruppe", "payment:cash": "yes", "payment:mastercard": "yes", "payment:visa": "yes", "screen": "5", "toilets:wheelchair": "yes", "wheelchair": "limited", "wheelchair:description": "Rollstuhlfahrer kommen über den Seiteneingang mit Aufzug ins Gebäude. Großer Saal hat Rollstuhlplätze.", "wikidata": "Q32662590", "wikimedia_commons": "Category:Filmtheater am Friedrichshain"}}, {"type": "node", "id": 1934149453, "lat": 52.5044255, "lon": 13.3196567, "tags": {"addr:city": "Berlin", "addr:country": "DE", "addr:housenumber": "12", "addr:postcode": "10623", "addr:street": "Bleibtreustraße", "addr:suburb": "Charlottenburg", "amenity": "cinema", "check_date:opening_hours": "2023-06-03", "contact:phone": "+49 30 8821753", "contact:website": "http://www.filmkunst66.de", "name": "filmkunst 66", "opening_hours:signed": "no", "operator": "Regina Ziegler und Tanja Ziegler GbR", "toilets:wheelchair": "yes", "website": "http://www.filmkunst66.de", "wheelchair": "limited", "wheelchair:description": "Kinosaal 66 1/2 ist Rollstuhlgerecht. Kinosaal 66 ist nicht Rollstuhlgerecht. Es gibt keine Behindertentoilette.", "wikidata": "Q42297620"}}, {"type": "node", "id": 1965270875, "lat": 52.4837967, "lon": 13.4295458, "tags": {"amenity": "cinema", "name": "BE-KAS Sexothek & Kino", "shop": "erotic", "wheelchair": "no"}}, {"type": "node", "id": 2160083741, "lat": 52.5060698, "lon": 13.3305818, "tags": {"addr:city": "Berlin", "addr:country": "DE", "addr:housenumber": "10", "addr:postcode": "10623", "addr:street": "Kantstraße", "addr:suburb": "Charlottenburg", "amenity": "cinema", "contact:phone": "+49 30 322931322", "contact:website": "https://yorck.de/kinos/delphi-lux", "name": "Delphi LUX", "operator": "Yorck Kinogruppe", "screen": "7", "toilets:wheelchair": "yes", "wheelchair": "yes", "wikidata": "Q47092839", "wikimedia_commons": "Category:Delphi LUX"}}, {"type": "node", "id": 2445454963, "lat": 52.484682, "lon": 13.3200059, "tags": {"addr:city": "Berlin", "addr:country": "DE", "addr:housenumber": "18", "addr:postcode": "10713", "addr:street": "Blissestraße", "addr:suburb": "Wilmersdorf", "amenity": "cinema", "contact:website": "http://www.eva-lichtspiele.de", "name": "Eva Lichtspiele", "phone": "+49 30 92255305", "wheelchair": "limited", "wikidata": "Q20184003", "wikipedia": "de:Eva Lichtspiele"}}, {"type": "node", "id": 2458223837, "lat": 52.5524434, "lon": 13.4195677, "tags": {"addr:city": "Berlin", "addr:country": "DE", "addr:housenumber": "32", "addr:postcode": "10437", "addr:street": "Greifenhagener Straße", "addr:suburb": "Prenzlauer Berg", "amenity": "cinema", "contact:phone": "+49 30 44049298", "name": "Kino Krokodil", "opening_hours": "\"varies according to the monthly program (see website kino-krokodile.de, fliers)\"", "website": "https://kino-krokodil.de", "wheelchair": "no", "wikidata": "Q47088923"}}, {"type": "node", "id": 2476268052, "lat": 52.4789837, "lon": 13.3293579, "tags": {"addr:city": "Berlin", "addr:country": "DE", "addr:housenumber": "14", "addr:postcode": "10715", "addr:street": "Bundesplatz", "addr:suburb": "Wilmersdorf", "amenity": "cinema", "name": "Bundesplatz Studio", "phone": "+49 30 85406085", "website": "http://www.bundesplatz-kino.de", "wheelchair": "limited", "wikidata": "Q42297608"}}, {"type": "node", "id": 2479053617, "lat": 52.5020922, "lon": 13.3249378, "tags": {"addr:city": "Berlin", "addr:country": "DE", "addr:housenumber": "211", "addr:postcode": "10719", "addr:street": "Kurfürstendamm", "addr:suburb": "Charlottenburg", "amenity": "cinema", "contact:phone": "+49 30 881 31 19", "contact:website": "https://yorck.de/kinos/cinema-paris", "name": "Cinema Paris", "operator": "Yorck Kinogruppe", "screen": "1", "wheelchair": "yes", "wikidata": "Q42297616", "wikipedia": "de:Cinema Paris"}}, {"type": "node", "id": 3675973920, "lat": 52.5032784, "lon": 13.3300767, "tags": {"addr:city": "Berlin", "addr:country": "DE", "addr:housenumber": "225", "addr:postcode": "10719", "addr:street": "Kurfürstendamm", "addr:suburb": "Charlottenburg", "amenity": "cinema", "mapillary": "628321102194007", "name": "Astor Film Lounge", "phone": "+49 30 8838551", "website": "http://www.berlin.astor-filmlounge.de", "wheelchair": "limited", "wikidata": "Q42297614", "wikipedia": "de:Liste_der_Kinos_in_Berlin-Charlottenburg#Astor_Filmlounge"}}, {"type": "node", "id": 3817115996, "lat": 52.5585816, "lon": 13.3395608, "tags": {"amenity": "cinema", "email": "info@citykinowedding.de", "name": "City Kino Wedding im Centre Français", "opening_hours": "\"Nach Spielplan\"", "phone": "+49 152 59687921", "website": "https://citykinowedding.de/", "wikidata": "Q28963572", "wikimedia_commons": "Category:City Kino Wedding"}}, {"type": "node", "id": 4007032909, "lat": 52.5411019, "lon": 13.3849172, "tags": {"addr:city": "Berlin", "addr:country": "DE", "addr:housenumber": "25", "addr:postcode": "13355", "addr:street": "Gustav-Meyer-Allee", "addr:suburb": "Gesundbrunnen", "amenity": "cinema", "name": "Schneiders Filmclub", "note": "Studentisches Kino", "opening_hours": "\"nur zu speziellen vereinzelten Vorstellungen\"", "website": "https://bauinx.guv.tu-berlin.de/index.php/campusleben/unikino", "wheelchair": "yes"}}, {"type": "node", "id": 4723897691, "lat": 52.4826985, "lon": 13.4419119, "tags": {"addr:city": "Berlin", "addr:housenumber": "59", "addr:postcode": "12045", "addr:street": "Weserstraße", "amenity": "cinema", "name": "Wolf", "opening_hours": "Mo-Fr 10:00-24:00+, Sa,Su 12:00-24:00+", "toilets:wheelchair": "yes", "wheelchair": "yes", "wikidata": "Q47164663"}}, {"type": "node", "id": 4894834027, "lat": 52.5344522, "lon": 13.3600061, "tags": {"addr:city": "Berlin", "addr:country": "DE", "addr:housenumber": "35", "addr:postcode": "10557", "addr:street": "Lehrter Straße", "addr:suburb": "Moabit", "amenity": "cinema", "deaf:description:de": "Filme werden häufig mit Untertiteln vorgeführt.", "deaf:description:en": "This cinema regularily offers movies with subtitles.", "drive_in": "no", "name": "umsonst&draussen", "name2": "Windlicht", "open_air": "yes", "opening_hours": "Jun-Sep: Fr-Sa sunset-01:00 || 22:00-01:00", "phone": "+49 30 3844344", "toilets:wheelchair": "yes", "website": "http://www.filmrausch.de/#openair", "wheelchair": "limited"}}, {"type": "node", "id": 5153435222, "lat": 52.4916642, "lon": 13.4330413, "tags": {"addr:city": "Berlin", "addr:country": "DE", "addr:housenumber": "22", "addr:postcode": "12047", "addr:street": "Nansenstraße", "addr:suburb": "Neukölln", "amenity": "cinema", "contact:phone": "+49 30 62903878", "contact:website": "https://ilkino.de/", "name": "Il Kino", "opening_hours": "Mo-Su 14:00-22:00+", "toilets:wheelchair": "yes", "wheelchair": "yes", "wheelchair:description": "Die Gastronomie ist ebenerdig, der Kinosaal ist für Rollstuhlfahrer mit Hilfe des Personals über den Notausgang erreichbar.", "wikidata": "Q47089250"}}, {"type": "node", "id": 5389518870, "lat": 52.4989962, "lon": 13.3427073, "tags": {"amenity": "cinema", "name": "Connection Shop und Kino", "shop": "clothes", "wheelchair": "limited"}}, {"type": "node", "id": 6054353037, "lat": 52.5577272, "lon": 13.3851888, "tags": {"addr:city": "Berlin", "addr:housenumber": "59", "addr:postcode": "13359", "addr:street": "Prinzenallee", "amenity": "cinema", "name": "bi´bak", "website": "https://bi-bak.de", "wheelchair": "limited"}}, {"type": "node", "id": 6058229939, "lat": 52.5052642, "lon": 13.4418072, "tags": {"addr:city": "Berlin", "addr:housenumber": "13", "addr:postcode": "10243", "addr:street": "Mildred-Harnack-Straße", "amenity": "cinema", "brand": "UCI Kinowelt", "brand:wikidata": "Q521922", "brand:wikipedia": "de:United Cinemas International", "check_date:opening_hours": "2022-12-11", "email": "mercedesplatz@uci-kinowelt.de", "image": "http://www.kardorff.de/sites/www.kardorff.de/files/projectimages/uci190527_kar3947.jpg", "level": "2", "name": "UCI Luxe Mercedes Platz", "opening_hours:signed": "no", "operator": "Anschutz Entertainment Group", "payment:cash": "yes", "payment:credit_cards": "yes", "payment:debit_cards": "yes", "short_name": "UCI;UCI Luxe", "website": "https://www.mercedes-platz.de/entertainment/uci-luxe", "wheelchair": "yes", "wikidata": "Q118744391"}}, {"type": "node", "id": 6582271201, "lat": 52.5184355, "lon": 13.3975301, "tags": {"addr:city": "Berlin", "addr:housenumber": "2", "addr:postcode": "10117", "addr:street": "Unter den Linden", "amenity": "cinema", "name": "Zeughauskino", "opening_hours:signed": "no", "website": "https://www.dhm.de/zeughauskino/", "wheelchair": "limited", "wikidata": "Q196969", "wikimedia_commons": "Category:Zeughauskino"}}, {"type": "node", "id": 6697621223, "lat": 52.5077791, "lon": 13.425995, "tags": {"addr:city": "Berlin", "addr:country": "DE", "addr:housenumber": "137", "addr:postcode": "10179", "addr:street": "Köpenicker Straße", "addr:suburb": "Mitte", "amenity": "cinema", "contact:website": "https://koepi137.net/peliculoso.html", "fee": "no", "level": "-1", "name": "Videokino Peliculoso", "opening_hours": "Mo 21:00-23:30; Th 21:00-23:30", "screen": "1", "wheelchair": "no"}}, {"type": "node", "id": 7141376790, "lat": 52.5294934, "lon": 13.413028, "tags": {"addr:city": "Berlin", "addr:housenumber": "55", "addr:postcode": "10405", "addr:street": "Straßburger Straße", "amenity": "cinema", "name": "Kino in der Königstadt", "website": "https://kino-bar.berlin/"}}, {"type": "node", "id": 7710353352, "lat": 52.5127376, "lon": 13.4405751, "tags": {"addr:city": "Berlin", "addr:housenumber": "1", "addr:postcode": "10243", "addr:street": "Franz-Mehring-Platz", "amenity": "cinema", "description": "Freiluftkino: Zugang durch den Haupteingang des Vordergebäudes.", "level": "0", "name": "Hofkino", "payment:cash": "yes", "screen": "1", "website": "https://hofkino.berlin/", "wheelchair": "limited"}}, {"type": "node", "id": 7947855087, "lat": 52.5054322, "lon": 13.2993996, "tags": {"addr:city": "Berlin", "addr:housenumber": "19", "addr:postcode": "10627", "addr:street": "Windscheidstraße", "amenity": "cinema", "name": "Klick Kino", "toilets:wheelchair": "yes", "website": "http://www.klickkino.de/", "wheelchair": "limited", "wheelchair:description": "Kleine Schwelle am Eingang. Ein Platz im Kino für einen Rollstuhl", "wikidata": "Q47092950"}}, {"type": "node", "id": 8012457520, "lat": 52.3881304, "lon": 13.1215876, "tags": {"air_conditioning": "yes", "amenity": "cinema", "capacity": "155", "contact:website": "https://www.fx-center-babelsberg.com/kinosaal/", "level": "0", "name": "fx center babelsberg", "operator": "Studio Babelsberg AG", "screen": "1", "screen:direction": "190", "screen:height": "11.2", "screen:length": "4.7", "wheelchair": "yes"}}, {"type": "node", "id": 9079726511, "lat": 52.529586, "lon": 13.3958605, "tags": {"addr:city": "Berlin", "addr:country": "DE", "addr:housenumber": "2", "addr:postcode": "10115", "addr:street": "Bergstraße", "addr:suburb": "Mitte", "amenity": "cinema", "contact:email": "zinema@gmx.de", "contact:phone": "+49 30 28389121", "contact:website": "https://zbarberlin.com/kino-z-inema/", "description": "kleines Programmkino in den hinteren Räumen der Z-Bar. Auch andere Veranstaltungen wie Lesungen, Comedy...", "name": "Zinema", "opening_hours": "19:00+", "screen": "1", "wheelchair": "limited", "wikidata": "Q47165287"}}, {"type": "node", "id": 9858868570, "lat": 52.5087879, "lon": 13.3671829, "tags": {"addr:city": "Berlin", "addr:housenumber": "6", "addr:postcode": "10785", "addr:street": "Matthäikirchplatz", "amenity": "cinema", "brand": "Yorck Kinogruppe", "cinema:type": "open _air", "email": "hilfe@yorck.de", "image": "https://images.ctfassets.net/4mws6uyas4ta/2UjqVK1yZs1jIVW3PjtMrN/15aa600fa34db9f56e1ac4ec11e58cba/_MG_0446_klein.jpg", "level": "0", "name": "Sommerkino Kulturforum", "official_name": "Sommerkino Potsdamer Platz", "opening_hours": "Jun-Aug 21:15-23:45", "phone": "+49 3032 2931322", "website": "https://www.yorck.de/kinos/sommerkino-kulturforum", "wheelchair": "yes"}}, {"type": "node", "id": 9938090502, "lat": 52.4603855, "lon": 13.5087287, "tags": {"amenity": "cinema", "name": "Freiluftkino Insel"}}, {"type": "node", "id": 10287958985, "lat": 52.5437951, "lon": 13.3672393, "tags": {"amenity": "cinema", "name": "Sinema Transtopia", "website": "https://bi-bak.de/bi-bakino", "wheelchair": "limited"}}, {"type": "node", "id": 11052486472, "lat": 52.5588771, "lon": 13.3150115, "tags": {"amenity": "cinema"}}, {"type": "node", "id": 11200668007, "lat": 52.5478942, "lon": 13.4130423, "tags": {"addr:city": "Berlin", "addr:housenumber": "123", "addr:postcode": "10437", "addr:street": "Schönhauser Allee", "air_conditioning": "yes", "amenity": "cinema", "name": "Colosseum Filmtheater Berlin", "opening_hours": "Mo-Fr 14:30-22:00; Sa-Su,PH 13:00-22:00", "screen": "3", "website": "https://colosseum.premiumkino.de/"}}, {"type": "node", "id": 11218146026, "lat": 52.4769516, "lon": 13.3301926, "tags": {"amenity": "cinema", "name": "Cosima Filmtheater", "website": "http://cosima-filmtheater.de/"}}]}